LAT,LONG,NAME,ADDRESS,CITY,ZIPCODE,TOTACRE,MNGTAGCY,MUNICIPAL_,AMPHITHEAT,AUDITORIUM,ARCHERY,BASEBALL,BASKETBALL,BEACH,BMXTRACK,BOATRAMP,CAMPGROUND,RVCAMPGROU,DOGPARK,EQUESTRIAN,FOOTBALL,FRISBEEGOL,GOLF,GOLFDRIVIN,GUNRANGE,GYMNASIUM,MARINA,MOUNTAINBI,NATURECENT,NATURETRAI,RAQUETBALL,REC_CENTER,ROLLERHOCK,SHELTER,SKATING,SOCCER,STADIUM,SWIMMING,TENNIS,TOTLOT,TRACK400,TRAIL,VOLLEYBALL,WETPLAYGRO,WIFI,ZOO,ART,BIKETRAIL,CANOE_LAUNCH,FITNESSZONE,PLAYGROUND,RESTROOM
-80.38057273,25.58093463,Roberta Hunter Park,SW 117TH AVE / SW 200TH ST,MIAMI,33189,0,MiamiDadePark,County,No,No,No,No,No,No,No,No,No,No,No,No,No,No,No,No,No,No,No,No,No,No,No,No,No,No,No,No,No,No,No,No,No,Yes,No,No,No,No,No,No,No,No,No,No
-80.38503273,25.66776466,Rock Ridge Park,10810 SW 117TH AVE,MIAMI,33176,4.7,MiamiDadePark,County,No,No,No,No,No,No,No,No,No,No,No,No,No,No,No,No,No,No,No,No,No,No,No,No,No,No,No,No,No,No,No,No,No,Yes,No,No,No,No,No,No,No,No,No,No
-80.34443272,25.63491465,Rockdale Park,9325 SW 146TH ST,MIAMI,33176,3.2,MiamiDadePark,County,No,No,No,No,No,No,No,No,No,No,No,No,No,No,No,No,No,No,No,No,No,No,No,No,No,No,No,No,No,No,No,No,No,Yes,No,No,No,No,No,No,No,No,No,No
-80.34866273,25.74446468,Rockway Park,9460 SW 27TH DR,MIAMI,33165,1.81,MiamiDadePark,County,No,No,No,No,No,No,No,No,No,No,No,No,No,No,No,No,No,No,No,No,No,No,No,Yes,No,Yes,No,No,No,Yes,No,Yes,No,No,No,No,No,No,No,No,No,No,No,No
-80.2510427,25.8186447,Rocky Creek Park,3305 NW 48TH TER,MIAMI,33142,0.25,MiamiDadePark,County,No,No,No,No,No,No,No,No,No,No,No,No,No,No,No,No,No,No,No,No,No,No,No,No,No,No,No,No,No,No,No,Yes,No,Yes,No,No,No,No,No,No,No,No,No,No
-80.35010272,25.66719466,Ron Ehmann Park,10995 SW 97TH AVE,MIAMI,33176,0,MiamiDadePark,County,No,No,No,Yes,Yes,No,No,No,No,No,No,No,No,No,No,No,No,No,No,No,No,No,No,Yes,No,No,No,No,No,No,Yes,Yes,No,Yes,No,No,No,No,No,No,No,No,No,No
-80.11979266,25.94097473,Sunny Isles Beach,FROM N END OF HAULOVER TO 195TH ST,SUNNY ISLES BEACH,33160,0,MiamiDadePark,County,No,No,No,No,No,Yes,No,No,No,No,No,No,No,No,No,No,No,No,No,No,No,No,No,No,No,No,No,No,No,No,No,No,No,No,No,No,No,No,No,No,No,No,No,No
-80.16372804,25.69496729,Dog Park,450 CRANDON BLVD,Key Biscayne,33149,,KeyBiscaynePark,Municipal,No,No,No,No,No,No,No,No,No,No,Yes,No,No,No,No,No,No,No,No,No,No,No,No,No,No,No,No,No,No,No,No,No,No,No,No,No,No,No,No,No,No,No,No,No
-80.1648197,25.69166565,Key Biscayne Community Center,10 Village Green Way,Key Biscayne,33149,,KeyBiscaynePark,Municipal,No,No,No,No,Yes,No,No,No,No,No,No,No,No,No,No,No,No,Yes,No,No,No,No,No,Yes,No,No,No,No,No,Yes,No,Yes,No,No,Yes,No,Yes,No,No,No,No,No,No,No
-80.16237185,25.70176995,Calusa Park,6702 Crandon Boulevard,Key Biscayne,33149,,KeyBiscaynePark,County,No,No,No,No,No,No,No,No,No,No,No,No,No,No,No,No,No,No,No,No,No,No,No,No,No,Yes,No,No,No,No,Yes,No,No,No,No,No,No,No,No,No,No,No,No,No
-80.15751115,25.68908334,Beach Park,N Club Dr,Key Biscayne,33149,,KeyBiscaynePark,Municipal,No,No,No,No,No,Yes,No,No,No,No,No,No,No,No,No,No,No,No,No,No,No,No,No,No,No,Yes,No,No,No,Yes,No,No,No,No,No,No,No,No,No,No,No,No,No,No
-80.16121345,25.93201433,Y.E.S. Center/Marjorie & William McDonald Cen,17051 NE 19 Ave,North Miami Beach,33162,,NorthMiamiBeachPark,Municipal,,,,,Yes,,,,,,,,,,,,,,,,,,,Yes,,,,,,,,Yes,,,,,,,,,,,,
-80.15727286,25.90109488,,,,,,,Municipal,,,,,,,,,,,,,,,,,,,,,,,,,,,,,,,,,,,,,,,,,,,,
-80.27666533,25.82124151,Sansol,,,,,,Municipal,No,No,No,No,No,No,No,No,No,No,No,No,No,No,No,No,No,No,No,No,No,No,No,No,No,No,No,No,No,No,No,No,No,No,No,No,No,No,No,No,No,No,No,No
-80.12351739,25.93019725,Gateway Park,151 Sunny Isles Blvd.,Sunny Isles Beach,33160,,SunnyIslesBeachPark,Municipal,Yes,No,No,No,No,No,No,No,No,No,No,No,No,No,No,No,No,No,No,No,Yes,No,No,No,No,No,No,No,No,No,No,Yes,No,No,No,Yes,Yes,No,No,No,No,No,No,No
-80.12272345,25.92595173,Intracoastal Parks,16100 Collins Avenue,Sunny Isles beach,33160,,SunnyIslesBeachPark,Municipal,No,No,No,No,No,No,No,No,No,No,No,No,No,No,No,No,No,No,No,No,No,No,No,No,No,No,No,No,No,No,No,Yes,No,Yes,No,No,Yes,No,No,No,No,No,No,No
-80.16733025,25.69377571,401 Hampton,401 Hampton Lane,Key Biscayne,33149,,KeyBiscaynePark,Municipal,No,No,No,No,No,No,No,No,No,No,No,No,No,No,No,No,No,No,No,No,No,Yes,No,No,No,No,No,No,No,No,No,No,No,Yes,No,No,No,No,No,No,No,No,No,No
-80.16425912,25.69146987,Civic Park,530 Crandon Blvd,Key Biscayne,33149,,KeyBiscaynePark,Municipal,No,No,No,No,No,No,No,No,No,No,No,No,No,No,No,No,No,No,No,No,No,No,No,No,No,No,No,No,No,No,No,No,No,No,No,No,No,No,No,No,No,No,No,No
-80.2499027,25.8295047,Martin Luther King Memorial Park,6160 NW 32ND CT,MIAMI,33142,10.13,MiamiDadePark,County,No,No,No,No,Yes,No,No,No,No,No,No,No,No,No,No,No,No,No,No,No,No,No,Yes,Yes,No,No,No,No,No,No,Yes,Yes,No,Yes,No,No,No,No,No,No,No,No,No,No
-80.23707269,25.8194047,Marva Y. Bannerman Park & Pool,4830 NW 24TH AVE,MIAMI,33142,3.92,MiamiDadePark,County,No,No,No,No,Yes,No,No,No,No,No,No,No,No,No,No,No,No,No,No,No,No,No,No,Yes,No,No,No,No,No,Yes,Yes,Yes,No,No,No,No,No,No,No,No,No,No,No,No
-80.40768274,25.71067467,McMillan Park,6125 SW 133RD AVE,MIAMI,33183,8.6,MiamiDadePark,County,No,No,No,Yes,No,No,No,No,No,No,No,No,No,No,No,No,No,No,No,No,No,No,No,Yes,No,No,No,No,No,No,No,Yes,No,No,No,No,No,No,No,No,No,No,No,No
-80.40052274,25.57434463,MedSouth Park,20751 SW 129TH AVE,MIAMI,33177,4.49,MiamiDadePark,County,No,No,No,No,No,No,No,No,No,No,No,No,No,No,No,No,No,No,No,No,No,No,No,No,No,No,No,No,No,No,No,No,No,No,No,No,No,No,No,No,No,No,No,No
-80.2451727,25.80651469,Melrose Park,3050 NW 35TH ST,MIAMI,33142,0,MiamiDadePark,County,No,No,No,No,Yes,No,No,No,No,No,No,No,No,No,No,No,No,No,No,No,No,No,No,No,No,No,No,No,No,No,No,Yes,No,No,No,No,No,No,No,No,No,No,No,No
-80.11966266,25.8181147,Miami Beach,FROM SOUTH BEACH TO NW 86 ST,MIAMI BEACH,33141,0,MiamiDadePark,County,No,No,No,No,No,Yes,No,No,No,No,Yes,No,No,No,No,No,No,No,No,No,No,No,No,No,No,No,No,No,No,No,No,No,No,No,No,No,No,No,No,No,No,No,No,No
-80.39941274,25.61339464,Zoo Miami,12400 SW 152ND ST,MIAMI,33177,740,MiamiDadePark,County,Yes,No,No,No,No,No,No,No,No,No,No,No,No,No,No,No,No,No,No,No,No,No,No,No,No,Yes,No,No,No,No,No,Yes,No,Yes,Yes,Yes,No,Yes,No,No,No,No,No,No
-80.22225269,25.87340471,Miami Shores Optimist Club,10915 NW 14TH AVE,MIAMI,33167,9.2,MiamiDadePark,County,No,No,No,Yes,No,No,No,No,No,No,No,No,Yes,No,No,No,No,No,No,No,No,No,No,No,No,No,No,No,No,No,No,No,No,No,No,No,No,No,No,No,No,No,No,No
-80.24117269,25.77366469,Miami-Dade County Auditorium,2901 WEST FLAGLER ST,MIAMI,33125,9.47,MiamiDadePark,County,No,No,No,No,No,No,No,No,No,No,No,No,No,No,No,No,No,No,No,No,No,No,No,No,No,No,No,No,No,No,No,No,No,No,No,No,No,No,No,No,No,No,No,No
-80.34294273,25.8238047,Miami-Dade Regional Soccer Park,8795 NW 58TH ST,MIAMI,33178,33.57,MiamiDadePark,County,No,No,No,No,No,No,No,No,No,No,No,No,No,No,No,No,No,No,No,No,No,No,No,No,No,No,No,No,No,No,No,No,No,No,No,No,No,No,No,No,No,No,No,No
-80.30920271,25.73749467,A.D. Barnes Park,3401 SW 72ND AVE,MIAMI,33155,60.4,MiamiDadePark,County,No,No,No,No,Yes,No,No,No,No,No,No,No,No,No,No,No,No,No,No,No,Yes,Yes,No,Yes,No,Yes,No,No,No,Yes,No,Yes,No,Yes,No,No,No,No,No,No,No,No,No,No
-80.28939271,25.94987473,Acadia Park,5351 NW 195TH DR,MIAMI,33055,5.24,MiamiDadePark,County,No,No,No,No,Yes,No,No,No,No,No,No,No,No,No,No,No,No,No,No,No,No,No,No,No,No,No,No,No,No,No,No,Yes,No,Yes,No,No,No,No,No,No,No,No,No,No
-80.23192269,25.8310547,African Heritage Cultural Arts Cntr,2166 NW 62ND ST,MIAMI,33142,4,MiamiDadePark,County,No,No,No,No,No,No,No,No,No,No,No,No,No,No,No,No,No,No,No,No,No,No,No,No,No,No,No,No,No,No,No,No,No,No,No,No,No,No,No,No,No,No,No,No
-80.22222269,25.8358547,Alonzo Kelly Park,1455 NW 67TH ST,MIAMI,33147,0.5,MiamiDadePark,County,No,No,No,No,No,No,No,No,No,No,No,No,No,No,No,No,No,No,No,No,No,No,No,No,No,No,No,No,No,No,No,No,No,Yes,No,No,No,No,No,No,No,No,No,No
-80.27626271,25.88869471,Amelia Earhart Park,401 E 65 ST,HIALEAH,33014,515,MiamiDadePark,County,No,No,No,No,No,No,No,No,No,No,Yes,No,No,Yes,No,No,No,No,No,Yes,No,No,No,No,No,Yes,No,Yes,No,No,No,Yes,No,Yes,Yes,No,No,No,No,No,No,No,No,No
-80.16142267,25.90127472,Arch Creek Park,1855 NE 135TH ST,NORTH MIAMI BEACH,33181,0,MiamiDadePark,County,No,No,No,No,No,No,No,No,No,No,No,No,No,No,No,No,No,No,No,No,Yes,Yes,No,No,No,No,No,No,No,No,No,No,No,No,No,No,No,No,No,No,No,No,No,No
-80.21954269,25.85138471,Arcola Lakes Park,1301 NW 83RD ST,MIAMI,33147,3.85,MiamiDadePark,County,No,No,No,No,No,No,No,No,No,No,No,No,No,No,No,No,No,No,No,No,No,No,Yes,Yes,No,Yes,No,No,No,No,Yes,Yes,No,Yes,No,No,No,No,No,No,No,No,No,No
-80.36127273,25.64643465,Area 313,10350 SW 132ND ST,MIAMI,33176,0.94,MiamiDadePark,County,No,No,No,No,No,No,No,No,No,No,No,No,No,No,No,No,No,No,No,No,No,No,No,No,No,No,No,No,No,No,No,No,No,No,No,No,No,No,No,No,No,No,No,No
-80.35522272,25.65908465,Area 316,9905 SW 120TH ST,MIAMI,33176,2.3,MiamiDadePark,County,No,No,No,No,No,No,No,No,No,No,No,No,No,No,No,No,No,No,No,No,No,No,No,No,No,No,No,No,No,No,No,No,No,No,No,No,No,No,No,No,No,No,No,No
-80.35503272,25.65254465,Area 318,9900 SW 128TH ST,MIAMI,33176,4.69,MiamiDadePark,County,No,No,No,No,No,No,No,No,No,No,No,No,No,No,No,No,No,No,No,No,No,No,No,No,No,No,No,No,No,No,No,No,No,No,No,No,No,No,No,No,No,No,No,No
-80.35315273,25.73902467,Area 323,9750 SW 32ND ST,MIAMI,33165,4.49,MiamiDadePark,County,No,No,No,No,No,No,No,No,No,No,No,No,No,No,No,No,No,No,No,No,No,No,No,No,No,No,No,No,No,No,No,No,No,No,No,No,No,No,No,No,No,No,No,No
-80.35294273,25.74088467,Area 324,9761 SW 32ND ST,MIAMI,33165,1.89,MiamiDadePark,County,No,No,No,No,No,No,No,No,No,No,No,No,No,No,No,No,No,No,No,No,No,No,No,No,No,No,No,No,No,No,No,No,No,No,No,No,No,No,No,No,No,No,No,No
-80.36443273,25.64636465,Area 338,13211 SW 105TH AVE,MIAMI,33176,1.1,MiamiDadePark,County,No,No,No,No,No,No,No,No,No,No,No,No,No,No,No,No,No,No,No,No,No,No,No,No,No,No,No,No,No,No,No,No,No,No,No,No,No,No,No,No,No,No,No,No
-80.40315274,25.66661465,Arvida Park,12830 SW 108TH ST,MIAMI,33186,8,MiamiDadePark,County,No,No,No,No,No,No,No,No,No,No,No,No,No,No,No,No,No,No,No,No,No,No,No,No,No,No,No,No,No,No,No,Yes,No,Yes,No,No,No,No,No,No,No,No,No,No
-80.38437273,25.55430463,William Randolph Community Park,SW 228TH ST / SW 119TH AVE,MIAMI,33170,10,MiamiDadePark,County,No,No,No,No,No,No,No,No,No,No,No,No,No,No,No,No,No,No,No,No,No,No,No,No,No,No,No,No,No,No,No,No,No,No,No,No,No,No,No,No,No,No,No,No
-80.12121266,25.89339472,Bal Harbour Beach,9701 COLLINS AVE,BAL HARBOUR,33154,0,MiamiDadePark,County,No,No,No,No,No,Yes,No,No,No,No,No,No,No,No,No,No,No,No,No,No,No,No,No,No,No,No,No,No,No,No,No,No,No,No,No,No,No,No,No,No,No,No,No,No
-80.2842527,25.68768466,Banyan Drive Park,SW 56TH CT / BANYAN DR,CORAL GABLES,33156,0.8,MiamiDadePark,County,No,No,No,No,No,No,No,No,No,No,No,No,No,No,No,No,No,No,No,No,No,No,No,No,No,No,No,No,No,No,No,No,No,No,No,No,No,No,No,No,No,No,No,No
-80.33510272,25.74107468,Banyan Park,SW 30TH  ST / SW 87TH AVE,MIAMI,33155,3.14,MiamiDadePark,County,No,No,No,No,No,No,No,No,No,No,No,No,No,No,No,No,No,No,No,No,No,No,No,No,No,No,No,No,No,No,No,Yes,No,No,No,No,No,Yes,No,No,No,No,No,No
-80.36051272,25.60353464,Ben Shavis Park,10395 SW 179TH ST,MIAMI,33157,0.87,MiamiDadePark,County,No,No,No,No,No,No,No,No,No,No,No,No,No,No,No,No,No,No,No,No,No,No,No,No,No,No,No,No,No,No,No,No,No,Yes,No,No,No,No,No,No,No,No,No,No
-80.41864275,25.72215467,Bent Tree Park,13850 SW 47TH ST,MIAMI,33175,5.88,MiamiDadePark,County,No,No,No,No,Yes,No,No,No,No,No,No,No,No,No,No,No,No,No,No,No,No,No,No,No,No,Yes,No,No,No,No,Yes,Yes,No,Yes,No,No,No,No,No,No,No,No,No,No
-80.31921271,25.60820464,Bill Sadowski Preserve,17555 SW 79TH AVE,PALMETTO BAY,33157,29.26,MiamiDadePark,County,No,No,No,No,No,No,No,No,No,No,No,No,No,No,No,No,No,No,No,No,Yes,Yes,No,No,No,No,No,No,No,No,No,Yes,No,Yes,No,No,No,No,No,No,No,No,No,No
-80.44945275,25.74697467,Bird Basin Park,2080 SW 157TH AVE,MIAMI,33185,10,MiamiDadePark,County,No,No,No,No,No,No,No,No,No,No,No,No,No,No,No,No,No,No,No,No,No,No,No,No,No,No,No,No,No,No,No,No,No,No,No,No,No,No,No,No,No,No,No,No
-80.42729275,25.72143467,Bird Lakes Park,14365 SW 48TH LN,MIAMI,33175,8.47,MiamiDadePark,County,No,No,No,Yes,Yes,No,No,No,No,No,No,No,No,No,No,No,No,No,No,No,No,No,No,Yes,No,Yes,No,No,No,No,No,Yes,No,Yes,No,No,No,No,No,No,No,No,No,No
-80.50493276,25.49571461,Biscado Park,29150 SW 193RD AVE,MIAMI,33030,4.27,MiamiDadePark,County,No,No,No,No,No,No,No,No,No,No,No,No,No,No,No,No,No,No,No,No,No,No,No,No,No,No,No,No,No,No,No,No,No,No,No,No,No,No,No,No,No,No,No,No
-80.20209269,25.92117472,Biscayne Gardens Park,15951 NW 2ND AVE,MIAMI,33169,3.27,MiamiDadePark,County,No,No,No,No,No,No,No,No,No,No,No,No,No,No,No,No,No,No,No,No,No,No,No,No,No,No,No,No,No,No,No,No,No,Yes,No,No,No,No,No,No,No,No,No,No
-80.16841268,25.88218471,Biscayne Shores and Gardens Park,11525 NE 14TH AVE,MIAMI,33161,6.49,MiamiDadePark,County,No,No,No,No,No,No,No,No,No,No,No,No,No,No,No,No,No,No,No,No,No,No,No,No,No,No,No,No,No,No,No,No,No,Yes,No,No,No,No,No,No,No,No,No,No
-80.33124272,25.56222463,Biscayne Trail (East Side of canal),87TH AVE & OLD CUTLER,CUTLER BAY,33032,0,MiamiDadePark,County,No,No,No,No,No,No,No,No,No,No,No,No,No,No,No,No,No,No,No,No,No,No,No,No,No,No,No,No,No,No,No,No,No,No,No,No,No,No,No,No,No,No,No,No
-80.35035272,25.55077463,Black Creek Trail (Along C1 Canal),SW 184TH ST TO BLACK CREEK CANAL,CUTLER BAY,33189,0,MiamiDadePark,County,No,No,No,No,No,No,No,No,No,No,No,No,No,No,No,No,No,No,No,No,No,No,No,No,No,No,No,No,No,No,No,No,No,Yes,No,No,No,No,No,No,No,No,No,No
-80.32689271,25.53634462,Black Point Park and Marina,24775 SW 87TH AVE,MIAMI,33032,117.9,MiamiDadePark,County,No,No,No,No,No,No,No,Yes,No,No,No,No,No,No,No,No,No,No,Yes,No,No,No,No,No,No,No,No,No,No,No,No,No,No,Yes,No,No,No,No,No,No,No,No,No,No
-80.34246272,25.72915467,Blue Lakes Park,4225 SW 92ND AVE,MIAMI,33165,6,MiamiDadePark,County,No,No,No,Yes,Yes,No,No,No,No,No,No,No,No,No,No,No,No,No,No,No,No,No,No,No,No,No,No,No,No,No,Yes,Yes,No,Yes,No,No,No,No,No,No,No,No,No,No
-80.34726272,25.64813465,Briar Bay Golf Course,9399 SW 134TH ST,MIAMI,33176,39.7,MiamiDadePark,County,No,No,No,No,No,No,No,No,No,No,No,No,No,No,Yes,No,No,No,No,No,No,No,No,No,No,No,No,No,No,No,No,No,No,No,No,No,No,No,No,No,No,No,No,No
-80.34355272,25.64397465,Briar Bay Linear Park,9275 SW 136TH ST,MIAMI,33176,10.38,MiamiDadePark,County,No,No,No,No,No,No,No,No,No,No,No,No,No,No,No,No,No,No,No,No,No,No,No,No,No,No,No,No,No,No,No,No,No,No,No,No,No,No,No,No,No,No,No,No
-80.34056272,25.65003465,Briar Bay Park,9000 SW 128TH ST,MIAMI,33176,4.66,MiamiDadePark,County,No,No,No,No,No,No,No,No,No,No,No,No,No,No,No,No,No,No,No,No,No,No,No,No,No,No,No,No,No,No,No,Yes,No,Yes,No,No,No,No,No,No,No,No,No,No
-80.2549527,25.8542547,Broadmoor Park,8731 NW 35TH CT,MIAMI,33147,1.88,MiamiDadePark,County,No,No,No,No,No,No,No,No,No,No,No,No,No,No,No,No,No,No,No,No,No,No,No,No,No,No,No,No,No,No,No,Yes,No,Yes,No,No,No,No,No,No,No,No,No,No
-80.22736269,25.8374847,Broadway Park,6920 NW 18TH AVE,MIAMI,33147,0.5,MiamiDadePark,County,No,No,No,No,No,No,No,No,No,No,No,No,No,No,No,No,No,No,No,No,No,No,No,No,No,No,No,No,No,No,No,No,No,Yes,No,No,No,No,No,No,No,No,No,No
-80.31234271,25.74726468,Brothers To The Rescue Memorial Park,2420 SW 72ND AVE,MIAMI,33155,5.7,MiamiDadePark,County,No,No,No,Yes,No,No,No,No,No,No,No,No,No,No,No,No,No,No,No,No,No,No,No,Yes,No,No,No,No,No,No,No,No,No,No,No,No,No,No,No,No,No,No,No,No
-80.39805274,25.57934463,Charles Burr Park,20200 SW 127TH AVE,MIAMI,33177,4,MiamiDadePark,County,No,No,No,No,No,No,No,No,No,No,No,No,No,No,No,No,No,No,No,No,No,No,No,No,No,No,No,No,No,No,No,No,No,No,No,No,No,No,No,No,No,No,No,No
-80.41407274,25.55767463,PLANT,22200 SW 137TH AVE,MIAMI,33170,69.18,MiamiDadePark,County,No,No,No,No,No,No,No,No,No,No,No,No,No,No,No,No,No,No,No,No,No,No,No,No,No,No,No,No,No,No,No,No,No,No,No,No,No,No,No,No,No,No,No,No
-80.51244276,25.41937459,Plaza Licenciado Benito Juarez,19825 SW 376TH ST,MIAMI,33034,10,MiamiDadePark,County,No,No,No,No,No,No,No,No,No,No,No,No,No,No,No,No,No,No,No,No,No,No,No,No,No,Yes,No,Yes,No,No,No,Yes,No,No,No,No,No,No,No,No,No,No,No,No
-80.39741273,25.53344462,Princetonian Park,12755 SW 252ND TER,MIAMI,33032,6.5,MiamiDadePark,County,No,No,No,No,Yes,No,No,No,No,No,No,No,No,No,No,No,No,No,No,No,No,No,No,No,No,No,No,No,No,No,Yes,Yes,No,No,No,No,No,No,No,No,No,No,No,No
-80.37499273,25.59446464,Quail Roost Park,11336 QUAIL ROOST DR,MIAMI,33157,3.13,MiamiDadePark,County,No,No,No,No,No,No,No,No,No,No,No,No,No,No,No,No,No,No,No,No,No,No,No,No,No,No,No,No,No,No,No,No,No,No,No,No,No,No,No,No,No,No,No,No
-80.2728427,25.65836466,R. Hardy Matheson Preserve,11191 SNAPPER CREEK RD,CORAL GABLES,33156,0,MiamiDadePark,County,No,No,No,No,No,No,No,No,No,No,No,No,No,No,No,No,No,No,No,No,No,Yes,No,No,No,No,No,No,No,No,No,No,No,No,No,No,No,No,No,No,No,No,No,No
-80.49228276,25.53382462,Redland Fruit & Spice Park,24801 SW 187TH AVE,MIAMI,33031,36.59,MiamiDadePark,County,No,Yes,No,No,No,No,No,No,No,No,No,Yes,No,No,No,No,No,No,No,No,No,No,No,No,No,Yes,No,No,No,No,No,No,No,Yes,No,No,No,No,No,No,No,No,No,No
-80.37335273,25.63514465,Richmond Triangle Park,14375 BOGGS DR,MIAMI,33176,0.73,MiamiDadePark,County,No,No,No,No,No,No,No,No,No,No,No,No,No,No,No,No,No,No,No,No,No,No,No,No,No,No,No,No,No,No,No,No,No,No,No,No,No,No,No,No,No,No,No,No
-80.33353273,25.94930473,Spanish Lake,19405 NW 82ND AVE,MIAMI,33015,6.49,MiamiDadePark,County,No,No,No,No,No,No,No,No,No,No,No,No,No,No,No,No,No,No,No,No,No,No,No,No,No,No,No,No,No,No,No,Yes,No,Yes,No,No,No,No,No,No,No,No,No,No
-80.31172271,25.70358467,Sudlow Park,7281 SW 72ND ST,MIAMI,33143,1.12,MiamiDadePark,County,No,No,No,No,No,No,No,No,No,No,No,No,No,No,No,No,No,No,No,No,No,No,No,No,No,No,No,No,No,No,No,No,No,No,No,No,No,No,No,No,No,No,No,No
-80.42958275,25.67441466,Sugarwood Park,14551 SW 100TH ST,MIAMI,33186,7.72,MiamiDadePark,County,No,No,No,No,Yes,No,No,No,No,No,No,No,No,No,No,No,No,No,No,No,No,No,No,No,No,No,No,No,No,No,No,Yes,No,Yes,No,No,No,No,No,No,No,No,No,No
-80.2419527,25.8373047,27th Avenue Teen Center (Boxing),6940 NW 27TH AVE,MIAMI,33147,1.44,MiamiDadePark,County,No,No,No,No,No,No,No,No,No,No,No,No,No,No,No,No,No,No,No,No,No,No,No,No,No,No,No,No,No,No,No,No,No,No,No,No,No,No,No,No,No,No,No,No
-80.19902268,25.85066471,Soar Park,120 NW 83RD ST,MIAMI,33150,2.9,MiamiDadePark,County,No,No,No,Yes,Yes,No,No,No,No,No,No,No,No,No,No,No,No,No,No,No,No,No,No,Yes,No,No,No,No,No,No,No,Yes,No,Yes,No,No,No,No,No,No,No,No,No,No
-80.45626275,25.50558461,South Dade Park,16350 SW 280TH ST,MIAMI,33033,8.61,MiamiDadePark,County,No,No,No,No,Yes,No,No,No,No,No,No,No,Yes,No,No,No,No,No,No,No,No,No,No,Yes,No,No,No,No,No,Yes,Yes,Yes,No,Yes,No,No,No,No,No,No,No,No,No,No
-80.37944273,25.57324463,South Miami Heights Park,20800 SW 117TH AVE,MIAMI,33177,5.67,MiamiDadePark,County,No,No,No,No,No,No,No,No,No,No,No,No,No,No,No,No,No,No,No,No,No,No,No,No,No,No,No,No,No,No,No,No,No,No,No,No,No,No,No,No,No,No,No,No
-80.38979274,25.73822467,Southern Estates Park,12199 SW 34TH ST,MIAMI,33175,7.82,MiamiDadePark,County,No,No,No,Yes,No,No,No,No,No,No,No,No,No,No,No,No,No,No,No,No,No,No,No,No,No,No,Yes,No,No,No,Yes,Yes,No,Yes,No,No,No,No,No,No,No,No,No,No
-80.16015267,25.73629468,Virginia Key,3701 RICKENBACKER CSWY,MIAMI,33149,73.23,MiamiDadePark,County,No,No,No,No,No,No,No,No,No,No,No,No,No,No,No,No,No,No,No,No,No,No,No,No,No,No,No,No,No,No,No,No,No,No,No,No,No,No,No,No,No,No,No,No
-80.36939273,25.63423465,Walter A.White Park,10804 PERRY DR,MIAMI,33176,1.75,MiamiDadePark,County,No,No,No,No,No,No,No,No,No,No,No,No,No,No,No,No,No,No,No,No,No,No,No,No,No,No,No,No,No,No,No,Yes,No,Yes,No,No,No,No,No,No,No,No,No,No
-80.43648275,25.68065466,Water Oaks Park,9100 HAMMOCKS BLVD,MIAMI,33196,5,MiamiDadePark,County,No,No,No,No,No,No,No,No,No,No,No,No,No,No,No,No,No,No,No,No,No,No,Yes,No,No,No,No,No,No,No,Yes,Yes,No,No,No,No,No,No,No,No,No,No,No,No
-80.42986275,25.70662466,West Kendale Lakes Park,6400 KENDALE LAKES DR,MIAMI,33183,5.02,MiamiDadePark,County,No,No,No,No,No,No,No,No,No,No,No,No,No,No,No,No,No,No,No,No,No,No,No,No,No,No,No,No,No,No,No,Yes,No,No,No,No,No,No,No,No,No,No,No,No
-80.33561272,25.66726466,Killian Library Park,1161 SW 87TH CT,MIAMI,33176,3.42,MiamiDadePark,County,No,No,No,No,No,No,No,No,No,No,No,No,No,No,No,No,No,No,No,No,No,No,No,No,No,No,No,No,No,No,No,No,No,No,No,No,No,No,No,No,No,No,No,No
-80.46129276,25.69374466,Sun Lakes Park,SW 167TH AVE  &  SW 78TH ST,MIAMI,33193,7.12,MiamiDadePark,County,No,No,No,No,No,No,No,No,No,No,No,No,No,No,No,No,No,No,No,No,No,No,No,No,No,Yes,No,No,No,No,No,Yes,No,Yes,No,No,No,No,No,No,No,No,No,No
-80.33070272,25.71014467,Sunkist Park,8401 SW 64TH ST,MIAMI,33143,0.77,MiamiDadePark,County,No,No,No,No,No,No,No,No,No,No,No,No,No,No,No,No,No,No,No,No,No,No,No,No,No,No,No,No,No,No,No,No,No,No,No,No,No,No,No,No,No,No,No,No
-80.31377272,25.76118468,Sunset Heights Park,960 SW 73RD AVE,MIAMI,33144,0.32,MiamiDadePark,County,No,No,No,No,No,No,No,No,No,No,No,No,No,No,No,No,No,No,No,No,No,No,No,No,No,No,No,No,No,No,No,No,No,No,No,No,No,No,No,No,No,No,No,No
-80.22076269,25.8318547,Martin Luther King Blvd (NW 62 ST),6100 NW 32ND CT,MIAMI,33150,0,MiamiDadePark,County,No,No,No,No,No,No,No,No,No,No,No,No,No,No,No,No,No,No,No,No,No,No,No,No,No,No,No,No,No,No,No,No,No,No,No,No,No,No,No,No,No,No,No,No
-80.22465269,25.85350471,Arcola Park,1680 NW 87TH ST,MIAMI,33147,4.02,MiamiDadePark,County,No,No,No,Yes,Yes,No,No,No,No,No,No,No,No,No,No,No,No,No,No,No,No,No,No,Yes,No,No,No,No,No,Yes,No,Yes,No,Yes,No,No,No,No,No,No,No,No,No,No
-80.35000272,25.68600466,Cherry Grove Park,9101 SW 97TH AVE,MIAMI,33176,1.5,MiamiDadePark,County,No,No,No,No,No,No,No,No,No,No,No,No,No,No,No,No,No,No,No,No,No,No,No,No,No,Yes,No,No,No,No,No,Yes,No,Yes,No,No,No,No,No,No,No,No,No,No
-80.43287275,25.69591466,Kendall Green Park,14975 SW 80TH ST,MIAMI,33193,26.62,MiamiDadePark,County,No,No,No,No,No,No,No,No,No,No,No,No,No,No,No,No,No,No,No,No,No,No,No,No,No,No,No,No,No,No,No,No,No,Yes,No,No,No,No,No,No,No,No,No,No
-80.43457275,25.75201468,Tree Island Park & Preserve,14800 SW 10TH ST,MIAMI,33185,120,MiamiDadePark,County,No,No,No,No,No,No,No,No,No,No,No,No,No,No,No,No,No,No,No,No,No,No,No,No,No,No,No,No,No,No,No,No,No,No,No,No,No,No,No,No,No,No,No,No
-80.36036273,25.72398467,Tropical Estates Park,10201 SW 48TH ST,MIAMI,33165,9.07,MiamiDadePark,County,No,No,No,Yes,No,No,No,No,No,No,No,No,No,No,No,No,No,No,No,No,No,No,No,Yes,No,No,No,No,No,Yes,No,Yes,No,Yes,No,No,No,No,No,No,No,No,No,No
-80.32320272,25.72526467,Tropical Park,7900 SW 40TH ST,MIAMI,33155,275,MiamiDadePark,County,No,No,No,Yes,Yes,No,No,Yes,No,No,Yes,Yes,No,No,No,No,No,No,No,No,No,No,Yes,Yes,No,No,No,Yes,Yes,No,Yes,Yes,Yes,Yes,No,No,Yes,No,No,No,No,No,No,No
-80.17982268,25.85772471,Military Trail Park,825 NE 89TH ST,MIAMI,33138,1.66,MiamiDadePark,County,No,No,No,No,No,No,No,No,No,No,No,No,No,No,No,No,No,No,No,No,No,No,No,No,No,No,No,No,No,No,No,No,No,Yes,No,No,No,No,No,No,No,No,No,No
-80.34870272,25.71701467,Miller Drive Park,5510 SW 94TH CT,MIAMI,33165,4.07,MiamiDadePark,County,No,No,No,No,Yes,No,No,No,No,No,No,No,No,No,No,No,No,No,No,No,No,No,No,Yes,No,No,No,No,No,No,Yes,Yes,No,No,No,No,No,No,No,No,No,No,No,No
-80.41063274,25.72058467,Millers Pond Park,13350 SW 47TH ST,MIAMI,33175,13.07,MiamiDadePark,County,No,No,No,No,No,No,No,No,No,No,No,No,No,No,No,No,No,No,No,No,No,No,No,Yes,No,No,No,Yes,No,No,No,Yes,No,Yes,No,No,No,No,No,No,No,No,No,No
-80.23105269,25.8328847,Model Cities Trail,NW 79 ST & 19 AVE TO NW 48 TER & NW 24TH AVE,MIAMI,33147,0,MiamiDadePark,County,No,No,No,No,No,No,No,No,No,No,No,No,No,No,No,No,No,No,No,No,No,No,No,No,No,No,No,No,No,No,No,No,No,No,No,No,No,No,No,No,No,No,No,No
-80.43798274,25.50206461,Modello Park,28450 SW 152ND AVE,MIAMI,33033,10,MiamiDadePark,County,No,No,No,Yes,Yes,No,No,No,No,No,No,No,No,No,No,No,No,No,No,No,No,No,No,Yes,No,No,No,No,No,No,Yes,Yes,No,No,No,No,No,No,No,No,No,No,No,No
-80.44737275,25.49865461,Modello Wayside Park,28850 S DIXIE HWY,MIAMI,33033,2.74,MiamiDadePark,County,No,No,No,No,No,No,No,No,No,No,No,No,No,No,No,No,No,No,No,No,No,No,No,No,No,No,No,No,No,No,No,No,No,No,No,No,No,No,No,No,No,No,No,No
-80.42527274,25.51371462,Naranja Lakes Park,14410 SW 272ND ST,MIAMI,33032,1.48,MiamiDadePark,County,No,No,No,No,No,No,No,No,No,No,No,No,No,No,No,No,No,No,No,No,No,No,No,No,No,No,No,No,No,No,No,Yes,No,Yes,No,No,No,No,No,No,No,No,No,No
-80.42099274,25.52073462,Naranja Park,14150 SW 264TH ST,MIAMI,33032,10,MiamiDadePark,County,No,No,No,Yes,Yes,No,No,No,No,No,No,No,No,No,No,No,No,No,No,No,No,No,No,Yes,No,No,No,No,No,Yes,No,Yes,No,No,No,No,No,No,No,No,No,No,No,No
-80.50436276,25.4385746,Navy Wells Pineland Preserve,SW 360TH ST / SW 192ND AVE,MIAMI,33034,251.17,MiamiDadePark,County,No,No,No,No,No,No,No,No,No,No,No,No,No,No,No,No,No,No,No,No,No,No,No,No,No,No,No,No,No,No,No,No,No,No,No,No,No,No,No,No,No,No,No,No
-80.33327272,25.59120464,Ned Glenn Nature Preserve,SW 87TH AVE / SW 188TH ST,CUTLER BAY,33157,0,MiamiDadePark,County,No,No,No,No,No,No,No,No,No,No,No,No,No,No,No,No,No,No,No,No,No,No,No,No,No,No,No,No,No,No,No,No,No,No,No,No,No,No,No,No,No,No,No,No
-80.40520274,25.65072465,Nixon Smiley Pineland Preserve,13200 SW 124TH ST,MIAMI,33186,62.67,MiamiDadePark,County,No,No,No,No,No,No,No,No,No,No,No,No,No,No,No,No,No,No,No,No,No,No,No,No,No,No,No,No,No,No,No,No,No,No,No,No,No,No,No,No,No,No,No,No
-80.33053273,25.93443472,Norman & Jean Reach Park,7895 NW 176TH ST,MIAMI,33015,5,MiamiDadePark,County,No,No,No,Yes,Yes,No,No,No,No,No,No,No,No,No,No,No,No,No,No,No,No,No,No,Yes,No,No,No,No,No,Yes,Yes,Yes,No,No,No,No,No,No,No,No,No,No,No,No
-80.31771272,25.94851473,Area 262,FPL NORTH AREA OF EASEMENT ADJ TO CCM SOUTH PK,MIAMI,33015,47.85,MiamiDadePark,County,No,No,No,No,No,No,No,No,No,No,No,No,No,No,No,No,No,No,No,No,No,No,No,No,No,No,No,No,No,No,No,No,No,No,No,No,No,No,No,No,No,No,No,No
-80.32033272,25.94037473,Area 1176,FPL SOUTH AREA OF EASEMENT ADJ. TO CCM SOUTH PARK,MIAMI,33015,34.82,MiamiDadePark,County,No,No,No,No,No,No,No,No,No,No,No,No,No,No,No,No,No,No,No,No,No,No,No,No,No,No,No,No,No,No,No,No,No,No,No,No,No,No,No,No,No,No,No,No
-80.43137274,25.50496461,Royal Colonial Park,14850 SW 280TH ST,MIAMI,33033,25.4,MiamiDadePark,County,No,No,No,No,No,No,No,No,No,No,No,No,No,No,No,No,No,No,No,No,No,No,No,No,No,No,No,No,No,Yes,No,No,No,No,No,No,No,No,No,No,No,No,No,No
-80.40568274,25.72416467,Royale Green Park,13000 SW 45TH LN,MIAMI,33175,3.33,MiamiDadePark,County,No,No,No,No,No,No,No,No,No,No,No,No,No,No,No,No,No,No,No,No,No,No,No,No,No,No,No,No,No,No,No,Yes,No,Yes,No,No,No,No,No,No,No,No,No,No
-80.37973273,25.66820466,Sabal Chase Park,10940 SW 113TH PL,MIAMI,33176,12.32,MiamiDadePark,County,No,No,No,No,No,No,No,No,No,No,No,No,No,No,No,No,No,No,No,No,No,No,No,No,No,No,No,No,No,No,No,No,No,Yes,No,No,No,No,No,No,No,No,No,No
-80.2678627,25.75771468,San Jacinto Park,4430 SW 15TH TER,MIAMI,33134,0.92,MiamiDadePark,County,No,No,No,No,No,No,No,No,No,No,No,No,No,No,No,No,No,No,No,No,No,No,No,No,No,No,No,No,No,No,No,No,No,No,No,No,No,No,No,No,No,No,No,No
-80.45098275,25.66565465,Sandpiper Park,11100 SW 157TH AVE,MIAMI,33196,5,MiamiDadePark,County,No,No,No,No,No,No,No,No,No,No,No,No,No,No,No,No,No,No,No,No,No,No,No,No,No,No,No,Yes,No,No,No,No,No,No,No,No,No,No,No,No,No,No,No,No
-80.28770271,25.74526468,Schenley Park,2750 SW 57TH AVE,MIAMI,33134,2,MiamiDadePark,County,No,No,No,No,No,No,No,No,No,No,No,No,No,No,No,No,No,No,No,No,No,No,No,No,No,No,No,No,No,No,No,No,No,No,No,No,No,No,No,No,No,No,No,No
-80.45461275,25.48883461,Seminole Wayside Park,29901 S DIXIE HWY,MIAMI,33033,28.73,MiamiDadePark,County,No,No,No,No,No,No,No,No,No,No,No,No,No,No,No,No,No,No,No,No,No,No,No,No,No,No,No,No,No,No,No,No,No,No,No,No,No,No,No,No,No,No,No,No
-80.41902274,25.60089464,Serena Lakes Park,13965 SW 180TH ST,MIAMI,33177,5,MiamiDadePark,County,No,No,No,No,No,No,No,No,No,No,No,No,No,No,No,No,No,No,No,No,No,No,No,No,No,Yes,No,No,No,No,No,Yes,No,Yes,No,No,No,No,No,No,No,No,No,No
-80.41381274,25.67912466,Calusa Club Estates Park,13464 SW 96TH ST,MIAMI,33186,6.57,MiamiDadePark,County,No,No,No,No,Yes,No,No,No,No,No,No,No,No,No,No,No,No,No,No,No,No,No,No,No,No,No,No,No,No,No,No,Yes,No,No,No,No,No,No,No,No,No,No,No,No
-80.41912274,25.65833465,Camp Matecumbe,13841 SW 120TH ST,MIAMI,33186,21.46,MiamiDadePark,County,No,Yes,No,Yes,Yes,No,No,No,No,No,No,No,No,No,No,No,No,No,No,No,No,No,No,Yes,No,No,No,No,No,No,No,No,No,No,No,No,No,No,No,No,No,No,No,No
-80.46968276,25.52398462,Camp Owaissa Bauer,17001 SW 264TH ST,MIAMI,33031,92.92,MiamiDadePark,County,No,No,No,No,Yes,No,No,No,No,No,No,No,No,No,No,No,No,No,No,No,Yes,Yes,No,Yes,No,Yes,No,No,No,Yes,No,No,No,No,Yes,No,No,No,No,No,No,No,No,No
-80.44236275,25.52971462,Camp Redlands,15431 SW 256TH ST,MIAMI,33032,10,MiamiDadePark,County,No,No,No,No,No,No,No,No,No,No,No,No,No,No,No,No,No,No,No,No,No,No,No,No,No,No,No,No,No,No,No,No,No,Yes,No,No,No,No,No,No,No,No,No,No
-80.38433273,25.57996463,Caribbean Park,11900 SW 200TH ST,MIAMI,33177,5.23,MiamiDadePark,County,No,No,No,No,No,No,No,No,No,No,No,No,No,No,No,No,No,No,No,No,No,No,No,No,No,No,No,No,No,No,No,Yes,No,Yes,No,No,No,No,No,No,No,No,No,No
-80.44964275,25.55922463,Castellow Hammock Preserve,22301 SW 162ND AVE,MIAMI,33170,65,MiamiDadePark,County,No,No,No,No,No,No,No,No,No,No,No,No,No,No,No,No,No,No,No,No,Yes,Yes,No,No,No,Yes,No,No,No,No,No,No,No,No,No,No,No,No,No,No,No,No,No,No
-80.2866127,25.64391465,Chapman Field Park,13601 DEERING BAY DRIVE,CORAL GABLES,33158,566,MiamiDadePark,County,No,No,No,Yes,No,No,No,No,No,No,No,No,No,No,No,No,No,No,Yes,No,No,No,No,No,No,No,No,No,No,No,No,No,No,Yes,No,No,No,No,No,No,No,No,No,No
-80.30611271,25.62052465,Charles Deering Estate,16701 SW 72ND AVE,PALMETTO BAY,33157,10.57,MiamiDadePark,County,No,No,No,No,No,No,No,No,No,No,No,No,No,No,No,No,No,No,No,No,No,Yes,No,No,No,Yes,No,No,No,No,No,No,No,Yes,No,No,No,No,No,No,No,No,No,No
-80.44436275,25.61252464,Chuck Pezoldt Park,16555 SW 157TH AVE,MIAMI,33187,40,MiamiDadePark,County,No,No,No,No,Yes,No,No,No,No,No,No,No,No,No,No,No,No,No,No,No,No,No,No,No,No,No,No,No,No,No,No,Yes,No,Yes,No,No,No,No,No,No,No,No,No,No
-80.50428276,25.41209459,Cinco de Mayo Park,19351 SW 384TH ST,MIAMI,33034,0,MiamiDadePark,County,No,No,No,Yes,Yes,No,No,No,No,No,No,No,No,No,No,No,No,No,No,No,No,No,No,Yes,No,No,No,Yes,No,No,No,No,Yes,Yes,Yes,No,No,No,No,No,No,No,No,No
-80.2377927,25.8265747,Claire Rosichan Park,2450 NW 57TH ST,MIAMI,33142,0.38,MiamiDadePark,County,No,No,No,No,No,No,No,No,No,No,No,No,No,No,No,No,No,No,No,No,No,No,No,No,No,No,No,No,No,No,No,Yes,No,Yes,No,No,No,No,No,No,No,No,No,No
-80.41751274,25.69178466,Kendale Lakes SP Tax Dist Tract A3a,SW 137TH AVE & KENDALE LAKES BLVD,MIAMI,33183,0.46,MiamiDadePark,County,No,No,No,No,No,No,No,No,No,No,No,No,No,No,No,No,No,No,No,No,No,No,No,No,No,No,No,No,No,No,No,No,No,No,No,No,No,No,No,No,No,No,No,No
-80.2651027,25.67732466,Matheson Hammock Park,9610 OLD CUTLER RD,CORAL GABLES,33156,629,MiamiDadePark,County,No,No,No,No,No,Yes,No,Yes,No,No,No,No,No,No,No,No,No,No,Yes,No,No,No,No,No,No,Yes,No,No,No,No,No,No,No,No,No,No,No,No,No,No,No,No,No,No
-80.28424271,25.93203472,North Glade Park,17355 NW 52ND AVE,MIAMI,33055,4,MiamiDadePark,County,No,No,No,Yes,Yes,No,No,No,No,No,No,No,No,No,No,No,No,No,No,No,No,No,No,Yes,No,No,No,No,No,No,Yes,Yes,No,No,No,No,No,No,No,No,No,No,No,No
-80.18048268,25.85644471,North Shorecrest Park,801 NE 88TH ST,MIAMI,33138,0.5,MiamiDadePark,County,No,No,No,No,No,No,No,No,No,No,No,No,No,No,No,No,No,No,No,No,No,No,No,No,No,No,No,No,No,No,No,Yes,No,Yes,No,No,No,No,No,No,No,No,No,No
-80.42134274,25.52586462,North South Trail,US 1 FROM SW 312TH  ST TO SW 216TH ST,MIAMI,33030,0,MiamiDadePark,County,No,No,No,No,No,No,No,No,No,No,No,No,No,No,No,No,No,No,No,No,No,No,No,No,No,No,No,No,No,No,No,No,No,Yes,No,No,No,No,No,No,No,No,No,No
-80.40258274,25.77614468,North Trail Park,780 NW 127TH AVE,MIAMI,33182,15.3,MiamiDadePark,County,No,No,No,No,Yes,No,No,No,No,No,No,No,No,No,No,No,No,No,No,No,No,No,No,Yes,No,No,No,No,No,No,Yes,Yes,No,No,Yes,No,No,No,No,No,No,No,No,No
-80.23626269,25.8359747,Northwest Highlands Park,2361 NW 67TH ST,MIAMI,33147,0.8,MiamiDadePark,County,No,No,No,No,No,No,No,No,No,No,No,No,No,No,No,No,No,No,No,No,No,No,No,No,No,No,No,No,No,No,No,Yes,No,Yes,No,No,No,No,No,No,No,No,No,No
-80.44419275,25.63226465,Oak Creek Park,14421 SW 155TH AVE,MIAMI,33196,5.03,MiamiDadePark,County,No,No,No,No,Yes,No,No,No,No,No,No,No,No,No,No,No,No,No,No,No,No,No,No,No,No,No,No,No,No,No,No,Yes,No,Yes,No,No,No,No,No,No,No,No,No,No
-80.18582268,25.91978472,Oak Grove Park,690 NE 159TH ST,MIAMI,33162,21.71,MiamiDadePark,County,No,No,No,Yes,No,No,No,No,No,No,No,No,No,No,No,No,No,No,No,No,No,No,No,Yes,No,No,No,No,No,No,Yes,Yes,No,Yes,Yes,No,No,No,No,No,No,No,No,No
-80.2332127,25.95425473,Chittohatchee Park at Honey Hill,1880 NW 199 ST,Miami,33056,2.44,MiamiDadePark,County,No,No,No,No,No,No,No,No,No,No,No,No,No,No,No,No,No,No,No,No,No,No,No,No,No,No,No,No,No,No,No,No,No,No,No,No,No,No,No,No,No,No,No,No
-80.44668275,25.4669646,Area 291,SW 323RD ST/SW 157TH AVE,MIAMI,33033,10.36,MiamiDadePark,County,No,No,No,No,No,No,No,No,No,No,No,No,No,No,No,No,No,No,No,No,No,No,No,No,No,No,No,No,No,No,No,No,No,No,No,No,No,No,No,No,No,No,No,No
-80.29869271,25.73738467,Coral Villas Park,6398 SW 35TH ST,MIAMI,33155,0.37,MiamiDadePark,County,No,No,No,No,No,No,No,No,No,No,No,No,No,No,No,No,No,No,No,No,No,No,No,No,No,No,No,No,No,No,No,No,No,No,No,No,No,No,No,No,No,No,No,No
-80.45596275,25.48713461,Seminole Wayside Addition,SW 300 ST and US 1,MIAMI,33033,4.32,MiamiDadePark,County,No,No,No,No,No,No,No,No,No,No,No,No,No,No,No,No,No,No,No,No,No,No,No,No,No,No,No,No,No,No,No,No,No,No,No,No,No,No,No,No,No,No,No,No
-80.35726272,25.60955464,Domino Park,10202 SW 172ND ST,MIAMI,33157,0.15,MiamiDadePark,County,No,No,No,No,No,No,No,No,No,No,No,No,No,No,No,No,No,No,No,No,No,No,No,No,No,No,No,No,No,No,No,No,No,No,No,No,No,No,No,No,No,No,No,No
-80.2368227,25.8503147,West Little River Park,2450 NW 84TH ST,MIAMI,33147,0,MiamiDadePark,County,No,No,No,Yes,Yes,No,No,No,No,No,No,No,No,No,No,No,No,No,No,No,No,No,No,Yes,No,No,No,No,No,No,No,No,No,No,No,No,No,No,No,No,No,No,No,No
-80.36020273,25.61065464,West Perrine Park,17121 SW 104TH AVE,MIAMI,33157,8.38,MiamiDadePark,County,No,No,No,Yes,Yes,No,No,No,No,No,No,No,No,No,No,No,No,No,No,No,No,No,No,No,No,No,No,No,No,No,Yes,No,No,No,No,No,No,No,No,No,No,No,No,No
-80.35419272,25.60288464,West Perrine Senior Center,17801 HOMESTEAD AVE,MIAMI,33157,0,MiamiDadePark,County,No,No,No,No,No,No,No,No,No,No,No,No,No,No,No,No,No,No,No,No,No,No,No,Yes,No,No,No,No,No,No,No,Yes,No,No,No,No,No,No,No,No,No,No,No,No
-80.36263273,25.75655468,Westbrook Park,1325 SW 103RD PL,MIAMI,33174,2.45,MiamiDadePark,County,No,No,No,No,No,No,No,No,No,No,No,No,No,No,No,No,No,No,No,No,No,No,No,No,No,No,No,No,No,No,No,No,No,No,No,No,No,No,No,No,No,No,No,No
-80.43886275,25.70385466,Westwind Lakes Park,6805 SW 152ND AVE,MIAMI,33193,20.74,MiamiDadePark,County,No,No,No,No,No,No,No,No,No,No,No,No,No,No,No,No,No,No,No,No,No,No,No,Yes,No,No,Yes,Yes,No,No,No,Yes,No,No,No,No,No,No,No,No,No,No,No,No
-80.44650275,25.70260466,Westwind Lakes SP TX Dist TR A,6411 SW 157TH AVE,MIAMI,33193,10.48,MiamiDadePark,County,No,No,No,No,No,No,No,No,No,No,No,No,No,No,No,No,No,No,No,No,No,No,No,No,No,No,No,No,No,No,No,No,No,No,No,No,No,No,No,No,No,No,No,No
-80.43383275,25.70668466,Westwind Lakes SP TX Dist TR FP2,6400 SW 148TH AVE,MIAMI,33193,2.95,MiamiDadePark,County,No,No,No,No,No,No,No,No,No,No,No,No,No,No,No,No,No,No,No,No,No,No,No,No,No,No,No,No,No,No,No,No,No,No,No,No,No,No,No,No,No,No,No,No
-80.44139275,25.70941466,Westwind Lakes SP TX Dist TR G,6300 SW 152ND AVE,MIAMI,33193,4.92,MiamiDadePark,County,No,No,No,No,No,No,No,No,No,No,No,No,No,No,No,No,No,No,No,No,No,No,No,No,No,No,No,No,No,No,No,No,No,No,No,No,No,No,No,No,No,No,No,No
-80.42386275,25.69085466,Kendale Lakes SP Tax Dist Lot 1,8211 SW 142ND AVE,MIAMI,33183,0.38,MiamiDadePark,County,No,No,No,No,No,No,No,No,No,No,No,No,No,No,No,No,No,No,No,No,No,No,No,No,No,No,No,No,No,No,No,No,No,No,No,No,No,No,No,No,No,No,No,No
-80.42264275,25.69734466,Kendale Lakes SP Tax Dist Lot 38,7421 SW 142ND AVE,MIAMI,33183,0.38,MiamiDadePark,County,No,No,No,No,No,No,No,No,No,No,No,No,No,No,No,No,No,No,No,No,No,No,No,No,No,No,No,No,No,No,No,No,No,No,No,No,No,No,No,No,No,No,No,No
-80.32433272,25.66679466,South Dade Trail Mini Park,7975 SW 112TH ST,MIAMI,33176,0.99,MiamiDadePark,County,No,No,No,No,No,No,No,No,No,No,No,No,No,No,No,No,No,No,No,No,No,No,No,No,No,No,No,No,No,No,No,No,No,No,No,No,No,No,No,No,No,No,No,No
-80.21051269,25.8421247,Area 222,769 NW 73RD ST,MIAMI,33150,0.5,MiamiDadePark,County,No,No,No,No,No,No,No,No,No,No,No,No,No,No,No,No,No,No,No,No,No,No,No,No,No,No,No,No,No,No,No,No,No,No,No,No,No,No,No,No,No,No,No,No
-80.2456827,25.8277347,Area 225,3023 NW 58TH ST,MIAMI,33142,0.39,MiamiDadePark,County,No,No,No,No,Yes,No,No,No,No,No,No,No,No,No,No,No,No,No,No,No,No,No,No,No,No,No,No,No,No,No,No,No,No,Yes,No,No,No,No,No,No,No,No,No,No
-80.21225269,25.8389247,Area 226,875 NW 70TH ST,MIAMI,33150,0.5,MiamiDadePark,County,No,No,No,No,No,No,No,No,No,No,No,No,No,No,No,No,No,No,No,No,No,No,No,No,No,No,No,No,No,No,No,Yes,No,Yes,No,No,No,No,No,No,No,No,No,No
-80.22265269,25.8298447,Area 227,NW 59TH ST / NW 15TH AVE,MIAMI,33142,0.5,MiamiDadePark,County,No,No,No,No,No,No,No,No,No,No,No,No,No,No,No,No,No,No,No,No,No,No,No,No,No,No,No,No,No,No,No,No,No,Yes,No,No,No,No,No,No,No,No,No,No
-80.36533273,25.73449004,Area 258,3600 SW 104TH CT,MIAMI,33165,4.2,MiamiDadePark,County,No,No,No,No,No,No,No,No,No,No,No,No,No,No,No,No,No,No,No,No,No,No,No,No,No,No,No,No,No,No,No,No,No,No,No,No,No,No,No,No,No,No,No,No
-80.32637272,25.64056465,Area 259,SW 139TH TER / SW 82ND AVE,PALMETTO BAY,33158,1.1,MiamiDadePark,County,No,No,No,No,No,No,No,No,No,No,No,No,No,No,No,No,No,No,No,No,No,No,No,No,No,No,No,No,No,No,No,No,No,No,No,No,No,No,No,No,No,No,No,No
-80.36338273,25.64640465,Area 312,10420 SW 132ND ST,MIAMI,33176,1.1,MiamiDadePark,County,No,No,No,No,No,No,No,No,No,No,No,No,No,No,No,No,No,No,No,No,No,No,No,No,No,No,No,No,No,No,No,No,No,No,No,No,No,No,No,No,No,No,No,No
-80.35566272,25.56241463,Lincoln City Park #1,SW 220TH ST / 102ND AVE,MIAMI,33190,1,MiamiDadePark,County,No,No,No,No,No,No,No,No,No,No,No,No,No,No,No,No,No,No,No,No,No,No,No,No,No,No,No,No,No,No,No,No,No,No,No,No,No,No,No,No,No,No,No,No
-80.36649273,25.56104463,Lincoln Estates Park,22210 SW 108TH AVE,MIAMI,33170,0.8,MiamiDadePark,County,No,No,No,No,No,No,No,No,No,No,No,No,No,No,No,No,No,No,No,No,No,No,No,No,No,No,No,No,No,No,No,No,No,No,No,No,No,No,No,No,No,No,No,No
-80.2395627,25.87074471,Little River Park,10525 NW 24TH AVE,MIAMI,33147,9,MiamiDadePark,County,No,No,No,Yes,Yes,No,No,No,No,No,No,No,No,No,No,No,No,No,No,No,No,No,No,Yes,No,No,No,No,No,Yes,No,Yes,No,Yes,No,No,No,No,No,No,No,No,No,No
-80.38397273,25.59338464,Losner Park,11851 SW 188TH ST,MIAMI,33177,0.57,MiamiDadePark,County,No,No,No,No,No,No,No,No,No,No,No,No,No,No,No,No,No,No,No,No,No,No,No,No,No,No,No,No,No,No,No,No,No,No,No,No,No,No,No,No,No,No,No,No
-80.42735275,25.69251466,Kendale Lakes Park,7850 SW 142ND AVE,MIAMI,33183,15.69,MiamiDadePark,County,No,No,No,No,Yes,No,No,No,No,No,No,No,No,No,No,No,No,No,No,No,No,No,Yes,Yes,No,No,No,No,No,No,Yes,Yes,No,Yes,No,No,No,No,No,No,No,No,No,No
-80.37308273,25.58660463,Southridge Park,19355 SW 114TH AVE,MIAMI,33157,16.1,MiamiDadePark,County,No,No,No,Yes,No,No,No,No,No,No,No,No,Yes,No,No,No,No,No,No,No,No,No,No,No,No,No,No,No,No,No,No,Yes,No,No,No,No,No,No,No,No,No,No,No,No
-80.21688269,25.88900471,Thomas Sasso Swimming Pool,12502 NW 11TH AVE,North Miami,33168,1,NorthMiamiPark,Municipal,No,No,No,No,No,No,No,No,No,No,No,No,No,No,No,No,No,No,No,No,No,No,No,No,No,No,No,No,No,No,No,No,No,No,No,No,No,No,No,No,No,No,No,No
-80.47007275,25.4730146,J.D. Redd Park,550 N HOMESTEAD BLVD,Homestead,33030,13,HomesteadPark,Municipal,No,No,No,No,No,No,No,No,No,No,No,No,No,No,No,No,No,No,No,No,No,No,No,No,No,No,No,No,No,No,No,No,No,No,No,No,No,No,No,No,No,No,No,No
-80.28631271,25.76847468,Flagler Terrace Park,SW 56TH AVE / SW 3RD ST,Miami,33134,1,MiamiPark,Municipal,No,No,No,No,No,No,No,No,No,No,No,No,No,No,No,No,No,No,No,No,No,No,No,No,No,No,No,No,No,No,No,No,No,No,No,No,No,No,No,No,No,No,No,No
-80.27070271,25.93462473,A. J. King Park,4230 NW 178TH ST,Miami Gardens,33055,6,MiamiGardensPark,Municipal,No,No,No,No,No,No,No,No,No,No,No,No,No,No,No,No,No,No,No,No,No,No,No,No,No,No,No,No,No,No,No,No,No,No,No,No,No,No,No,No,No,No,No,No
-80.22240269,25.8315447,African Square Park,1466 NW 62ND ST,Miami,33147,1,MiamiPark,Municipal,No,No,No,No,No,No,No,No,No,No,No,No,No,No,No,No,No,No,No,No,No,No,No,No,No,No,No,No,No,No,No,No,No,No,No,No,No,No,No,No,No,No,No,No
-80.33727273,25.90293472,ML Tax Dist.- (p-83),8445 GLENCAIRN TER,Miami Lakes,33016,0,MiamiLakesPark,Municipal,No,No,No,No,No,No,No,No,No,No,No,No,No,No,No,No,No,No,No,No,No,No,No,No,No,No,No,No,No,No,No,No,No,No,No,No,No,No,No,No,No,No,No,No
-80.33936273,25.90643472,ML Tax Dist.- (p-78),8620 ARDOCH RD,Miami Lakes,33016,0,MiamiLakesPark,Municipal,No,No,No,No,No,No,No,No,No,No,No,No,No,No,No,No,No,No,No,No,No,No,No,No,No,No,No,No,No,No,No,No,No,No,No,No,No,No,No,No,No,No,No,No
-80.43804275,25.70972466,Westwind Lakes SP TX Dist TR GP1 &,6800 SW 152ND AVE,MIAMI,33193,5.46,MiamiDadePark,County,No,No,No,No,No,No,No,No,No,No,No,No,No,No,No,No,No,No,No,No,No,No,No,No,No,No,No,No,No,No,No,No,No,No,No,No,No,No,No,No,No,No,No,No
-80.37920273,25.71651467,Westwood Park,11350 SW 53RD TER,MIAMI,33165,4.3,MiamiDadePark,County,No,No,No,Yes,No,No,No,No,No,No,No,No,No,No,No,No,No,No,No,No,No,No,No,Yes,No,No,No,No,No,No,Yes,Yes,No,No,No,No,No,No,No,No,No,No,No,No
-80.33503272,25.59515464,Whispering Pines Hammock Preserve,SW 186TH ST / SW 87TH CT,CUTLER BAY,33157,5.4,MiamiDadePark,County,No,No,No,No,No,No,No,No,No,No,No,No,No,No,No,No,No,No,No,No,No,No,No,No,No,No,No,No,No,No,No,No,No,No,No,No,No,No,No,No,No,No,No,No
-80.43383275,25.66020465,Wild Lime Park,14751 HAMMOCKS BLVD,MIAMI,33196,5.86,MiamiDadePark,County,No,No,No,No,No,No,No,No,No,No,No,No,No,No,No,No,No,No,No,No,No,No,No,Yes,No,No,No,Yes,No,No,No,No,No,Yes,No,No,No,No,No,No,No,No,No,No
-80.40815274,25.68895466,Winston Linear Park,8650 SW 127TH AVE,MIAMI,33183,27.9,MiamiDadePark,County,No,No,No,No,No,No,No,No,No,No,No,No,No,No,No,No,No,No,No,No,No,No,No,No,No,No,No,No,No,No,No,No,No,No,No,No,No,No,No,No,No,No,No,No
-80.36597273,25.64629465,Area 47,13210 SW 105TH AVE,MIAMI,33176,2.53,MiamiDadePark,County,No,No,No,No,No,No,No,No,No,No,No,No,No,No,No,No,No,No,No,No,No,No,No,No,No,No,No,No,No,No,No,No,No,No,No,No,No,No,No,No,No,No,No,No
-80.53545277,25.54361462,Bonanza Ranch Estates Park,23900 SW 212TH AVE,MIAMI,33031,5,MiamiDadePark,County,No,No,No,No,Yes,No,No,No,No,No,No,No,No,No,No,No,No,No,No,No,No,No,No,No,No,No,No,No,No,No,No,Yes,No,Yes,No,No,No,No,No,No,No,No,No,No
-80.28709271,25.73829468,Coral Gables Wayside Park,5710 SW 35TH ST,MIAMI,33134,1.03,MiamiDadePark,County,No,No,No,No,No,No,No,No,No,No,No,No,No,No,No,No,No,No,No,No,No,No,No,No,No,No,No,No,No,No,No,No,No,Yes,No,No,No,No,No,No,No,No,No,No
-80.2475627,25.8145847,Glenwood Park,3155 NW 43RD ST,MIAMI,33142,0.55,MiamiDadePark,County,No,No,No,No,No,No,No,No,No,No,No,No,No,No,No,No,No,No,No,No,No,No,No,No,No,No,No,No,No,No,No,Yes,No,Yes,No,No,No,No,No,No,No,No,No,No
-80.17356268,25.96560474,Ives Estates Tennis Center,1475 IVES DAIRY RD,MIAMI,33179,5,MiamiDadePark,County,No,No,No,No,No,No,No,No,No,No,No,No,No,No,No,No,No,No,No,No,No,No,No,No,No,No,No,No,No,No,Yes,No,No,No,No,No,No,No,No,No,No,No,No,No
-80.18582268,25.8130547,Albert Pallot Park,NE 38TH ST / NE 6TH AVE,Miami,33137,3,MiamiPark,Municipal,No,No,No,No,No,No,No,No,No,No,No,No,No,No,No,No,No,No,No,No,No,No,No,No,No,No,No,No,No,No,No,No,No,No,No,No,No,No,No,No,No,No,No,No
-80.20440268,25.80504469,Robert E. Lee Park,3100 NW 5TH AVE,Miami,33127,4,MiamiPark,Municipal,No,No,No,No,No,No,No,No,No,No,No,No,No,No,No,No,No,No,No,No,No,No,No,No,No,No,No,No,No,No,No,No,No,No,No,No,No,No,No,No,No,No,No,No
-80.23146269,25.91174472,Washington Tot-Lot,JAMES ST / WASHINGTON AVE,Opa Locka,33054,0,OpaLockaiPark,Municipal,No,No,No,No,No,No,No,No,No,No,No,No,No,No,No,No,No,No,No,No,No,No,No,No,No,No,No,No,No,No,No,No,No,No,No,No,No,No,No,No,No,No,No,No
-80.46323275,25.47539461,Harris Field,1034 NE 8TH ST,Homestead,33030,49,HomesteadPark,Municipal,No,No,No,Yes,No,No,No,No,No,No,No,No,Yes,No,No,No,No,No,No,No,No,No,No,No,No,No,No,No,No,Yes,No,No,No,No,No,No,No,No,No,No,No,No,No,No
-80.22893269,25.73453468,David T. Kennedy Park,2400 S BAYSHORE DR,Miami,33133,29,MiamiPark,Municipal,No,No,No,No,No,No,No,No,No,No,No,No,No,No,No,No,No,No,No,No,No,No,No,No,No,No,No,No,No,No,No,No,No,No,No,No,No,No,No,No,No,No,No,No
-80.34541272,25.60690464,Palmetto Bay Park,17535 SW 95TH AVE,Palmetto Bay,33157,17,PalmettoBayPark,Municipal,No,No,No,Yes,Yes,No,No,No,No,No,No,No,Yes,No,No,No,No,No,No,No,No,Yes,No,Yes,No,Yes,Yes,Yes,No,No,No,Yes,No,Yes,No,No,Yes,No,No,No,No,Yes,No,No
-80.26594271,25.96747473,Vista Verde Park,21001 NW 39TH AVE,Miami Gardens,33055,12,MiamiGardensPark,Municipal,No,No,No,No,No,No,No,No,No,No,No,No,No,No,No,No,No,No,No,No,No,No,No,No,No,No,No,No,No,No,No,No,No,No,No,No,No,No,No,No,No,No,No,No
-80.22314269,25.77279468,Plaza de la Cubanidad,W FLAGLER ST / 17TH AVE,Miami,33135,0,MiamiPark,Municipal,No,No,No,No,No,No,No,No,No,No,No,No,No,No,No,No,No,No,No,No,No,No,No,No,No,No,No,No,No,No,No,No,No,No,No,No,No,No,No,No,No,No,No,No
-80.16596268,25.90647472,Jaycee Park North Miami,NE 142ND ST / NE 16TH CT,North Miami,33181,0,NorthMiamiPark,Municipal,No,No,No,No,No,No,No,No,No,No,No,No,No,No,No,No,No,No,No,No,No,No,No,No,No,No,No,No,No,No,No,No,No,No,No,No,No,No,No,No,No,No,No,No
-80.12964266,25.8039947,Scott Rakow Youth Center,2700 SHERIDAN AVE,Miami Beach,33139,2,MiamiBeachPark,Municipal,No,No,No,No,Yes,No,No,No,No,No,No,No,No,No,No,No,No,Yes,No,No,No,No,No,Yes,No,No,No,No,No,Yes,No,No,No,No,No,No,Yes,No,No,No,No,No,No,No
-80.2627427,25.8237047,Cuban Culture in exile Heritage Park,HIALEAH DR / E 9TH AVE,Hialeah,33010,1,HialeahPark,Municipal,Yes,No,No,No,No,No,No,No,No,No,No,No,No,No,No,No,No,No,No,No,No,No,No,No,No,No,No,No,No,No,No,No,No,Yes,No,No,No,No,No,No,No,No,No,No
-80.12426266,25.86541471,Tatum Waterway Park,8050 BYRON AVE,Miami Beach,33141,1,MiamiBeachPark,Municipal,No,No,No,No,Yes,No,No,No,No,No,No,No,No,No,No,No,No,No,No,No,No,No,No,No,No,Yes,No,No,No,No,No,Yes,No,No,Yes,No,No,No,No,No,No,No,No,No
-80.17980268,25.85320471,Biscayne Heights Mini Park,E DIXIE HWY / NE 84TH ST,Miami,33138,0,MiamiPark,Municipal,No,No,No,No,No,No,No,No,No,No,No,No,No,No,No,No,No,No,No,No,No,No,No,No,No,No,No,No,No,No,No,No,No,No,No,No,No,No,No,No,No,No,No,No
-80.20889269,25.78661469,Highland Circle Park,NW 8TH AVE / NW 13TH ST,Miami,33136,0,MiamiPark,Municipal,No,No,No,No,No,No,No,No,No,No,No,No,No,No,No,No,No,No,No,No,No,No,No,No,No,No,No,No,No,No,No,No,No,No,No,No,No,No,No,No,No,No,No,No
-80.20119268,25.78696469,Gibson Park Recreation,401 NW 13TH ST,Miami,33136,11,MiamiPark,Municipal,No,No,No,No,No,No,No,No,No,No,No,No,No,No,No,No,No,No,No,No,No,No,No,No,No,No,No,No,No,No,No,No,No,No,No,No,No,No,No,No,No,No,No,No
-80.33413272,25.89062471,Carl F. Slade Park,2501 W 74TH ST,Hialeah,33016,18,HialeahPark,Municipal,No,No,No,Yes,Yes,No,No,No,No,No,No,No,Yes,No,No,No,No,No,No,No,No,No,No,Yes,Yes,Yes,No,Yes,No,No,Yes,No,No,Yes,No,No,No,No,No,No,No,No,No,No
-80.22214269,25.77765469,Orange Bowl Playground,NW 4TH ST / NW 17TH AVE,Miami,33125,3,MiamiPark,Municipal,No,No,No,No,No,No,No,No,No,No,No,No,No,No,No,No,No,No,No,No,No,No,No,No,No,No,No,No,No,No,No,No,No,No,No,No,No,No,No,No,No,No,No,No
-80.31106271,25.76784468,Flagami Park,7121 SW 3RD ST,Miami,33144,1,MiamiPark,Municipal,No,No,No,No,No,No,No,No,No,No,No,No,No,No,No,No,No,No,No,No,No,No,No,No,No,No,No,No,No,No,No,No,No,No,No,No,No,No,No,No,No,No,No,No
-80.21693269,25.8318147,Twelfth Ave Mini Park,NW 12TH AVE / NW 62ND ST,Miami,33147,0,MiamiPark,Municipal,No,No,No,No,No,No,No,No,No,No,No,No,No,No,No,No,No,No,No,No,No,No,No,No,No,No,No,No,No,No,No,No,No,No,No,No,No,No,No,No,No,No,No,No
-80.22458269,25.80123469,Juan Pablo Duarte Park,2800 NW 17TH AVE,Miami,33142,9,MiamiPark,Municipal,No,No,No,No,No,No,No,No,No,No,No,No,No,No,No,No,No,No,No,No,No,No,No,No,No,No,No,No,No,No,No,No,No,No,No,No,No,No,No,No,No,No,No,No
-80.31471272,25.91213472,"ML Tax Dist.- tract ""a""",7099 GREENTREE LN,Miami Lakes,33014,0,MiamiLakesPark,Municipal,No,No,No,No,No,No,No,No,No,No,No,No,No,No,No,No,No,No,No,No,No,No,No,No,No,No,No,No,No,No,No,No,No,No,No,No,No,No,No,No,No,No,No,No
-80.31440272,25.91304472,ML Tax Dist.- (p-64),15320 LOCH ISLE DR,Miami Lakes,33014,0,MiamiLakesPark,Municipal,No,No,No,No,No,No,No,No,No,No,No,No,No,No,No,No,No,No,No,No,No,No,No,No,No,No,No,No,No,No,No,No,No,No,No,No,No,No,No,No,No,No,No,No
-80.30207272,25.90058472,ML Tax Dist.- (p-02),6260 LAKE PATRICIA DR,Miami Lakes,33014,0,MiamiLakesPark,Municipal,No,No,No,No,No,No,No,No,No,No,No,No,No,No,No,No,No,No,No,No,No,No,No,No,No,No,No,No,No,No,No,No,No,No,No,No,No,No,No,No,No,No,No,No
-80.30525272,25.90086472,ML Tax Dist.- (p-03),6357 LAKE PATRICIA DR,Miami Lakes,33014,0,MiamiLakesPark,Municipal,No,No,No,No,No,No,No,No,No,No,No,No,No,No,No,No,No,No,No,No,No,No,No,No,No,No,No,No,No,No,No,No,No,No,No,No,No,No,No,No,No,No,No,No
-80.30353272,25.90064472,ML Tax Dist.- (p-04),6434 LAKE PATRICIA DR,Miami Lakes,33014,0,MiamiLakesPark,Municipal,No,No,No,No,No,No,No,No,No,No,No,No,No,No,No,No,No,No,No,No,No,No,No,No,No,No,No,No,No,No,No,No,No,No,No,No,No,No,No,No,No,No,No,No
-80.30634272,25.90134472,ML Tax Dist.- (p-05),14028 LAKE SARANAC AVE,Miami Lakes,33014,0,MiamiLakesPark,Municipal,No,No,No,No,No,No,No,No,No,No,No,No,No,No,No,No,No,No,No,No,No,No,No,No,No,No,No,No,No,No,No,No,No,No,No,No,No,No,No,No,No,No,No,No
-80.28613271,25.66954466,Pinecrest Gardens,11000 SW 57TH AVE,Pinecrest,33156,21,PinecrestPark,Municipal,No,No,No,No,No,No,No,No,No,No,No,No,No,No,No,No,No,No,No,No,No,No,No,No,No,No,No,No,No,No,No,No,No,No,No,No,No,No,No,No,No,No,No,No
-80.42696274,25.4504846,Homestead Sport Complex,1601 SE 28TH AVE,Homestead,33035,153,HomesteadPark,Municipal,No,No,No,No,No,No,No,No,No,No,No,No,No,No,No,No,No,No,No,No,No,No,No,No,No,No,No,No,No,No,No,No,No,No,No,No,No,No,No,No,No,No,No,No
-80.24211269,25.73390468,Blanche Park,3045 SHIPPING AVE,Miami,33133,0.88,MiamiPark,Municipal,No,No,No,No,No,No,No,No,No,No,No,No,No,No,No,No,No,No,No,No,No,No,No,No,No,No,No,No,No,No,No,No,No,No,No,No,No,No,No,No,No,No,No,No
-80.18416268,25.86596471,Constitution Park,9825 NE 7TH AVE,Miami Shores,33138,1,MiamiShoresPark,Municipal,No,No,No,No,No,No,No,No,No,No,No,No,No,No,No,No,No,No,No,No,No,No,No,No,No,No,No,No,No,No,No,No,No,No,No,No,No,No,No,No,No,No,No,No
-80.47072275,25.4663746,Pioneer BMX Park,305 SE 6TH AVE,Homestead,33030,2,HomesteadPark,Municipal,No,No,No,No,No,No,No,No,No,No,No,No,No,No,No,No,No,No,No,No,No,No,No,No,No,No,No,No,No,No,No,No,No,No,No,No,No,No,No,No,No,No,No,No
-80.47896276,25.4562646,Florida City Camper Site,601 NW 3RD AVE,Homestead,33034,15,HomesteadPark,Municipal,No,No,No,No,No,No,No,No,No,No,No,No,No,No,No,No,No,No,No,No,No,No,No,No,No,No,No,No,No,No,No,No,No,No,No,No,No,No,No,No,No,No,No,No
-80.34130272,25.80259469,Doral Central Park,3000 NW 87TH AVE,Doral,33172,80,DoralPark,Municipal,No,No,No,No,No,No,No,No,No,No,No,No,No,No,No,No,No,No,No,No,No,No,No,No,No,Yes,No,Yes,No,No,No,No,No,Yes,No,No,No,No,No,No,No,Yes,No,No
-80.29324271,25.8504947,Filer Jr. High Park,W 5TH AVE /  W 32ND PL,Hialeah,33012,3.22,HialeahPark,Municipal,No,No,No,Yes,Yes,No,No,No,No,No,No,No,No,No,No,No,No,No,No,No,No,No,No,No,No,No,No,No,No,No,No,No,No,No,No,No,No,No,No,No,No,No,No,No
-80.22760269,25.8241147,Simonoff Park,NW 54TH ST / 18TH AVE,Miami,33142,1,MiamiPark,Municipal,No,No,No,No,No,No,No,No,No,No,No,No,No,No,No,No,No,No,No,No,No,No,No,No,No,No,No,No,No,No,No,No,No,No,No,No,No,No,No,No,No,No,No,No
-80.13738267,25.95262473,Founders Park,3105 NW 190TH ST,Aventura,33180,8,AventuraPark,Municipal,No,No,No,Yes,No,No,No,No,No,No,No,No,No,No,No,No,No,No,No,No,No,No,No,No,No,No,No,Yes,No,No,Yes,No,No,No,No,No,No,No,No,No,No,No,No,No
-80.30766271,25.67528466,Coral Pine Park,6955 SW 104TH ST,Pinecrest,33156,10,PinecrestPark,Municipal,No,No,No,No,No,No,No,No,No,No,No,No,No,No,No,No,No,No,No,No,No,No,No,No,No,No,No,No,No,No,No,No,No,No,No,No,No,No,No,No,No,No,No,No
-80.33000272,25.65055465,Suniland Park,12855 S DIXIE HWY,Pinecrest,33156,8,PinecrestPark,Municipal,No,No,No,No,No,No,No,No,No,No,No,No,No,No,No,No,No,No,No,No,No,No,No,No,No,No,No,No,No,No,No,No,No,No,No,No,No,No,No,No,No,No,No,No
-80.32273272,25.66719466,Veterans Wayside Park,SW 112TH ST / S DIXIE HWY,Pinecrest,33156,3,PinecrestPark,Municipal,No,No,No,No,No,No,No,No,No,No,No,No,No,No,No,No,No,No,No,No,No,No,No,No,No,No,No,No,No,No,No,No,No,No,No,No,No,No,No,No,No,No,No,No
-80.12126266,25.92991473,Pier Park,16501 Collins Avenue,Sunny Isles Beach,33160,0,SunnyIslesBeachPark,Municipal,No,No,No,No,No,Yes,No,No,No,No,No,No,No,No,No,No,No,No,No,No,No,No,No,No,No,No,No,No,No,No,No,No,No,No,No,No,Yes,No,No,No,No,No,No,No
-80.2531127,25.96375473,Buccaneer Park,3100 NW 207TH ST,Miami Gardens,33056,6,MiamiGardensPark,Municipal,No,No,No,No,No,No,No,No,No,No,No,No,No,No,No,No,No,No,No,No,No,No,No,No,No,No,No,No,No,No,No,No,No,No,No,No,No,No,No,No,No,No,No,No
-80.2379527,25.96545473,Bennett M. Lifter Park,20701 NW 22ND AVE,Miami Gardens,33056,2,MiamiGardensPark,Municipal,No,No,No,No,No,No,No,No,No,No,No,No,No,No,No,No,No,No,No,No,No,No,No,No,No,No,No,No,No,No,No,No,No,No,No,No,No,No,No,No,No,No,No,No
-80.20792269,25.95018473,Cloverleaf Park,303 NW 191ST ST,Miami Gardens,33169,1,MiamiGardensPark,Municipal,No,No,No,No,No,No,No,No,No,No,No,No,No,No,No,No,No,No,No,No,No,No,No,No,No,No,No,No,No,No,No,No,No,No,No,No,No,No,No,No,No,No,No,No
-80.31823272,25.87158471,Victor Wild Park & Adult Center,5405 W 18TH AVE,Hialeah,33012,8,HialeahPark,Municipal,No,Yes,No,No,Yes,No,No,No,No,No,No,No,Yes,No,No,No,No,No,No,No,No,No,No,Yes,No,No,No,Yes,No,No,No,Yes,No,Yes,No,No,No,No,No,No,No,No,No,No
-80.2528127,25.95117473,Brentwood Park,19405 NW 32ND AVE,Miami Gardens,33056,10,MiamiGardensPark,Municipal,No,No,No,No,No,No,No,No,No,No,No,No,No,No,No,No,No,No,No,No,No,No,No,No,No,No,No,No,No,No,No,No,No,No,No,No,No,No,No,No,No,No,No,No
-80.26400271,25.94616473,Risco Park,19000 NW 37TH AVE,Miami Gardens,33055,16,MiamiGardensPark,Municipal,No,No,No,No,No,No,No,No,No,No,No,No,No,No,No,No,No,No,No,No,No,No,No,No,No,No,No,No,No,No,No,No,No,No,No,No,No,No,No,No,No,No,No,No
-80.12480266,25.8179047,Pine Tree Park,45TH ST / PINETREE DR,Miami Beach,33140,7,MiamiBeachPark,Municipal,No,No,No,No,No,No,No,No,No,No,Yes,No,No,No,No,No,No,No,No,No,No,No,No,No,No,No,No,No,No,No,No,No,No,Yes,No,No,No,No,No,No,No,No,No,No
-80.31465271,25.60173464,Old Cutler Bike Rest Stop,OLD CUTLER RD / SW 77TH AVE,PALMETTO BAY,33157,0.01,MiamiDadePark,County,No,No,No,No,No,No,No,No,No,No,No,No,No,No,No,No,No,No,No,No,No,No,No,No,No,Yes,No,No,No,No,No,No,No,No,No,No,No,No,No,No,No,No,No,No
-80.35631273,25.77080468,Ruben Dario Park,9825 W FLAGLER ST,MIAMI,33172,15.29,MiamiDadePark,County,No,No,No,Yes,Yes,No,No,No,No,No,No,No,No,No,No,No,No,No,No,No,No,No,Yes,Yes,No,No,No,Yes,No,No,Yes,Yes,No,No,No,No,No,No,No,No,No,No,No,No
-80.36202273,25.68279466,Kendale Park,9250 KENDALE BLVD,MIAMI,33176,4,MiamiDadePark,County,No,No,No,No,No,No,No,No,No,No,No,No,No,No,No,No,No,No,No,No,No,No,No,No,No,No,No,No,No,No,No,Yes,No,Yes,No,No,No,No,No,No,No,No,No,No
-80.37208273,25.69390466,Kendall Indian Hammocks Park,11395 SW 79TH ST,MIAMI,33173,105,MiamiDadePark,County,No,No,No,Yes,Yes,No,No,No,No,No,No,No,No,Yes,No,No,No,No,No,No,No,Yes,No,No,No,No,No,Yes,No,No,No,Yes,No,Yes,No,No,No,No,No,No,No,Yes,No,No
-80.39920274,25.69261466,Kendall Soccer Park,8011 SW 127TH AVE,MIAMI,33183,0,MiamiDadePark,County,No,No,No,No,No,No,No,No,No,No,No,No,No,No,No,No,No,No,No,No,No,No,No,Yes,No,No,No,Yes,No,No,No,No,No,Yes,No,No,No,No,No,No,No,No,No,No
-80.34505272,25.69365466,Kendalwood Park,8140 SW 93RD CT,MIAMI,33173,2.68,MiamiDadePark,County,No,No,No,No,No,No,No,No,No,No,No,No,No,No,No,No,No,No,No,No,No,No,No,No,No,No,No,No,No,No,No,No,No,No,No,No,No,No,No,No,No,No,No,No
-80.39508273,25.52411462,Kevin Broils Park,26150 SW 125TH AVE,MIAMI,33032,5.24,MiamiDadePark,County,No,No,No,No,Yes,No,No,No,No,No,No,No,No,No,No,No,No,No,No,No,No,No,No,No,No,No,No,No,No,No,No,Yes,No,Yes,No,No,No,No,No,No,No,No,No,No
-80.43962275,25.61877464,Kings Grant Park,15211 SW 160TH ST,MIAMI,33187,6.5,MiamiDadePark,County,No,No,No,No,No,No,No,No,No,No,No,No,No,No,No,No,No,No,No,No,No,No,Yes,No,No,No,No,No,No,No,Yes,Yes,No,Yes,No,No,No,No,No,No,No,No,No,No
-80.42232275,25.67579466,Kings Meadow Park,10036 SW 142ND AVE,MIAMI,33186,5.79,MiamiDadePark,County,No,No,No,No,No,No,No,No,No,No,No,No,No,No,No,No,No,No,No,No,No,No,No,No,No,No,No,No,No,No,No,Yes,No,Yes,No,No,No,No,No,No,No,No,No,No
-80.45339276,25.92673472,Krome Ave Launching Area (Thompson),16665 N KROME AVE,MIAMI,33178,0,MiamiDadePark,County,No,No,No,No,No,No,No,Yes,No,No,No,No,No,No,No,No,No,No,No,No,No,No,No,No,No,No,No,No,No,No,No,No,No,No,No,No,No,No,No,No,No,No,No,No
-80.45313275,25.69024466,Lago Mar Park,8165 SW 162 AVE,MIAMI,33193,11.84,MiamiDadePark,County,No,No,No,No,No,No,No,No,No,No,Yes,No,No,No,No,No,No,No,No,No,No,No,No,No,No,Yes,No,No,No,No,No,Yes,No,Yes,No,No,No,No,No,No,No,No,No,No
-80.28658271,25.94048473,Lake Stevens Park,5350 NW 183RD ST,MIAMI,33055,11.84,MiamiDadePark,County,No,No,No,No,No,No,No,No,No,No,No,No,No,No,No,No,No,No,No,No,No,No,No,No,No,No,No,No,No,No,No,No,No,No,No,No,No,No,No,No,No,No,No,No
-80.20327269,25.85341471,Larchmont Park,406 NW 85TH ST,MIAMI,33150,4.43,MiamiDadePark,County,No,No,No,No,Yes,No,No,No,No,No,No,No,No,No,No,No,No,No,No,No,No,No,Yes,No,No,No,No,No,No,No,No,Yes,No,Yes,No,No,No,No,No,No,No,No,No,No
-80.40841274,25.60452464,Larry & Penny Thompson Park,12451 SW 184TH ST,MIAMI,33177,403.39,MiamiDadePark,County,No,No,No,No,No,No,No,Yes,Yes,Yes,No,No,No,No,No,No,No,No,No,No,No,No,No,No,No,Yes,No,No,No,Yes,No,Yes,No,Yes,No,Yes,No,No,No,No,No,No,No,No
-80.43408274,25.49395461,Leisure Lakes Park,29305 ILLINOIS RD,MIAMI,33033,8.68,MiamiDadePark,County,No,No,No,Yes,Yes,No,No,No,No,No,No,No,No,No,No,No,No,No,No,No,No,No,No,Yes,No,No,No,No,No,No,No,Yes,No,Yes,No,No,No,No,No,No,No,No,No,No
-80.43983274,25.49508461,Leisure Park,15355 HARDING LN,MIAMI,33033,1.9,MiamiDadePark,County,No,No,No,No,No,No,No,No,No,No,No,No,No,No,No,No,No,No,No,No,No,No,No,Yes,No,No,No,No,No,No,No,Yes,No,No,No,No,No,No,No,No,No,No,No,No
-80.32502271,25.56694463,Lakes by the Bay Park,SW 216TH ST / SW 85TH AVE,CUTLER BAY,33189,96.4,MiamiDadePark,County,No,No,No,No,No,No,No,No,No,No,No,No,No,No,No,No,No,No,No,No,No,No,No,No,No,No,No,No,No,No,No,No,No,No,No,No,No,No,No,No,No,No,No,No
-80.12866266,25.80443469,Fairgreen Park,28TH ST / PINETREE DR,Miami Beach,33140,1,MiamiBeachPark,Municipal,No,No,No,No,No,No,No,No,No,No,No,No,No,No,No,No,No,No,No,No,No,No,No,No,No,No,No,No,No,No,No,No,No,No,No,No,No,No,No,No,No,No,No,No
-80.12811266,25.86392471,Crespi Park & Playground,HAWTHORNE AVE / CRESPI BLVD,Miami Beach,33141,1,MiamiBeachPark,Municipal,No,No,No,No,Yes,No,No,No,No,No,No,No,No,No,No,No,No,No,No,No,No,No,No,No,No,Yes,No,No,No,No,No,Yes,No,No,No,No,No,No,No,No,No,No,No,No
-80.20764268,25.77935469,Spring Garden Point,NW 7TH ST / NW N RIVER DR,Miami,33136,1,MiamiPark,Municipal,No,No,No,No,No,No,No,No,No,No,No,No,No,No,No,No,No,No,No,No,No,No,No,No,No,No,No,No,No,No,No,No,No,No,No,No,No,No,No,No,No,No,No,No
-80.22135269,25.89869472,Claude Pepper Park,1400 NW 135TH ST,North Miami,33167,14,NorthMiamiPark,Municipal,No,No,No,No,No,No,No,No,No,No,No,No,No,No,No,No,No,No,No,No,No,No,No,No,No,No,No,No,No,No,No,No,No,No,No,No,No,No,No,No,No,No,No,No
-80.19109268,25.8110147,Woodson Mini Park/M. Design,NE 2ND AVE / NE 36TH ST,Miami,33127,0,MiamiPark,Municipal,No,No,No,No,No,No,No,No,No,No,No,No,No,No,No,No,No,No,No,No,No,No,No,No,No,No,No,No,No,No,No,No,No,No,No,No,No,No,No,No,No,No,No,No
-80.16950268,25.92883473,Harry Cohen Complex / Challenger Park,16501 NE 16TH AVE,North Miami  Beach,33162,3,NorthMiamiBeachPark,Municipal,No,No,No,No,No,No,No,No,No,No,No,No,No,No,No,No,No,No,No,No,No,No,No,No,No,Yes,No,No,No,No,No,No,No,Yes,No,No,No,No,No,No,No,No,No,No
-80.22076269,25.88517471,Oleander Park,NE 14TH AVE / NE 121ST ST,North Miami,33161,2,NorthMiamiPark,Municipal,No,No,No,No,No,No,No,No,No,No,No,No,No,No,No,No,No,No,No,No,No,No,No,No,No,No,No,No,No,No,No,No,No,No,No,No,No,No,No,No,No,No,No,No
-80.12101266,25.96951474,North Park,GOLDEN BEACH DR / PALERMO AVE,Golden Beach,33160,0,GoldenBeachPark,Municipal,No,No,No,No,No,No,No,No,No,No,No,No,No,No,No,No,No,No,No,No,No,No,No,No,No,No,No,No,No,No,No,No,No,No,No,No,No,No,No,No,No,No,No,No
-80.20299269,25.88751471,Rotary / Overbrook Shores Tot Lot,NW 123RD ST / NW 2ND AVE,North Miami,33166,0,NorthMiamiPark,Municipal,No,No,No,No,No,No,No,No,No,No,No,No,No,No,No,No,No,No,No,No,No,No,No,No,No,No,No,No,No,No,No,No,No,No,No,No,No,No,No,No,No,No,No,No
-80.17583268,25.8348347,Legion Picnic Islands,SPOIL BANKS OFF LEGION BK,Miami,33138,9,MiamiPark,Municipal,No,No,No,No,No,No,No,No,No,No,No,No,No,No,No,No,No,No,No,No,No,No,No,No,No,No,No,No,No,No,No,No,No,No,No,No,No,No,No,No,No,No,No,No
-80.21503269,25.8162347,West Buena Vista Mini Park,NW 44TH ST / NW 11TH CT,Miami,33127,1,MiamiPark,Municipal,No,No,No,No,No,No,No,No,No,No,No,No,No,No,No,No,No,No,No,No,No,No,No,No,No,No,No,No,No,No,No,No,No,No,No,No,No,No,No,No,No,No,No,No
-80.17685268,25.79839469,Pace Park Picnic Islands,N OF VENITIAN WAY /NE of MARGARET PACE PARK,Miami,33140,4,MiamiPark,Municipal,No,No,No,No,No,No,No,No,No,No,No,No,No,No,No,No,No,No,No,No,No,No,No,No,No,No,No,No,No,No,No,No,No,No,No,No,No,No,No,No,No,No,No,No
-80.2614027,25.72560467,Washington Park Tot Lot,WASHINGTON DR / GRANT DR,Coral Gables,33133,0,CoralGablesPark,Municipal,No,No,No,No,No,No,No,No,No,No,No,No,No,No,No,No,No,No,No,No,No,No,No,No,No,No,No,No,No,No,No,No,No,No,No,No,No,No,No,No,No,No,No,No
-80.48878276,25.4668146,Phico Williams Community Center,951 SW 4TH ST,Homestead,33030,2.5,HomesteadPark,Municipal,No,No,No,No,No,No,No,No,No,No,No,No,No,No,No,No,No,No,No,No,No,No,No,No,No,No,No,No,No,No,No,No,No,No,No,No,No,No,No,No,No,No,No,No
-80.12868266,25.85564471,Normandy Isle Monument,71ST ST / BAY DR,Miami Beach,33141,0,MiamiBeachPark,Municipal,No,No,No,No,No,No,No,No,No,No,No,No,No,No,No,No,No,No,No,No,No,No,No,No,No,No,No,No,No,No,No,No,No,No,No,No,No,No,No,No,No,No,No,No
-80.31908272,25.90902472,ML Tax Dist.- (p-35),7370 S MIAMI LAKEWAY,Miami Lakes,33014,1,MiamiLakesPark,Municipal,No,No,No,No,No,No,No,No,No,No,No,No,No,No,No,No,No,No,No,No,No,No,No,No,No,No,No,No,No,No,No,No,No,No,No,No,No,No,No,No,No,No,No,No
-80.31550272,25.91023472,ML Tax Dist.- (p-36),7050 MIAMI LAKES DR,Miami Lakes,33014,0,MiamiLakesPark,Municipal,No,No,No,No,No,No,No,No,No,No,No,No,No,No,No,No,No,No,No,No,No,No,No,No,No,No,No,No,No,No,No,No,No,No,No,No,No,No,No,No,No,No,No,No
-80.31533272,25.90578472,ML Tax Dist.- (p-37),14480 DADE PINE AVE,Miami Lakes,33014,0,MiamiLakesPark,Municipal,No,No,No,No,No,No,No,No,No,No,No,No,No,No,No,No,No,No,No,No,No,No,No,No,No,No,No,No,No,No,No,No,No,No,No,No,No,No,No,No,No,No,No,No
-80.16842268,25.93106473,Schenkenberger Park,NE 169TH ST AND NE 16TH AVE,North Miami Beach,33162,0.2,NorthMiamiBeachPark,Municipal,No,No,No,No,No,No,No,No,No,No,No,No,No,No,No,No,No,No,No,No,No,No,No,No,No,No,No,No,No,No,No,No,No,No,No,No,No,No,No,No,No,No,No,No
-80.2462627,25.8195647,"Jefferson Reaves, Sr. Park",3100 NW 50TH ST,MIAMI,33142,1.67,MiamiDadePark,County,No,No,No,No,Yes,No,No,No,No,No,No,No,No,No,No,No,No,No,No,No,No,No,No,Yes,No,No,No,No,No,No,No,Yes,No,No,No,No,No,No,No,No,No,No,No,No
-80.23379269,25.8250747,Joseph Caleb Community Center,5400 NW 22ND AVE,MIAMI,33142,9.6,MiamiDadePark,County,No,Yes,No,No,No,No,No,No,No,No,No,No,No,No,No,No,No,No,No,No,No,No,No,No,No,No,No,No,No,No,No,No,No,No,No,No,No,No,No,No,No,No,No,No
-80.34717272,25.68965466,Boys & Girls Club of Miami- Kendall Unit,9475 SW 88TH ST,MIAMI,33173,22.7,MiamiDadePark,County,No,No,No,Yes,Yes,No,No,No,No,No,No,No,No,No,No,No,No,Yes,No,No,No,No,No,Yes,No,No,No,No,No,No,No,No,No,Yes,No,No,No,No,No,No,No,No,No,No
-80.44568276,25.92047472,M E Thompson Park,16665 NW 177TH AVE,MIAMI,33178,0,MiamiDadePark,County,No,No,No,No,No,No,No,No,Yes,Yes,No,No,No,No,No,No,No,No,No,No,No,No,No,No,No,Yes,No,No,No,No,No,No,No,No,No,No,No,No,No,No,No,No,No,No
-80.34025272,25.51497462,Mangrove Preserve,26751 SW 97TH AVE,MIAMI,33032,243.31,MiamiDadePark,County,No,No,No,No,No,No,No,No,No,No,No,No,No,No,No,No,No,No,No,No,No,No,No,No,No,No,No,No,No,No,No,No,No,No,No,No,No,No,No,No,No,No,No,No
-80.32757272,25.8287147,Manufacturers Industrial Park,7999 NW 60TH ST,MIAMI,33166,0.37,MiamiDadePark,County,No,No,No,No,No,No,No,No,No,No,No,No,No,No,No,No,No,No,No,No,No,No,No,No,No,No,No,No,No,No,No,No,No,No,No,No,No,No,No,No,No,No,No,No
-80.37430273,25.65065465,Pine Shore Pineland Preserve,11151 SW 128TH ST,MIAMI,33176,7.82,MiamiDadePark,County,No,No,No,No,No,No,No,No,No,No,No,No,No,No,No,No,No,No,No,No,No,No,No,No,No,No,No,No,No,No,No,Yes,No,No,No,No,No,No,No,No,No,No,No,No
-80.35709273,25.64709465,Pinewoods Park,13181 SW 102ND AVE,MIAMI,33176,1.2,MiamiDadePark,County,No,No,No,No,No,No,No,No,No,No,No,No,No,No,No,No,No,No,No,No,No,No,No,No,No,No,No,No,No,No,No,No,No,No,No,No,No,No,No,No,No,No,No,No
-80.37701273,25.63543465,Sgt. Joseph Delancy Park,14450 BOGGS DR,MIAMI,33176,10.28,MiamiDadePark,County,No,No,No,Yes,Yes,No,No,No,No,No,No,No,No,No,No,No,No,No,No,No,No,No,No,Yes,No,No,No,No,No,Yes,Yes,Yes,No,Yes,No,No,No,No,No,No,No,No,No,No
-80.39032273,25.56342463,Sharman Park,21851 SW 123RD AVE,MIAMI,33170,6.7,MiamiDadePark,County,No,No,No,No,Yes,No,No,No,No,No,No,No,No,No,No,No,No,No,No,No,No,No,No,No,No,No,No,No,No,No,No,Yes,No,Yes,No,No,No,No,No,No,No,No,No,No
-80.19787269,25.95449473,Sierra Park,19601 NE 1ST PL,MIAMI,33179,1.95,MiamiDadePark,County,No,No,No,No,No,No,No,No,No,No,No,No,No,No,No,No,No,No,No,No,No,No,No,No,No,No,No,No,No,No,No,Yes,No,Yes,No,No,No,No,No,No,No,No,No,No
-80.19160269,25.95176473,Snake Creek Trail,SIERRA PARK (NE 2ND AVE) TO I-95,MIAMI,33179,0,MiamiDadePark,County,No,No,No,No,No,No,No,No,No,No,No,No,No,No,No,No,No,No,No,No,No,No,No,No,No,No,No,No,No,No,No,No,No,Yes,No,No,No,No,No,No,No,No,No,No
-80.2837327,25.67235466,Snapper Creek Lake Parkway,SNAPPER CREEK RD & CORAL CREEK RD,CORAL GABLES,33156,0.6,MiamiDadePark,County,No,No,No,No,No,No,No,No,No,No,No,No,No,No,No,No,No,No,No,No,No,No,No,No,No,No,No,No,No,No,No,No,No,No,No,No,No,No,No,No,No,No,No,No
-80.35853273,25.69380466,Snapper Creek Park,10280 SW 80TH ST,MIAMI,33173,5.5,MiamiDadePark,County,No,No,No,No,No,No,No,No,No,No,No,No,No,No,No,No,No,No,No,No,No,No,No,No,No,No,No,No,No,No,No,Yes,No,Yes,No,No,No,No,No,No,No,No,No,No
-80.38293273,25.71677467,Snapper Creek Trail,SW 117 AVE FROM SW 16 ST TO SW 1ST ST,MIAMI,33173,1.14,MiamiDadePark,County,No,No,No,No,No,No,No,No,No,No,No,No,No,No,No,No,No,No,No,No,No,No,No,No,No,Yes,No,No,No,No,No,No,No,No,No,No,No,No,No,No,No,No,No,No
-80.22028269,25.89635472,Ben Franklin Park,13400 NW 12TH AVE,North Miami,33167,6,NorthMiamiPark,Municipal,No,No,No,No,No,No,No,No,No,No,No,No,No,No,No,No,No,No,No,No,No,No,No,No,No,No,No,No,No,No,No,No,No,No,No,No,No,No,No,No,No,No,No,No
-80.28792271,25.70906467,South Miami Community Center,5800 SW 66TH ST,South Miami,33143,1,SouthMiamiPark,Municipal,No,No,No,No,No,No,No,No,No,No,No,No,No,No,No,No,No,No,No,No,No,No,No,No,No,No,No,No,No,No,No,No,No,No,No,No,No,No,No,No,No,No,No,No
-80.23289269,25.78424469,Fern Isle / South Fork Park,1100 NW 22ND AVE,Miami,33125,9,MiamiPark,Municipal,No,No,No,No,No,No,No,No,No,No,No,No,No,No,No,No,No,No,No,No,No,No,No,No,No,No,No,No,No,No,No,No,No,No,No,No,No,No,No,No,No,No,No,No
-80.18240268,25.86632471,Miami Shores Recreation Complex,9617 PARK DR,Miami Shores,33138,10,MiamiShoresPark,Municipal,No,No,No,No,No,No,No,No,No,No,No,No,No,No,No,No,No,No,No,No,No,No,No,No,No,No,No,No,No,No,No,No,No,No,No,No,No,No,No,No,No,No,No,No
-80.20961269,25.88197471,Oak Park,620 NW 117TH ST,MIAMI,33168,0.7,MiamiDadePark,County,No,No,No,No,No,No,No,No,No,No,No,No,No,No,No,No,No,No,No,No,No,No,No,No,No,No,No,No,No,No,No,No,No,No,No,No,No,No,No,No,No,No,No,No
-80.14813267,25.95121473,Ojus Park,18995 W DIXIE HWY,MIAMI,33180,1.63,MiamiDadePark,County,No,No,No,No,Yes,No,No,No,No,No,No,No,No,No,No,No,No,No,No,No,No,No,No,Yes,No,No,No,No,No,No,No,Yes,No,Yes,No,No,No,No,No,No,No,No,No,No
-80.32782272,25.58305464,Old Cutler Bike Path,COCO PLUM CIRCLE (SW 72 ST) TO  SW 216TH ST,MIAMI,33143,0,MiamiDadePark,County,No,No,No,No,No,No,No,No,No,No,No,No,No,No,No,No,No,No,No,No,No,No,No,No,No,No,No,No,No,No,No,No,No,Yes,No,No,No,No,No,No,No,No,No,No
-80.23154269,25.8219847,Olinda Park,2101 NW 51ST ST,MIAMI,33142,6.4,MiamiDadePark,County,No,No,No,No,Yes,No,No,No,No,No,No,No,No,No,No,No,No,No,No,No,No,No,No,Yes,No,No,Yes,No,No,No,No,Yes,No,Yes,No,No,No,No,No,No,No,No,No,No
-80.44138275,25.68678466,Olympic Park,8601 SW 152ND AVE,MIAMI,33193,7.02,MiamiDadePark,County,No,No,No,No,Yes,No,No,No,No,No,No,No,No,No,No,No,No,No,No,No,No,No,No,No,No,No,No,No,No,No,No,Yes,No,No,No,No,No,No,No,No,No,No,No,No
-80.2559227,25.72965467,Pierce Playground,101 OAK AVE,Coral Gables,33133,0,CoralGablesPark,Municipal,No,No,No,No,No,No,No,No,No,No,No,No,No,No,No,No,No,No,No,No,No,No,No,No,No,No,No,No,No,No,No,No,No,No,No,No,No,No,No,No,No,No,No,No
-80.29905271,25.8218047,Miami Springs Community Center/ Aquatic Cente,1401 WESTWARD DR,Miami Springs,33166,4,MiamiSpringsPark,Municipal,No,Yes,No,No,Yes,No,No,No,No,No,No,No,No,No,No,No,No,Yes,No,No,No,No,No,Yes,No,Yes,No,No,No,Yes,No,No,Yes,No,Yes,Yes,Yes,No,No,No,No,No,No,No
-80.17706268,25.8398047,Baywood Park,NE 70TH ST / NE 69TH ST,Miami,33138,0,MiamiPark,Municipal,No,No,No,No,No,No,No,No,No,No,No,No,No,No,No,No,No,No,No,No,No,No,No,No,No,Yes,No,No,No,No,No,No,No,No,No,No,No,No,No,No,No,No,No,No
-80.15174267,25.88885472,North Bayshore William Lehman Park,12200 N BAYSHORE DR,North Miami,33181,1,NorthMiamiPark,Municipal,No,No,No,No,No,No,No,No,No,No,No,No,No,No,No,No,No,No,No,No,No,No,No,No,No,No,No,No,No,No,No,No,No,No,No,No,No,No,No,No,No,No,No,No
-80.14529267,25.85571471,Normandy Shores Park,2401 BIARRITZ DR,Miami Beach,33141,1,MiamiBeachPark,Municipal,No,No,No,No,No,No,No,No,No,No,No,No,No,No,No,No,No,No,No,No,No,No,No,No,No,No,No,No,No,No,Yes,No,No,No,No,No,No,No,No,No,No,Yes,No,No
-80.31392272,25.91250472,ML Tax Dist.- (p-63),15250 E LOCH ISLE DR,Miami Lakes,33014,0,MiamiLakesPark,Municipal,No,No,No,No,No,No,No,No,No,No,No,No,No,No,No,No,No,No,No,No,No,No,No,No,No,No,No,No,No,No,No,No,No,No,No,No,No,No,No,No,No,No,No,No
-80.31648272,25.91732472,ML Tax Dist.- (p-02) loch lomond,BERWICK WAY / S PRESTWICK PL,Miami Lakes,33014,0,MiamiLakesPark,Municipal,No,No,No,No,No,No,No,No,No,No,No,No,No,No,No,No,No,No,No,No,No,No,No,No,No,No,No,No,No,No,No,No,No,No,No,No,No,No,No,No,No,No,No,No
-80.33689273,25.90952472,ML Tax Dist.- (p-73),8460 DUNDEE TER,Miami Lakes,33016,0,MiamiLakesPark,Municipal,No,No,No,No,No,No,No,No,No,No,No,No,No,No,No,No,No,No,No,No,No,No,No,No,No,No,No,No,No,No,No,No,No,No,No,No,No,No,No,No,No,No,No,No
-80.33485273,25.90872472,ML Tax Dist.- (p-71),8335 REDNOCK LN,Miami Lakes,33016,0,MiamiLakesPark,Municipal,No,No,No,No,No,No,No,No,No,No,No,No,No,No,No,No,No,No,No,No,No,No,No,No,No,No,No,No,No,No,No,No,No,No,No,No,No,No,No,No,No,No,No,No
-80.31515272,25.91081472,ML Tax Dist..- (p-62),15181 LOCH ISLE DR,Miami Lakes,33014,0,MiamiLakesPark,Municipal,No,No,No,No,No,No,No,No,No,No,No,No,No,No,No,No,No,No,No,No,No,No,No,No,No,No,No,No,No,No,No,No,No,No,No,No,No,No,No,No,No,No,No,No
-80.31555272,25.91198472,ML Tax Dist.- (p-65),15211 W LOCH ISLE DR,Miami Lakes,33014,0,MiamiLakesPark,Municipal,No,No,No,No,No,No,No,No,No,No,No,No,No,No,No,No,No,No,No,No,No,No,No,No,No,No,No,No,No,No,No,No,No,No,No,No,No,No,No,No,No,No,No,No
-80.16255267,25.78064469,Palm Island Park,159 PALM AVE,Miami Beach,33139,2,MiamiBeachPark,Municipal,No,No,No,No,Yes,No,No,No,No,No,No,No,No,No,No,No,No,No,No,No,No,No,Yes,No,No,Yes,No,No,No,No,Yes,Yes,No,No,No,No,No,No,No,No,No,No,No,No
-80.22928269,25.73905468,Silver Bluff Park,2901 SW 22ND AVE,Miami,33133,0,MiamiPark,Municipal,No,No,No,No,No,No,No,No,No,No,No,No,No,No,No,No,No,No,No,No,No,No,No,No,No,No,No,No,No,No,No,No,No,No,No,No,No,No,No,No,No,No,No,No
-80.16492268,25.92438472,Allen Park / Deleonardis Youth Center,1770 NE 162ND ST,North Miami Beach,33162,4,NorthMiamiBeachPark,Municipal,No,No,No,Yes,Yes,No,No,No,No,No,No,No,Yes,No,No,No,No,Yes,No,No,No,No,No,Yes,No,No,No,Yes,No,No,No,Yes,No,No,No,No,No,No,No,No,No,No,No,No
-80.28552271,25.81280469,City of Miami Country Club,650 CURTIS PKWY,Miami Springs,33166,171,MiamiPark,Municipal,No,No,No,No,No,No,No,No,No,No,No,No,No,No,No,No,No,No,No,No,No,No,No,No,No,No,No,No,No,No,No,No,No,No,No,No,No,No,No,No,No,No,No,No
-80.2564127,25.75772468,Phillips Park,GALIANO ST / MENORES AVE,Coral Gables,33134,3,CoralGablesPark,Municipal,No,No,No,No,No,No,No,No,No,No,No,No,No,No,No,No,No,No,No,No,No,No,No,No,No,No,No,No,No,No,No,No,No,No,No,No,No,No,No,No,No,No,No,No
-80.36684273,25.62300464,Colonial Drive Park,10750 SW 156TH TER,MIAMI,33157,9.9,MiamiDadePark,County,No,No,No,Yes,Yes,No,No,No,No,No,No,No,No,No,No,No,No,No,No,No,No,No,No,Yes,No,No,No,No,No,No,Yes,Yes,No,Yes,No,Yes,No,No,No,No,No,No,No,No
-80.37877273,25.73839467,Concord Park,3301 SW 114TH AVE,MIAMI,33165,10,MiamiDadePark,County,No,No,No,Yes,Yes,No,No,No,No,No,No,No,No,No,No,No,No,No,No,No,No,No,No,No,No,No,No,No,No,No,No,Yes,No,Yes,No,No,No,No,No,No,No,No,No,No
-80.32606272,25.67648466,Continental Park,10000 SW 82ND AVE,MIAMI,33156,18.13,MiamiDadePark,County,No,No,No,Yes,Yes,No,No,No,No,No,No,No,No,No,No,No,No,No,No,No,No,No,No,Yes,No,No,No,No,No,No,Yes,Yes,No,Yes,No,No,No,No,No,No,No,No,No,No
-80.35073273,25.75631468,Coral Estates Park,1405 SW 97TH AVE,MIAMI,33174,5.15,MiamiDadePark,County,No,No,No,Yes,No,No,No,No,No,No,No,No,No,No,No,No,No,No,No,No,No,No,No,Yes,No,No,No,No,No,No,Yes,Yes,No,No,No,No,No,No,No,No,No,No,No,No
-80.31653272,25.94602473,Country Club of Miami,6801 NW 186TH ST,MIAMI,33015,264.48,MiamiDadePark,County,No,No,No,No,No,No,No,No,No,No,No,No,No,No,Yes,Yes,No,No,No,No,No,No,No,No,No,Yes,No,No,No,No,Yes,No,No,Yes,No,No,No,No,No,No,No,No,No,No
-80.32095272,25.94264473,North Pointe Community Ctr.,7335 OLD ELM DR,MIAMI,33015,5.26,MiamiDadePark,County,No,No,No,No,No,No,No,No,No,No,No,No,No,No,No,No,No,No,No,No,No,No,No,No,No,No,No,No,No,No,No,No,No,No,No,No,No,No,No,No,No,No,No,No
-80.32097272,25.93463472,Country Club of Miami South Park,6881 NW 179TH ST,MIAMI,33015,125,MiamiDadePark,County,No,No,No,No,No,No,No,No,No,No,No,No,No,No,No,No,No,No,No,No,No,No,No,No,No,No,No,No,No,No,No,No,No,Yes,No,No,No,No,No,No,No,No,No,No
-80.32526272,25.95480473,Country Club of Miami Tot Lot,7620 S OAKMONT CIR,MIAMI,33015,0.32,MiamiDadePark,County,No,No,No,No,No,No,No,No,No,No,No,No,No,No,No,No,No,No,No,No,No,No,No,No,No,Yes,No,No,No,No,No,Yes,No,No,No,No,No,No,No,No,No,No,No,No
-80.34057273,25.95053473,Country Lake Park,19525 NW 87TH AVE,MIAMI,33015,20,MiamiDadePark,County,No,No,No,Yes,Yes,No,No,No,No,No,No,No,No,No,No,No,No,No,No,No,No,No,No,No,No,Yes,No,No,No,No,No,Yes,No,Yes,No,No,No,No,No,No,No,No,No,No
-80.37012273,25.55496463,Debbie Curtin Park,22820 SW 112TH AVE,MIAMI,33170,9.76,MiamiDadePark,County,No,No,No,No,No,No,No,No,No,No,No,No,No,No,No,No,No,No,No,No,No,No,No,No,No,No,No,No,No,No,No,No,No,No,No,No,No,No,No,No,No,No,No,No
-80.34654272,25.62503464,Palmetto Golf Course,9300 CORAL REEF DR,MIAMI,33157,121,MiamiDadePark,County,No,No,No,No,No,No,No,No,No,No,No,No,No,No,Yes,Yes,No,No,No,No,No,No,No,No,Yes,No,No,No,No,No,No,No,No,Yes,No,No,No,No,No,No,No,No,No,No
-80.43984275,25.48538461,Palmland Park,15351 SW 304TH ST,MIAMI,33033,5.05,MiamiDadePark,County,No,No,No,No,No,No,No,No,No,No,No,No,No,No,No,No,No,No,No,No,No,No,No,No,No,No,No,No,No,No,No,Yes,No,Yes,No,No,No,No,No,No,No,No,No,No
-80.23165269,25.8247147,Partners Park,5536 NW 21ST AVE,MIAMI,33142,0,MiamiDadePark,County,No,No,No,Yes,No,No,No,No,No,No,No,No,No,No,No,No,No,No,No,No,No,No,No,No,No,No,No,No,No,No,No,No,No,No,No,No,No,No,No,No,No,No,No,No
-80.16661267,25.84899471,Pelican Harbor Marina,1275 NE 79TH ST,MIAMI,33138,81.67,MiamiDadePark,County,No,No,No,No,No,No,No,Yes,No,No,No,No,No,No,No,No,No,No,Yes,No,No,No,No,No,No,No,No,No,No,No,No,No,No,No,No,No,No,No,No,No,No,No,No,No
-80.16341267,25.85359471,Pelican Island,1150 FEET NORTH OF PELICAN  HARBOR,MIAMI,33141,0,MiamiDadePark,County,No,No,No,No,No,No,No,No,No,No,No,No,No,No,No,No,No,No,No,No,No,No,No,No,No,No,No,No,No,No,No,No,No,Yes,Yes,No,No,No,No,No,No,No,No,No
-80.40028273,25.51702462,Pine Island Lake Park,12970 SW 268TH ST,MIAMI,33032,17.98,MiamiDadePark,County,No,No,No,No,No,No,No,No,No,No,No,No,No,No,No,No,No,No,No,No,No,No,No,No,No,No,No,No,No,No,No,No,No,No,No,No,No,No,No,No,No,No,No,No
-80.40343274,25.56509463,Pine Ridge B.M.X. Park,13000 SW 216TH ST,MIAMI,33170,5,MiamiDadePark,County,No,No,No,No,No,No,Yes,No,No,No,No,No,No,No,No,No,No,No,No,No,No,No,No,No,No,Yes,No,No,No,No,No,No,No,No,No,No,No,No,No,No,No,No,No,No
-80.31066272,25.90812472,ML Tax Dist.- (p-15),14810 PALMETTO PALM AVE,Miami Lakes,33014,0,MiamiLakesPark,Municipal,No,No,No,No,No,No,No,No,No,No,No,No,No,No,No,No,No,No,No,No,No,No,No,No,No,No,No,No,No,No,No,No,No,No,No,No,No,No,No,No,No,No,No,No
-80.19276268,25.79342469,City Cementary,1800 NE 2ND AVE,Miami,33132,10,MiamiPark,Municipal,No,No,No,No,No,No,No,No,No,No,No,No,No,No,No,No,No,No,No,No,No,No,No,No,No,No,No,No,No,No,No,No,No,No,No,No,No,No,No,No,No,No,No,No
-80.12358266,25.94445473,Pelican Community Park,18115 NORTH BAY RD,Sunny Isles Beach,33160,2,SunnyIslesBeachPark,Municipal,No,No,No,Yes,Yes,No,No,No,No,No,No,No,No,No,No,No,No,Yes,No,No,No,No,No,Yes,No,No,No,No,No,No,No,Yes,No,No,Yes,No,Yes,No,No,No,No,No,No,No
-80.2555727,25.69168466,Unnamed Park (Leucadendra Dr),199  LEUCADENDRA DR,Coral Gables,33156,1,CoralGablesPark,Municipal,No,No,No,No,No,No,No,No,No,No,No,No,No,No,No,No,No,No,No,No,No,No,No,No,No,No,No,No,No,No,No,No,No,No,No,No,No,No,No,No,No,No,No,No
-80.15647267,25.93369473,Jack Chaiken Park,NE 22 AVE AND NE 172nd ST,North Miami Beach,33162,0.1,NorthMiamiBeachPark,Municipal,No,No,No,No,No,No,No,No,No,No,No,No,No,No,No,No,No,No,No,No,No,No,No,No,No,No,No,No,No,No,No,No,No,No,No,No,No,No,No,No,No,No,No,No
-80.17645268,25.92085472,Donald E. Bonham Senior Park,NE 12TH AVE /  NE 158TH  ST,North Miami  Beach,33162,0.1,NorthMiamiBeachPark,Municipal,No,No,No,No,No,No,No,No,No,No,No,No,No,No,No,No,No,No,No,No,No,No,No,No,No,No,No,No,No,No,No,No,No,No,No,No,No,No,No,No,No,No,No,No
-80.34919272,25.59737464,Bel Aire Park,SW 185TH TER / SW 97TH AVE,Cutler Bay,33157,5,CutlerBayPark,Municipal,No,No,No,No,No,No,No,No,No,No,No,No,No,No,No,No,No,No,No,No,No,No,No,No,No,No,No,No,No,No,No,No,No,No,No,No,No,No,No,No,No,No,No,No
-80.27524271,25.8201747,Ken Mattingly Park,CIRCLE DR / PEN NA NA DR,Hialeah,33010,2,HialeahPark,Municipal,No,No,No,No,No,No,No,No,No,No,No,No,No,No,No,No,No,No,No,No,No,No,No,No,No,No,No,No,No,No,No,No,No,No,No,No,No,No,No,No,No,No,No,No
-80.15300267,25.96611474,Highland Oaks Park,20300 NE 24TH AVE,MIAMI,33180,39.92,MiamiDadePark,County,No,No,No,Yes,No,No,No,No,No,No,No,No,No,No,No,No,No,No,No,No,No,No,No,Yes,No,No,No,Yes,No,No,No,Yes,No,Yes,Yes,No,No,No,No,No,No,No,No,No
-80.39200273,25.51265462,Homestead Air Reserve Park,27401 SW 127TH AVE,MIAMI,33039,212.73,MiamiDadePark,County,No,No,No,No,No,No,No,No,No,No,No,No,No,No,No,No,No,No,No,No,No,No,No,No,No,No,No,No,No,No,No,No,No,Yes,No,No,No,No,No,No,No,No,No,No
-80.34649115,25.46280184,Homestead Bayfront Park,9698 N CANAL DR,MIAMI,33033,97,MiamiDadePark,County,No,No,No,No,No,Yes,No,Yes,No,No,No,No,No,No,No,No,No,No,Yes,No,No,No,No,No,No,No,No,No,No,No,No,Yes,No,Yes,No,No,No,No,No,No,No,No,No,No
-80.31777272,25.73338467,Humble Mini Park,7580 SW 39TH TER,MIAMI,33155,0.5,MiamiDadePark,County,No,No,No,No,No,No,No,No,No,No,No,No,No,No,No,No,No,No,No,No,No,No,No,No,No,No,No,No,No,No,No,No,No,No,No,No,No,No,No,No,No,No,No,No
-80.39415274,25.75174468,International Gardens Park,12321 SW 18TH TER,MIAMI,33175,5.38,MiamiDadePark,County,No,No,No,Yes,No,No,No,No,No,No,No,No,No,No,No,No,No,No,No,No,No,No,No,No,No,No,No,No,No,No,No,Yes,No,Yes,No,No,No,No,No,No,No,No,No,No
-80.16944268,25.97008474,Ives Estates Park,20901 NE 16TH AVE,MIAMI,33179,94.46,MiamiDadePark,County,No,No,No,Yes,Yes,No,No,No,No,No,No,No,Yes,No,No,No,No,No,No,No,No,No,Yes,No,No,No,No,No,No,No,Yes,Yes,Yes,No,No,No,No,No,No,No,No,No,No,No
-80.17685268,25.95543473,Ives Estates Tot Lot,19598 NE 12TH AVE,MIAMI,33179,0.25,MiamiDadePark,County,No,No,No,No,No,No,No,No,No,No,No,No,No,No,No,No,No,No,No,No,No,No,No,No,No,No,No,No,No,No,No,Yes,No,Yes,No,No,No,No,No,No,No,No,No,No
-80.22717269,25.90799472,Jeb Estates Park,14541 NW 16TH CT,MIAMI,33167,1.47,MiamiDadePark,County,No,No,No,No,No,No,No,No,No,No,No,No,No,No,No,No,No,No,No,No,No,No,No,No,No,No,No,No,No,No,No,No,No,No,No,No,No,No,No,No,No,No,No,No
-80.20032268,25.8239147,Buena Vista Park,5250  NW 2ND AVE,Miami,33127,1,MiamiPark,Municipal,No,No,No,No,No,No,No,No,No,No,No,No,No,No,No,No,No,No,No,No,No,No,No,No,No,No,No,No,No,No,No,No,No,No,No,No,No,No,No,No,No,No,No,No
-80.14900267,25.91675472,N. Miami Ronald L. Book Athl. Stadium,2555 NE 151ST ST,North Miami,33181,18,NorthMiamiPark,Municipal,No,No,No,No,No,No,No,No,No,No,No,No,No,No,No,No,No,No,No,No,No,No,No,No,No,No,No,No,No,No,No,No,No,No,No,No,No,No,No,No,No,No,No,No
-80.32361272,25.92208472,ML Tax Dist.- (p-50),7599 LOCH NESS DR,Miami Lakes,33014,1,MiamiLakesPark,Municipal,No,No,No,No,No,No,No,No,No,No,No,No,No,No,No,No,No,No,No,No,No,No,No,No,No,No,No,No,No,No,No,No,No,No,No,No,No,No,No,No,No,No,No,No
-80.2373327,25.90520472,Segal Park,2331 NW 143RD ST,Opa Locka,33054,2,OpaLockaiPark,Municipal,No,No,No,No,No,No,No,No,No,No,No,No,No,No,No,No,No,No,No,No,No,No,No,No,No,No,No,No,No,No,No,No,No,No,No,No,No,No,No,No,No,No,No,No
-80.32826272,25.87542471,Bucky Dent Park,2250 W 60TH  ST,Hialeah,33016,19,HialeahPark,Municipal,No,No,No,Yes,Yes,No,No,No,No,No,No,No,Yes,No,No,No,No,Yes,No,No,No,No,No,Yes,No,No,No,Yes,No,Yes,No,Yes,No,No,No,No,Yes,No,No,No,No,No,No,No
-80.28173271,25.8241347,Triangle Park Hialeah,290 PALM AVE,Hialeah,33010,1,HialeahPark,Municipal,No,No,No,No,No,No,No,No,No,No,No,No,No,No,No,No,No,No,No,No,No,No,No,No,No,No,No,No,No,No,No,No,No,No,No,No,No,No,No,No,No,No,No,No
-80.19527268,25.8291047,Lemon City Park,27 NE 58TH ST,Miami,33137,3,MiamiPark,Municipal,No,No,No,No,Yes,No,No,No,No,No,No,No,No,No,No,No,No,No,No,No,No,No,No,No,No,Yes,No,No,No,No,No,Yes,No,No,No,No,No,No,No,No,No,No,No,No
-80.2507427,25.73075467,Elizabeth Virrick Park,3255 PLAZA ST,Miami,33133,5,MiamiPark,Municipal,No,No,No,No,No,No,No,No,No,No,No,No,No,No,No,No,No,No,No,No,No,No,No,No,No,No,No,No,No,No,No,No,No,No,No,No,No,No,No,No,No,No,No,No
-80.23854269,25.80408469,Melrose Park,2520 NW 31ST ST,Miami,33142,2,MiamiPark,Municipal,No,No,No,No,No,No,No,No,No,No,No,No,No,No,No,No,No,No,No,No,No,No,No,No,No,No,No,No,No,No,No,No,No,No,No,No,No,No,No,No,No,No,No,No
-80.34871273,25.89423471,Veterans Park,7900 W 32ND AVE,Hialeah,33018,4,HialeahPark,Municipal,No,No,No,No,Yes,No,No,No,No,No,No,No,Yes,No,No,No,No,No,No,No,No,No,No,Yes,No,No,No,Yes,No,No,No,Yes,No,Yes,No,No,No,No,No,No,No,Yes,No,No
-80.37021273,25.89604471,Westland Gardens Park,13501 NW 107TH AVE,Hialeah Gardens,33018,18,HialeahGardensPark,Municipal,No,No,No,No,No,No,No,No,No,No,No,No,No,No,No,No,No,No,No,No,No,No,No,No,No,No,No,No,No,No,No,No,No,No,No,No,No,No,No,No,No,No,No,No
-80.31949271,25.63166465,Coral Reef Park,7895 SW 152ND ST,Palmetto Bay,33157,51.3,PalmettoBayPark,Municipal,No,No,No,Yes,No,No,No,Yes,No,No,No,No,Yes,No,No,No,No,No,No,No,No,Yes,Yes,Yes,No,Yes,No,Yes,No,No,Yes,Yes,No,Yes,Yes,No,Yes,No,No,No,No,Yes,No,No
-80.11911266,25.96630474,Loggia Beach Park,399 OCEAN BLVD,Golden Beach,33160,1,GoldenBeachPark,Municipal,No,No,No,No,No,No,No,No,No,No,No,No,No,No,No,No,No,No,No,No,No,No,No,No,No,No,No,No,No,No,No,No,No,No,No,No,No,No,No,No,No,No,No,No
-80.34749272,25.74878468,Francisco Human Rights Park,9445 SW 24TH ST,MIAMI,33165,3.78,MiamiDadePark,County,No,No,No,No,No,No,No,No,No,No,No,No,No,No,No,No,No,No,No,No,No,No,No,No,No,No,No,No,No,No,No,Yes,No,Yes,No,No,No,No,No,No,No,No,No,No
-80.51351277,25.48611461,Fuchs Hammock Preserve,30200 SW 198TH AVE,MIAMI,33030,25,MiamiDadePark,County,No,No,No,No,No,No,No,No,No,No,No,No,No,No,No,No,No,No,No,No,No,No,No,No,No,No,No,No,No,No,No,No,No,No,No,No,No,No,No,No,No,No,No,No
-80.2469127,25.8360547,Gladeview Park,6815 NW 31ST AVE,MIAMI,33147,0.92,MiamiDadePark,County,No,No,No,No,No,No,No,No,No,No,No,No,No,No,No,No,No,No,No,No,No,No,No,No,No,No,No,No,No,No,No,Yes,No,Yes,No,No,No,No,No,No,No,No,No,No
-80.40433274,25.62028464,Gold Coast Railroad Museum Park,12450 SW 152ND ST,MIAMI,33177,49.67,MiamiDadePark,County,No,No,No,No,No,No,No,No,No,No,No,No,No,No,No,No,No,No,No,No,No,No,No,No,No,No,No,No,No,No,No,No,No,No,No,No,No,No,No,No,No,No,No,No
-80.37656273,25.56443463,Goulds Park,21805 SW 114TH AVE,MIAMI,33170,30,MiamiDadePark,County,No,No,No,Yes,Yes,No,No,No,No,No,No,No,Yes,No,No,No,No,No,No,No,No,No,No,Yes,No,No,No,Yes,No,Yes,Yes,Yes,Yes,No,No,No,No,No,No,No,No,No,No,No
-80.39049273,25.55564463,Goulds Wayside Park,22650 SW 123RD RD,MIAMI,33170,2.9,MiamiDadePark,County,No,No,No,No,No,No,No,No,No,No,No,No,No,No,No,No,No,No,No,No,No,No,No,No,No,No,No,No,No,No,No,No,No,No,No,No,No,No,No,No,No,No,No,No
-80.21351269,25.88179471,Gratigny Plateau Park,885 NW 117TH ST,MIAMI,33168,0.96,MiamiDadePark,County,No,No,No,No,No,No,No,No,No,No,No,No,No,No,No,No,No,No,No,No,No,No,No,No,No,No,No,No,No,No,No,No,No,No,No,No,No,No,No,No,No,No,No,No
-80.15558267,25.94245473,Greynolds Park,17530 W DIXIE HWY,NORTH MIAMI BEACH,33160,184,MiamiDadePark,County,Yes,No,No,No,No,No,No,No,No,No,No,No,No,No,Yes,No,No,No,No,No,No,Yes,No,No,No,Yes,No,No,No,No,No,Yes,No,Yes,Yes,No,No,No,No,No,No,No,No,No
-80.2369127,25.8389347,Gwen Cherry Park,7090 NW 22ND AVE,MIAMI,33147,38.55,MiamiDadePark,County,Yes,No,No,Yes,Yes,No,No,No,No,No,No,No,Yes,No,No,No,No,No,No,No,No,No,No,Yes,No,No,No,No,No,Yes,No,Yes,Yes,Yes,No,No,No,No,No,No,No,No,No,No
-80.2764627,25.68969466,Hammock Lake Park,SW 88TH ST & SW 52ND AVE,CORAL GABLES,33156,0.17,MiamiDadePark,County,No,No,No,No,No,No,No,No,No,No,No,No,No,No,No,No,No,No,No,No,No,No,No,No,No,No,No,No,No,No,No,No,No,No,No,No,No,No,No,No,No,No,No,No
-80.43938275,25.67416466,Hammocks Community Park,9885 HAMMOCKS BLVD,MIAMI,33196,14.84,MiamiDadePark,County,No,No,No,Yes,No,No,No,No,No,No,No,No,No,No,No,No,No,No,No,No,No,No,Yes,Yes,No,Yes,No,No,No,No,No,Yes,No,No,No,No,No,No,No,No,No,No,No,No
-80.44416275,25.51817462,Hattie Bauer Hammock Preserve,26715 SW 157TH AVE,MIAMI,33032,6,MiamiDadePark,County,No,No,No,No,No,No,No,No,No,No,No,No,No,No,No,No,No,No,No,No,No,No,No,No,No,No,No,No,No,No,No,No,No,No,No,No,No,No,No,No,No,No,No,No
-80.12109266,25.91092472,Haulover Beach,10800 COLLINS AVE,MIAMI,33154,0,MiamiDadePark,County,No,No,No,No,No,Yes,No,No,No,No,No,No,No,No,No,No,No,No,No,No,No,No,No,No,No,No,No,No,No,No,No,No,No,No,No,No,No,No,No,No,No,No,No,No
-80.12346266,25.91123472,Haulover Park,10801 COLLINS AVE,MIAMI,33154,246,MiamiDadePark,County,No,No,No,No,No,Yes,No,Yes,No,No,No,No,No,No,Yes,No,No,No,Yes,No,No,No,No,No,No,No,No,No,No,No,Yes,No,No,Yes,No,No,No,No,No,No,No,No,No,No
-80.2569327,25.78915469,Grapeland Heights Park,1550 NW 37TH AVE,Miami,33125,23,MiamiPark,Municipal,No,No,No,No,No,No,No,No,No,No,No,No,No,No,No,No,No,No,No,No,No,No,No,No,No,No,No,No,No,No,No,No,No,No,No,No,No,No,No,No,No,No,No,No
-80.2821527,25.70678467,Riviera Park,6611 YUMURI ST,Coral Gables,33146,3,CoralGablesPark,Municipal,No,No,No,No,No,No,No,No,No,No,No,No,No,No,No,No,No,No,No,No,No,No,No,No,No,No,No,No,No,No,No,No,No,No,No,No,No,No,No,No,No,No,No,No
-80.19186268,25.93046473,Uleta Community Center,16880 NE 4TH AVE,North Miami Beach,33162,1,NorthMiamiBeachPark,Municipal,No,No,No,Yes,Yes,No,No,No,No,No,No,No,Yes,No,No,No,No,No,No,No,No,No,No,Yes,No,No,No,No,No,No,No,Yes,No,No,No,No,No,No,No,No,No,No,No,No
-80.20575268,25.78729469,Athalie Range #1,1200 NW 6TH AVE,Miami,33136,6,MiamiPark,Municipal,No,No,No,No,No,No,No,No,No,No,No,No,No,No,No,No,No,No,No,No,No,No,No,No,No,No,No,No,No,No,No,No,No,No,No,No,No,No,No,No,No,No,No,No
-80.20476269,25.8429747,Victory Homes Recreation Area,530 NW 75TH ST,Miami,33150,4,MiamiPark,Municipal,No,No,No,No,No,No,No,No,No,No,No,No,No,No,No,No,No,No,No,No,No,No,No,No,No,No,No,No,No,No,No,No,No,No,No,No,No,No,No,No,No,No,No,No
-80.30936272,25.91826472,ML Tax Dist.- (p-49),NW 67TH AVE / N MIAMI LAKEWAY,Miami Lakes,33162,0,MiamiLakesPark,Municipal,No,No,No,No,No,No,No,No,No,No,No,No,No,No,No,No,No,No,No,No,No,No,No,No,No,No,No,No,No,No,No,No,No,No,No,No,No,No,No,No,No,No,No,No
-80.17359268,25.92245472,Hosea Sauls Park,NE 13TH AVE / NE 159TH ST,North Miami Beach,33162,0,NorthMiamiBeachPark,Municipal,No,No,No,No,No,No,No,No,No,No,No,No,No,No,No,No,No,No,No,No,No,No,No,No,No,No,No,No,No,No,No,No,No,No,No,No,No,No,No,No,No,No,No,No
-80.13818267,25.94594473,Veterans Park,NE 31ST AVE / NE 183RD ST,Aventura,33160,2,AventuraPark,Municipal,No,No,No,No,No,No,No,No,No,No,No,No,No,No,No,No,No,No,No,No,No,No,No,No,No,No,No,No,No,No,No,No,No,Yes,No,No,No,No,No,No,No,No,No,No
-80.31807271,25.67444466,Flagler Grove Park,7551 SW 104TH ST,Pinecrest,33156,2,PinecrestPark,Municipal,No,No,No,No,No,No,No,No,No,No,No,No,No,No,No,No,No,No,No,No,No,No,No,No,No,No,No,No,No,No,No,No,No,No,No,No,No,No,No,No,No,No,No,No
-80.23867269,25.72710467,Kenneth Myers Park,S BAYSHORE DR / SW 27TH AVE,Miami,33133,5,MiamiPark,Municipal,No,No,No,No,No,No,No,No,No,No,No,No,No,No,No,No,No,No,No,No,No,No,No,No,No,No,No,No,No,No,No,No,No,No,No,No,No,No,No,No,No,No,No,No
-80.20919269,25.78968469,Pine Heights Park,NW 15TH ST / NW 9TH AVE,Miami,33136,0,MiamiPark,Municipal,No,No,No,No,No,No,No,No,No,No,No,No,No,No,No,No,No,No,No,No,No,No,No,No,No,No,No,No,No,No,No,No,No,No,No,No,No,No,No,No,No,No,No,No
-80.12251266,25.8092547,Pancoast Park,1 35TH ST,Miami Beach,33140,0,MiamiBeachPark,Municipal,No,No,No,No,No,No,No,No,No,No,No,No,No,No,No,No,No,No,No,No,No,No,No,No,No,No,No,No,No,No,No,No,No,No,No,No,No,No,No,No,No,No,No,No
-80.30136272,25.90332472,ML Tax Dist.- (p-10),6271 LAKE CHAMPLAIN TER,Miami Lakes,33014,0,MiamiLakesPark,Municipal,No,No,No,No,No,No,No,No,No,No,No,No,No,No,No,No,No,No,No,No,No,No,No,No,No,No,No,No,No,No,No,No,No,No,No,No,No,No,No,No,No,No,No,No
-80.30298272,25.90593472,ML Tax Dist.- (p-11),6276 LAKE GENEVA RD,Miami Lakes,33014,0,MiamiLakesPark,Municipal,No,No,No,No,No,No,No,No,No,No,No,No,No,No,No,No,No,No,No,No,No,No,No,No,No,No,No,No,No,No,No,No,No,No,No,No,No,No,No,No,No,No,No,No
-80.30823272,25.90642472,ML Tax Dist.- (p-12),6651 HARRIS TER,Miami Lakes,33014,0,MiamiLakesPark,Municipal,No,No,No,No,No,No,No,No,No,No,No,No,No,No,No,No,No,No,No,No,No,No,No,No,No,No,No,No,No,No,No,No,No,No,No,No,No,No,No,No,No,No,No,No
-80.30278272,25.90715472,ML Tax Dist.- (p-14),6315 S MIAMI LAKEWAY,Miami Lakes,33014,0,MiamiLakesPark,Municipal,No,No,No,No,No,No,No,No,No,No,No,No,No,No,No,No,No,No,No,No,No,No,No,No,No,No,No,No,No,No,No,No,No,No,No,No,No,No,No,No,No,No,No,No
-80.30558272,25.90986472,ML Tax Dist.- (p-47),6480 MIAMI LAKES DR E,Miami Lakes,33014,0,MiamiLakesPark,Municipal,No,No,No,No,No,No,No,No,No,No,No,No,No,No,No,No,No,No,No,No,No,No,No,No,No,No,No,No,No,No,No,No,No,No,No,No,No,No,No,No,No,No,No,No
-80.30646272,25.90880472,ML Tax Dist.- (p-46),15088 SW 154TH ST,Miami Lakes,33014,0,MiamiLakesPark,Municipal,No,No,No,No,No,No,No,No,No,No,No,No,No,No,No,No,No,No,No,No,No,No,No,No,No,No,No,No,No,No,No,No,No,No,No,No,No,No,No,No,No,No,No,No
-80.30220272,25.91122472,ML Tax Dist.- (p-59),15210 DURNFORD DR,Miami Lakes,33014,0,MiamiLakesPark,Municipal,No,No,No,No,No,No,No,No,No,No,No,No,No,No,No,No,No,No,No,No,No,No,No,No,No,No,No,No,No,No,No,No,No,No,No,No,No,No,No,No,No,No,No,No
-80.30273272,25.91310472,ML Tax Dist.- (p-60),15341 TURNBULL DR,Miami Lakes,33014,0,MiamiLakesPark,Municipal,No,No,No,No,No,No,No,No,No,No,No,No,No,No,No,No,No,No,No,No,No,No,No,No,No,No,No,No,No,No,No,No,No,No,No,No,No,No,No,No,No,No,No,No
-80.30794272,25.90832472,ML Tax Dist.- (p-44),6640 NW LUDLAM RD,Miami Lakes,33014,0,MiamiLakesPark,Municipal,No,No,No,No,No,No,No,No,No,No,No,No,No,No,No,No,No,No,No,No,No,No,No,No,No,No,No,No,No,No,No,No,No,No,No,No,No,No,No,No,No,No,No,No
-80.47666276,25.48583461,Musselwhite Park / Senior Center,1615 N KROME AVE,Homestead,33030,3,HomesteadPark,Municipal,No,No,No,No,No,No,No,No,No,No,No,No,No,No,No,No,No,No,No,No,No,No,No,No,No,No,No,No,No,No,No,No,No,No,No,No,No,No,No,No,No,No,No,No
-80.47978276,25.4630046,Tatum Park,SW 8TH ST / S FLAGLER AVE,Homestead,33030,2,HomesteadPark,Municipal,No,No,No,No,No,No,No,No,No,No,No,No,No,No,No,No,No,No,No,No,No,No,No,No,No,No,No,No,No,No,No,No,No,No,No,No,No,No,No,No,No,No,No,No
-80.28593271,25.69077466,Dante Facell Park,8600 SW 57TH AVE,South Miami,33143,7,SouthMiamiPark,Municipal,No,No,No,No,No,No,No,No,No,No,No,No,No,No,No,No,No,No,No,No,No,No,No,No,No,No,No,No,No,No,No,No,No,No,No,No,No,No,No,No,No,No,No,No
-80.28844271,25.70862467,Murray Park,6701 SW 58TH PL,South Miami,33143,3,SouthMiamiPark,Municipal,No,No,No,No,No,No,No,No,No,No,No,No,No,No,No,No,No,No,No,No,No,No,No,No,No,No,No,No,No,No,No,No,No,No,No,No,No,No,No,No,No,No,No,No
-80.2622227,25.81398469,Southeast Park,1015 SE 9TH AVE,Hialeah,33010,2,HialeahPark,Municipal,No,No,No,No,Yes,No,No,No,No,No,No,No,Yes,No,No,No,No,No,No,No,No,No,Yes,Yes,No,No,No,Yes,No,No,Yes,Yes,No,Yes,No,No,No,No,No,No,No,No,No,No
-80.13851267,25.85785471,Normandy Shores Golf Course,2401 BIARRITZ DR,Miami Beach,33141,118,MiamiBeachPark,Municipal,No,No,No,No,No,No,No,No,No,No,No,No,No,No,Yes,Yes,No,No,No,No,No,No,No,No,No,No,No,No,No,No,No,No,No,No,No,No,No,No,No,No,No,No,No,No
-80.2581527,25.72663467,Ambrister Park,236 GRAND AVE,Miami,33133,4,MiamiPark,Municipal,No,No,No,No,No,No,No,No,No,No,No,No,No,No,No,No,No,No,No,No,No,No,No,No,No,No,No,No,No,No,No,No,No,No,No,No,No,No,No,No,No,No,No,No
-80.18383268,25.89864472,Ray Cagni Park,13498 NE 8TH AVE,North Miami,33161,9,NorthMiamiPark,Municipal,No,No,No,No,No,No,No,No,No,No,No,No,No,No,No,No,No,No,No,No,No,No,No,No,No,No,No,No,No,No,No,No,No,No,No,No,No,No,No,No,No,No,No,No
-80.29812271,25.69605466,Fuchs Park,6445 SW 81ST ST,South Miami,33143,4,SouthMiamiPark,Municipal,No,No,No,No,No,No,No,No,No,No,No,No,No,No,No,No,No,No,No,No,No,No,No,No,No,No,No,No,No,No,No,No,No,No,No,No,No,No,No,No,No,No,No,No
-80.16960268,25.91645472,Washington Park Community Center,15290 NE 15TH CT,North Miami Beach,33162,2,NorthMiamiBeachPark,Municipal,No,No,No,Yes,Yes,No,No,No,No,No,No,No,No,No,No,No,No,No,No,No,No,No,No,Yes,No,No,No,No,No,No,No,Yes,No,No,No,No,No,No,No,No,No,No,No,No
-80.19313268,25.84886471,Little River Commerce Park,181 NE 80TH TER,Miami,33138,0,MiamiPark,Municipal,No,No,No,No,No,No,No,No,No,No,No,No,No,No,No,No,No,No,No,No,No,No,No,No,No,Yes,No,No,No,No,No,No,No,No,No,No,No,No,No,No,No,No,No,No
-80.30037271,25.85964471,Goodlet Park,4200 W 8TH AVE,Hialeah,33012,23,HialeahPark,Municipal,No,Yes,No,Yes,Yes,No,No,No,No,No,No,No,Yes,No,No,No,No,No,No,No,No,No,Yes,Yes,No,No,No,Yes,No,No,Yes,Yes,Yes,No,Yes,No,Yes,No,No,No,No,No,No,No
-80.18677268,25.8320947,Eaton Park,6015 NE 4TH CT,Miami,33137,3,MiamiPark,Municipal,No,No,No,No,Yes,No,No,No,No,No,No,No,No,No,No,No,No,No,No,No,No,No,No,No,No,Yes,No,No,No,No,No,No,No,No,No,No,No,No,No,No,No,No,No,No
-80.30229271,25.80908469,Virginia Gardens Park/ Community Center,6498 NW 38TH TER,Virginia Gardens,33166,4,VirginiaGardensPark,Municipal,No,No,No,No,No,No,No,No,No,No,No,No,No,No,No,No,No,No,No,No,No,No,No,No,No,No,No,No,No,No,No,No,No,No,No,No,No,No,No,No,No,No,No,No
-80.22405269,25.78489469,E.G. Sewell Park,1801 NW SOUTH RIVER DR,Miami,33125,9,MiamiPark,Municipal,No,No,No,No,No,No,No,No,No,No,No,No,No,No,No,No,No,No,No,No,No,No,No,No,No,No,No,No,No,No,No,No,No,No,No,No,No,No,No,No,No,No,No,No
-80.29900271,25.8198047,Prince Field,342 PAYNE DR,Miami Springs,33166,4,MiamiSpringsPark,Municipal,No,No,No,Yes,No,No,No,No,No,No,No,No,Yes,No,No,No,No,No,No,No,No,No,No,No,No,Yes,No,Yes,No,No,No,Yes,No,No,No,No,No,No,No,No,No,No,No,No
-80.34346273,25.92341472,Royal Oaks Park,16500 NW 87TH AVE,Miami Lakes,33018,22,MiamiLakesPark,Municipal,No,No,No,No,Yes,No,No,No,No,No,No,No,Yes,No,No,No,No,No,No,No,No,No,No,Yes,No,Yes,No,Yes,No,No,No,Yes,No,Yes,No,No,Yes,No,No,No,No,No,No,No
-80.2271627,25.94438473,Rolling Oaks Park,18701 NW 17TH AVE,Miami Gardens,33169,33,MiamiGardensPark,Municipal,No,No,No,No,No,No,No,No,No,No,No,No,No,No,No,No,No,No,No,No,No,No,No,No,No,No,No,No,No,No,No,No,No,No,No,No,No,No,No,No,No,No,No,No
-80.29249271,25.88349471,Earnest R. Graham Park Athletic Field,455 W 66TH ST,Hialeah,33012,8,HialeahPark,Municipal,No,No,No,No,No,No,No,No,No,No,No,No,No,No,No,No,No,No,No,No,No,No,No,No,No,No,No,No,No,No,No,No,No,No,No,No,No,No,No,No,No,No,No,No
-80.16268267,25.88585472,Sans Souci Tennis Center,1795 SANS SOUCI BLVD,North Miami,33181,2,NorthMiamiPark,Municipal,No,No,No,No,No,No,No,No,No,No,No,No,No,No,No,No,No,No,No,No,No,No,No,No,No,No,No,No,No,No,No,No,No,No,No,No,No,No,No,No,No,No,No,No
-80.48432276,25.4541946,Loren Roberts Park,NW 6TH ST / NW 6TH AVE,Florida City,33034,8,FloridaCityPark,Municipal,No,No,No,No,No,No,No,No,No,No,No,No,No,No,No,No,No,No,No,No,No,No,No,No,No,No,No,No,No,No,No,No,No,No,No,No,No,No,No,No,No,No,No,No
-80.13202266,25.77141469,Marjorie Stoneman Douglas Park,3RD ST / OCEAN DR,Miami Beach,33139,4,MiamiBeachPark,Municipal,No,No,No,No,No,No,No,No,No,No,No,No,No,No,No,No,No,No,No,No,No,No,No,No,No,No,No,No,No,No,No,Yes,No,No,No,No,No,No,No,No,No,No,No,No
-80.28459271,25.68511466,Red Road Linear Park,SW 56TH CT / SW 93RD ST,Pinecrest,33156,1,PinecrestPark,Municipal,No,No,No,No,No,No,No,No,No,No,No,No,No,No,No,No,No,No,No,No,No,No,No,No,No,No,No,No,No,No,No,No,No,No,No,No,No,No,No,No,No,No,No,No
-80.17951268,25.88047471,Ed Burke Recreation Center,11400 NE 9TH CT,Biscayne Park,33161,4,BiscayneParkPark,Municipal,No,No,No,No,No,No,No,No,No,No,No,No,No,No,No,No,No,No,No,No,No,No,No,No,No,No,No,No,No,No,No,No,No,No,No,No,No,No,No,No,No,No,No,No
-80.31740272,25.90219472,ML Tax Dist.- (p-29),14170 LEANING PINE DR,Miami Lakes,33014,0,MiamiLakesPark,Municipal,No,No,No,No,No,No,No,No,No,No,No,No,No,No,No,No,No,No,No,No,No,No,No,No,No,No,No,No,No,No,No,No,No,No,No,No,No,No,No,No,No,No,No,No
-80.31983272,25.90320472,ML Tax Dist..- (p-30),14295 SABAL DR,Miami Lakes,33014,0,MiamiLakesPark,Municipal,No,No,No,No,No,No,No,No,No,No,No,No,No,No,No,No,No,No,No,No,No,No,No,No,No,No,No,No,No,No,No,No,No,No,No,No,No,No,No,No,No,No,No,No
-80.20899268,25.78942469,Broward Circle Mini Park,NW 15TH ST / NW 8TH AVE,Miami,33125,0,MiamiPark,Municipal,No,No,No,No,No,No,No,No,No,No,No,No,No,No,No,No,No,No,No,No,No,No,No,No,No,No,No,No,No,No,No,No,No,No,No,No,No,No,No,No,No,No,No,No
-80.36685273,25.76196468,"Jose ""Lolo"" Villalobos Dominoes Park",10620 SW 7TH TER,Sweetwater,33173,1,SweetwaterPark,Municipal,No,No,No,No,No,No,No,No,No,No,No,No,No,No,No,No,No,No,No,No,No,No,No,No,No,No,No,No,No,No,No,No,No,No,No,No,No,No,No,No,No,No,No,No
-80.20579268,25.8202147,North Bay Vista Park,4850 NW 6TH AVE,Miami,33127,1,MiamiPark,Municipal,No,No,No,No,No,No,No,No,No,No,No,No,No,No,No,No,No,No,No,No,No,No,No,No,No,No,No,No,No,No,No,No,No,No,No,No,No,No,No,No,No,No,No,No
-80.30539272,25.94352473,Country Village Park,6550 NW 188TH TER,MIAMI,33015,17,MiamiDadePark,County,No,No,No,No,No,No,No,No,No,No,No,No,No,No,No,No,No,No,No,No,No,No,No,No,No,Yes,Yes,Yes,No,No,No,Yes,No,Yes,No,No,No,No,No,No,No,No,No,No
-80.15510267,25.71490467,Crandon Park,4000 CRANDON BLVD,KEY BISCAYNE,33149,903.9,MiamiDadePark,County,No,No,No,Yes,Yes,Yes,No,Yes,No,No,No,No,No,No,Yes,Yes,No,No,Yes,No,Yes,No,No,Yes,No,Yes,Yes,No,Yes,No,Yes,Yes,Yes,No,No,No,No,No,No,No,No,No,No,No
-80.36257272,25.57339463,Cutler Ridge Skate Park,SW 211TH ST /  FLORIDA  TPKE EXT,MIAMI,33189,3.6,MiamiDadePark,County,No,No,No,No,No,No,No,No,No,No,No,No,No,No,No,No,No,No,No,No,No,No,No,No,No,No,No,No,No,No,No,No,No,No,No,No,No,No,No,No,No,No,No,No
-80.34895272,25.70052466,Sunset Park,7321 SW 97TH AVE,MIAMI,33173,2.6,MiamiDadePark,County,No,No,No,Yes,Yes,No,No,No,No,No,No,No,No,No,No,No,No,No,No,No,No,No,Yes,No,No,No,No,No,No,No,Yes,Yes,No,Yes,No,No,No,No,No,No,No,No,No,No
-80.11970266,25.87991472,Surfside Beach,92ND ST / COLLINS AVE,SURFSIDE,33154,0,MiamiDadePark,County,No,No,No,No,No,Yes,No,No,No,No,No,No,No,No,No,No,No,No,No,No,No,No,No,No,No,No,No,No,No,No,No,No,No,No,No,No,No,No,No,No,No,No,No,No
-80.39240274,25.76133468,Tamiami Canal Park,SW 122ND  AVE TO SW 119TH AVE,MIAMI,33184,0,MiamiDadePark,County,No,No,No,No,No,No,No,No,No,No,No,No,No,No,No,No,No,No,No,No,No,No,No,No,No,No,No,No,No,No,No,No,No,No,No,No,No,No,No,No,No,No,No,No
-80.41111274,25.74999468,Tamiami Lakes Park,13220 SW 18TH ST,MIAMI,33175,5,MiamiDadePark,County,No,No,No,Yes,Yes,No,No,No,No,No,No,No,No,No,No,No,No,No,No,No,No,No,No,No,No,No,No,No,No,No,No,Yes,No,Yes,No,No,No,No,No,No,No,No,No,No
-80.37608273,25.74974468,Tamiami Park,11201 SW 24TH ST,MIAMI,33165,241.86,MiamiDadePark,County,No,Yes,No,Yes,Yes,No,No,No,No,No,No,No,No,No,No,No,No,No,No,No,No,No,No,Yes,Yes,Yes,No,No,Yes,Yes,Yes,No,Yes,Yes,Yes,No,No,No,No,No,No,No,No,No
-80.40221274,25.76174468,Tamiami Trail Park (North),12760 SW 6TH ST,MIAMI,33184,1.73,MiamiDadePark,County,No,No,No,No,No,No,No,No,No,No,No,No,No,No,No,No,No,No,No,No,No,No,No,No,No,No,No,No,No,No,No,No,No,No,No,No,No,No,No,No,No,No,No,No
-80.36364273,25.77007468,The Womens Park,10251 W FLAGLER ST,MIAMI,33172,15,MiamiDadePark,County,No,No,No,No,No,No,No,No,No,No,No,No,No,No,No,No,No,No,No,No,No,No,No,Yes,No,No,No,No,No,No,No,Yes,No,Yes,No,No,No,No,No,No,No,No,No,No
-80.40977274,25.64298465,Three Lakes Park,13375 SW 136TH ST,MIAMI,33186,15,MiamiDadePark,County,No,No,No,No,No,No,No,No,No,No,No,No,No,No,No,No,No,No,No,No,No,No,No,No,No,No,No,Yes,No,No,No,No,No,No,No,No,No,No,No,No,No,No,No,No
-80.47338276,25.77224468,Trail Glades Range,17601 SW 8TH ST,MIAMI,33192,698.18,MiamiDadePark,County,No,No,Yes,No,No,No,No,No,No,No,No,No,No,No,No,No,Yes,No,No,No,No,No,No,No,No,Yes,No,No,No,No,No,No,No,No,No,No,No,No,No,No,No,No,No,No
-80.38944273,25.63314465,Deerwood Bonita Lakes Park,14445 SW 122ND AVE,MIAMI,33186,11.04,MiamiDadePark,County,No,No,No,No,Yes,No,No,No,No,No,No,No,No,No,No,No,No,No,No,No,No,No,No,No,No,No,No,Yes,No,No,No,Yes,No,Yes,No,No,No,No,No,No,No,No,No,No
-80.39063273,25.66997466,Devon Aire Park,10400 SW 122ND AVE,MIAMI,33186,12,MiamiDadePark,County,No,No,No,Yes,Yes,No,No,No,No,No,No,No,No,No,No,No,No,No,No,No,No,No,No,Yes,No,No,No,No,No,No,Yes,Yes,No,Yes,No,No,No,No,No,No,No,No,No,No
-80.22821269,25.8306847,Drew Park,NW 60TH ST & NW 17TH AVE,MIAMI,33142,2.03,MiamiDadePark,County,No,No,No,Yes,Yes,No,No,No,No,No,No,No,No,No,No,No,No,No,No,No,No,No,No,No,No,No,No,No,No,No,Yes,No,No,No,No,No,No,No,No,No,No,No,No,No
-80.15126267,25.93118473,East Greynolds Park,16700 BISCAYNE BLVD,NORTH MIAMI BEACH,33160,56.75,MiamiDadePark,County,No,No,No,No,No,No,No,No,Yes,No,Yes,No,No,No,No,No,No,No,No,No,No,No,No,No,No,No,No,No,No,No,No,No,No,No,No,No,No,No,No,No,No,No,No,No
-80.45437276,25.71954467,Eden Lakes Park,4751 SW 162ND AVE,MIAMI,33185,10,MiamiDadePark,County,No,No,No,No,No,No,No,No,No,No,No,No,No,No,No,No,No,No,No,No,No,No,No,No,No,No,No,No,No,No,No,No,No,No,No,No,No,No,No,No,No,No,No,No
-80.38609273,25.59790464,Eureka Park,18320 SW 119TH AVE,MIAMI,33177,5.13,MiamiDadePark,County,No,No,No,Yes,Yes,No,No,No,No,No,No,No,No,No,No,No,No,No,No,No,No,No,No,Yes,No,No,No,No,No,No,No,Yes,No,No,No,No,No,No,No,No,No,No,No,No
-80.42394274,25.60102464,Eureka Villas Park,14301 SW 180TH ST,MIAMI,33177,5.32,MiamiDadePark,County,No,No,No,No,No,No,No,No,No,No,No,No,No,No,No,No,No,No,No,No,No,No,No,Yes,No,No,No,No,No,No,No,Yes,No,Yes,No,No,No,No,No,No,No,No,No,No
-80.47508276,25.52254462,Everglades Archers Range,SW 264TH ST / SW 175TH AVE,MIAMI,33031,19,MiamiDadePark,County,No,No,No,No,No,No,No,No,No,No,No,No,No,No,No,No,No,No,No,No,No,Yes,No,No,No,No,No,No,No,No,No,No,No,No,No,No,No,No,No,No,No,No,No,No
-80.2729127,25.67702466,Fairchild Tropical Botanic Garden,10901 OLD CUTLER RD,CORAL GABLES,33156,68,MiamiDadePark,County,No,Yes,No,No,No,No,No,No,No,No,No,No,No,No,No,No,No,No,No,No,No,Yes,No,No,No,No,No,No,No,No,No,No,No,No,No,No,No,No,No,No,No,No,No,No
-80.36445273,25.61417464,Fairwood Park,16651 SW 107TH AVE,MIAMI,33157,10,MiamiDadePark,County,No,No,No,No,No,No,No,No,No,No,No,No,No,No,No,No,No,No,No,No,No,No,No,No,No,No,No,No,No,No,No,No,No,No,No,No,No,No,No,No,No,No,No,No
-80.22255269,25.85290471,Fernville Park,8517 NW 14TH CT,MIAMI,33147,0.48,MiamiDadePark,County,No,No,No,No,No,No,No,No,No,No,No,No,No,No,No,No,No,No,No,No,No,No,No,No,No,No,No,No,No,No,No,No,No,No,No,No,No,No,No,No,No,No,No,No
-80.46082276,25.67362466,Forest Lakes Park,16351 SW 99 ST,MIAMI,33196,5.69,MiamiDadePark,County,No,No,No,No,Yes,No,No,No,No,No,No,No,No,No,No,No,No,No,No,No,No,No,No,No,No,No,No,No,No,No,No,Yes,No,Yes,No,No,No,No,No,No,No,No,No,No
-80.28738271,25.8216947,Miami Springs Tennis / Raquetball Facility,FLAMINGO CIR / WESTWARD DR,Miami Springs,33166,2,MiamiSpringsPark,Municipal,No,No,No,No,No,No,No,No,No,No,No,No,No,No,No,No,No,No,No,No,No,No,Yes,No,No,No,No,No,No,No,Yes,No,No,No,No,No,No,No,No,No,No,No,No,No
-80.36406273,25.89031471,Tot Lot Park,NW 102ND AVE / NW 129TH ST,Hialeah Gardens,33018,0,HialeahGardensPark,Municipal,No,No,No,No,No,No,No,No,No,No,No,No,No,No,No,No,No,No,No,No,No,No,No,No,No,No,No,No,No,No,No,No,No,No,No,No,No,No,No,No,No,No,No,No
-80.2692127,25.81171469,Ragan Park,LA BARON DR / RAGAN DR,Miami Springs,33166,1,MiamiSpringsPark,Municipal,No,No,No,No,No,No,No,No,No,No,No,No,No,No,No,No,No,No,No,No,No,No,No,No,No,No,No,No,No,No,No,No,No,No,No,No,No,No,No,No,No,No,No,No
-80.16451268,25.90131472,Enchanted Forest / Elaine Gordon Park,1725 NE 135TH ST,North Miami,33181,22,NorthMiamiPark,Municipal,No,No,No,No,No,No,No,No,No,No,No,No,No,No,No,No,No,No,No,No,No,No,No,No,No,No,No,No,No,No,No,No,No,No,No,No,No,No,No,No,No,No,No,No
-80.12041266,25.8310547,Beach View Park,5299 COLLINS AVE,Miami Beach,33140,0,MiamiBeachPark,Municipal,No,No,No,No,No,Yes,No,No,No,No,No,No,No,No,No,No,No,No,No,No,No,No,No,No,No,No,No,No,No,Yes,No,Yes,No,No,No,No,No,No,No,No,No,Yes,No,No
-80.2520127,25.95430473,Betty T. Ferguson Recreational Complex,3000 NW 199TH ST,Miami Gardens,33056,0,MiamiGardensPark,Municipal,No,No,No,No,No,No,No,No,No,No,No,No,No,No,No,No,No,No,No,No,No,No,No,No,No,No,No,No,No,No,No,No,No,No,No,No,No,No,No,No,No,No,No,No
-80.17209268,25.92299473,Unnamed Park North Miami Beach,MIAMI DR / NE 160TH ST,North Miami  Beach,33162,0,NorthMiamiBeachPark,Municipal,No,No,No,No,No,No,No,No,No,No,No,No,No,No,No,No,No,No,No,No,No,No,No,No,No,No,No,No,No,No,No,No,No,No,No,No,No,No,No,No,No,No,No,No
-80.29309271,25.70838467,South Miami Senior Center,6701 SW 62ND AVE,South Miami,33143,0,SouthMiamiPark,Municipal,No,No,No,No,No,No,No,No,No,No,No,No,No,No,No,No,No,No,No,No,No,No,No,No,No,No,No,No,No,No,No,No,No,No,No,No,No,No,No,No,No,No,No,No
-80.31203272,25.91497472,ML Tax Dist.- (p-74) Meadow Walk,6800 MEADOW WALK,Miami Lakes,33014,2,MiamiLakesPark,Municipal,No,No,No,No,No,No,No,No,No,No,No,No,No,No,No,No,No,No,No,No,No,No,No,No,No,No,No,No,No,No,No,No,No,No,No,No,No,No,No,No,No,No,No,No
-80.33855273,25.90664472,ML Tax Dist.- (p-81),BRECKNESS PL / ARDOCH RD,Miami Lakes,33016,0,MiamiLakesPark,Municipal,No,No,No,No,No,No,No,No,No,No,No,No,No,No,No,No,No,No,No,No,No,No,No,No,No,No,No,No,No,No,No,No,No,No,No,No,No,No,No,No,No,No,No,No
-80.29115271,25.86226471,K.C. Park,W 4TH AVE /  W 44TH PL,Hialeah,33012,0.1,HialeahPark,Municipal,No,No,No,No,No,No,No,No,No,No,No,No,No,No,No,No,No,No,No,No,No,No,No,No,No,No,No,No,No,No,No,No,No,No,No,No,No,No,No,No,No,No,No,No
-80.23053269,25.78990469,Allapattah Mini Park,2175 NW N RIVER  DR,Miami,33125,0.2,MiamiPark,Municipal,No,No,No,No,No,No,No,No,No,No,No,No,No,No,No,No,No,No,No,No,No,No,No,No,No,No,No,No,No,No,No,No,No,No,No,No,No,No,No,No,No,No,No,No
-80.22145269,25.78402469,Grove Park (Median Strip),NW S RIVER DR / NW 16TH AVE,Miami,33125,0,MiamiPark,Municipal,No,No,No,No,No,No,No,No,No,No,No,No,No,No,No,No,No,No,No,No,No,No,No,No,No,No,No,No,No,No,No,No,No,No,No,No,No,No,No,No,No,No,No,No
-80.16362267,25.69392467,Village Green Park,450 CRANDON BLVD,Key Biscayne,33149,9,KeyBiscaynePark,Municipal,No,No,No,No,No,No,No,No,No,No,No,No,Yes,No,No,No,No,No,No,No,No,No,No,No,No,Yes,No,Yes,No,No,No,Yes,No,Yes,No,Yes,No,No,No,No,No,No,No,No
-80.17994268,25.8241247,Morningside Park,750 NE 55TH TER,Miami,33137,38,MiamiPark,Municipal,No,No,No,No,No,No,No,No,No,No,No,No,No,No,No,No,No,No,No,No,No,No,No,No,No,No,No,No,No,No,No,No,No,No,No,No,No,No,No,No,No,No,No,No
-80.31767272,25.89977471,ML Tax Dist..- (p-24),7235 BAMBOO ST,Miami Lakes,33014,0,MiamiLakesPark,Municipal,No,No,No,No,No,No,No,No,No,No,No,No,No,No,No,No,No,No,No,No,No,No,No,No,No,No,No,No,No,No,No,No,No,No,No,No,No,No,No,No,No,No,No,No
-80.31527272,25.90390472,ML Tax Dist..- (p-25),7030 MIAMI LAKEWAY S,Miami Lakes,33014,0,MiamiLakesPark,Municipal,No,No,No,No,No,No,No,No,No,No,No,No,No,No,No,No,No,No,No,No,No,No,No,No,No,No,No,No,No,No,No,No,No,No,No,No,No,No,No,No,No,No,No,No
-80.31074272,25.90018472,ML Tax Dist..- (p-27),6786 CROOKED PALM TER,Miami Lakes,33014,0,MiamiLakesPark,Municipal,No,No,No,No,No,No,No,No,No,No,No,No,No,No,No,No,No,No,No,No,No,No,No,No,No,No,No,No,No,No,No,No,No,No,No,No,No,No,No,No,No,No,No,No
-80.32028272,25.90120472,ML Tax Dist.- (p-28),7350 SABAL DR,Miami Lakes,33014,0,MiamiLakesPark,Municipal,No,No,No,No,No,No,No,No,No,No,No,No,No,No,No,No,No,No,No,No,No,No,No,No,No,No,No,No,No,No,No,No,No,No,No,No,No,No,No,No,No,No,No,No
-80.13508267,25.95016473,Arthur I. Snyder Memorial Park / C.R.C.,3375 NE 188TH ST,Aventura,33180,1,AventuraPark,Municipal,No,No,No,No,No,No,No,No,No,No,No,No,No,No,No,No,No,No,No,No,No,No,No,No,No,No,No,No,No,No,No,No,No,No,No,No,No,No,No,No,No,No,No,No
-80.19421268,25.93106473,Dolphin Park,NE 3RD AVE /  NE 170TH ST,North Miami  Beach,33162,0,NorthMiamiBeachPark,Municipal,No,No,No,No,No,No,No,No,No,No,No,No,No,No,No,No,No,No,No,No,No,No,No,No,No,No,No,No,No,No,No,No,No,No,No,No,No,No,No,No,No,No,No,No
-80.33967273,25.91221472,ML Tax Dist.- (p-68),MENTEITH TER / DUNBARTON PL,Miami Lakes,33016,1,MiamiLakesPark,Municipal,No,No,No,No,No,No,No,No,No,No,No,No,No,No,No,No,No,No,No,No,No,No,No,No,No,No,No,No,No,No,No,No,No,No,No,No,No,No,No,No,No,No,No,No
-80.31774272,25.90440472,ML Tax Dist.- (p-31),7255 POINCIANA CT,Miami Lakes,33014,0,MiamiLakesPark,Municipal,No,No,No,No,No,No,No,No,No,No,No,No,No,No,No,No,No,No,No,No,No,No,No,No,No,No,No,No,No,No,No,No,No,No,No,No,No,No,No,No,No,No,No,No
-80.30934272,25.87759471,Sparks Park,1301 W 60TH ST,Hialeah,33012,9,HialeahPark,Municipal,No,No,No,Yes,Yes,No,No,No,No,No,No,No,Yes,No,No,No,No,No,No,No,No,No,Yes,Yes,No,No,No,Yes,No,No,Yes,Yes,No,No,No,No,No,No,No,No,No,No,No,No
-80.30898271,25.77341468,Robert King High / Carlos Arboleya Camp Grnd,7025 W FLAGLER ST,Miami,33144,17,MiamiPark,Municipal,No,No,No,No,No,No,No,No,No,No,No,No,No,No,No,No,No,No,No,No,No,No,No,No,No,No,No,No,No,No,No,No,No,No,No,No,No,No,No,No,No,No,No,No
-80.33585272,25.58032463,Franjo Park,20175 FRANJO RD,Cutler Bay,33189,5,CutlerBayPark,Municipal,No,No,No,No,No,No,No,No,No,No,No,No,No,No,No,No,No,No,No,No,No,No,No,No,No,No,No,No,No,No,No,No,No,No,No,No,No,No,No,No,No,No,No,No
-80.33423272,25.59237464,Whispering Pine Park,SW 188TH ST / SW 88TH CT,Cutler Bay,33157,0,CutlerBayPark,Municipal,No,No,No,No,No,No,No,No,No,No,No,No,No,No,No,No,No,No,No,No,No,No,No,No,No,No,No,No,No,No,No,No,No,No,No,No,No,No,No,No,No,No,No,No
-80.32400271,25.58255464,Saga Lake Park,SW 198TH ST / SW 83RD AVE,Cutler Bay,33189,5,CutlerBayPark,Municipal,No,No,No,No,No,No,No,No,No,No,No,No,No,No,No,No,No,No,No,No,No,No,No,No,No,No,No,No,No,No,No,No,No,No,No,No,No,No,No,No,No,No,No,No
-80.32027271,25.57632463,Saga Bay Park,SW 205TH ST / SW 80TH AVE,Cutler Bay,33189,5,CutlerBayPark,Municipal,No,No,No,No,No,No,No,No,No,No,No,No,No,No,No,No,No,No,No,No,No,No,No,No,No,No,No,No,No,No,No,No,No,No,No,No,No,No,No,No,No,No,No,No
-80.35623272,25.58027463,Cutler Ridge Park,10100 SW 200TH ST,Cutler Bay,33189,13,CutlerBayPark,Municipal,No,No,No,No,No,No,No,No,No,No,No,No,No,No,No,No,No,No,No,No,No,No,No,No,No,No,No,No,No,No,No,No,No,No,No,No,No,No,No,No,No,No,No,No
-80.20315268,25.79128469,Unnamed Park (NW 4th Ave),1686 NW 4TH AVE,Miami,33136,1,MiamiPark,Municipal,No,No,No,No,No,No,No,No,No,No,No,No,No,No,No,No,No,No,No,No,No,No,No,No,No,No,No,No,No,No,No,No,No,No,No,No,No,No,No,No,No,No,No,No
-80.31057272,25.92176472,ML Tax Dist.- (p-52),6700 LOCH NESS DR,Miami Lakes,33014,1,MiamiLakesPark,Municipal,No,No,No,No,No,No,No,No,No,No,No,No,No,No,No,No,No,No,No,No,No,No,No,No,No,No,No,No,No,No,No,No,No,No,No,No,No,No,No,No,No,No,No,No
-80.33555273,25.91052472,ML Tax Dist.-lot 22,8351 DUNDEE TER,Miami Lakes,33016,0,MiamiLakesPark,Municipal,No,No,No,No,No,No,No,No,No,No,No,No,No,No,No,No,No,No,No,No,No,No,No,No,No,No,No,No,No,No,No,No,No,No,No,No,No,No,No,No,No,No,No,No
-80.33820273,25.90962472,ML Tax Dist..-lot 41,8511 DUNDEE TER,Miami Lakes,33016,0,MiamiLakesPark,Municipal,No,No,No,No,No,No,No,No,No,No,No,No,No,No,No,No,No,No,No,No,No,No,No,No,No,No,No,No,No,No,No,No,No,No,No,No,No,No,No,No,No,No,No,No
-80.33372273,25.91192472,ML Tax Dist.- (p-66),15132 MENTEITH PL,Miami Lakes,33016,0,MiamiLakesPark,Municipal,No,No,No,No,No,No,No,No,No,No,No,No,No,No,No,No,No,No,No,No,No,No,No,No,No,No,No,No,No,No,No,No,No,No,No,No,No,No,No,No,No,No,No,No
-80.34010273,25.91251472,ML Tax Dist..- (p-67),MENTEITH TER / DUNBARTON PL,Miami Lakes,33016,0,MiamiLakesPark,Municipal,No,No,No,No,No,No,No,No,No,No,No,No,No,No,No,No,No,No,No,No,No,No,No,No,No,No,No,No,No,No,No,No,No,No,No,No,No,No,No,No,No,No,No,No
-80.30633272,25.90267472,ML Tax Dist.- (p-06),14210 LAKE SARANAC DR,Miami Lakes,33014,0,MiamiLakesPark,Municipal,No,No,No,No,No,No,No,No,No,No,No,No,No,No,No,No,No,No,No,No,No,No,No,No,No,No,No,No,No,No,No,No,No,No,No,No,No,No,No,No,No,No,No,No
-80.30680272,25.90353472,ML Tax Dist.- (p-07),14320 LAKE SARANAC AVE,Miami Lakes,33014,1,MiamiLakesPark,Municipal,No,No,No,No,No,No,No,No,No,No,No,No,No,No,No,No,No,No,No,No,No,No,No,No,No,No,No,No,No,No,No,No,No,No,No,No,No,No,No,No,No,No,No,No
-80.33666273,25.90856472,ML Tax Dist.- (p-76),REDNOCK LN / BRECKNESS PL,Miami Lakes,33016,0,MiamiLakesPark,Municipal,No,No,No,No,No,No,No,No,No,No,No,No,No,No,No,No,No,No,No,No,No,No,No,No,No,No,No,No,No,No,No,No,No,No,No,No,No,No,No,No,No,No,No,No
-80.33689273,25.90529472,ML Tax Dist.- (p-77),8441 ARDOCH RD,Miami Lakes,33016,0,MiamiLakesPark,Municipal,No,No,No,No,No,No,No,No,No,No,No,No,No,No,No,No,No,No,No,No,No,No,No,No,No,No,No,No,No,No,No,No,No,No,No,No,No,No,No,No,No,No,No,No
-80.15861268,25.93098473,Fulford Park,2099 NE 168TH ST,North Miami Beach,33162,0.9,NorthMiamiBeachPark,Municipal,No,No,No,No,Yes,No,No,No,No,No,No,No,Yes,No,No,No,No,No,No,No,No,No,No,No,No,No,No,Yes,No,No,No,No,No,No,No,No,No,No,No,No,No,No,No,No
-80.29681271,25.89112471,North Twin lakes Park / School,625 W 74TH PL,Hialeah,33014,4,HialeahPark,Municipal,No,No,No,No,No,No,No,No,No,No,No,No,No,No,No,No,No,No,No,No,No,No,No,No,No,No,No,No,No,No,No,No,No,No,No,No,No,No,No,No,No,No,No,No
-80.33531273,25.90850472,ML Tax Dist.- (p-79),REDNOCK LN / BALGOWAN RD,Miami Lakes,33016,0,MiamiLakesPark,Municipal,No,No,No,No,No,No,No,No,No,No,No,No,No,No,No,No,No,No,No,No,No,No,No,No,No,No,No,No,No,No,No,No,No,No,No,No,No,No,No,No,No,No,No,No
-80.30787272,25.90438472,ML Tax Dist.- (p-13),14410 HARRIS PL,Miami Lakes,33014,0,MiamiLakesPark,Municipal,No,No,No,No,No,No,No,No,No,No,No,No,No,No,No,No,No,No,No,No,No,No,No,No,No,No,No,No,No,No,No,No,No,No,No,No,No,No,No,No,No,No,No,No
-80.13100266,25.8027647,Bayshore Municipal Golf Course Par 3,2795 PRAIRIE AVE,Miami Beach,33140,22,MiamiBeachPark,Municipal,No,No,No,No,No,No,No,No,No,No,No,No,No,No,No,No,No,No,No,No,No,No,No,No,No,No,No,No,No,No,No,No,No,No,No,No,No,No,No,No,No,No,No,No
-80.13584266,25.8038647,Miami Beach Golf Club,2301 ALTON RD,Miami Beach,33140,144,MiamiBeachPark,Municipal,No,No,No,No,No,No,No,No,No,No,No,No,No,No,Yes,Yes,No,No,No,No,No,No,No,No,No,No,No,No,No,No,Yes,No,No,No,No,No,No,No,No,No,No,No,No,No
-80.27907271,25.73922468,Biltmore Golf Course,1210 ANASTASIA AVE,Coral Gables,33134,91,CoralGablesPark,Municipal,No,No,No,No,No,No,No,No,No,No,No,No,No,No,No,No,No,No,No,No,No,No,No,No,No,No,No,No,No,No,No,No,No,No,No,No,No,No,No,No,No,No,No,No
-80.12368266,25.85771471,North Shore Park / Tennis Center,501 72ND ST,Miami Beach,33141,8,MiamiBeachPark,Municipal,No,Yes,No,Yes,Yes,No,No,No,No,No,No,No,No,No,No,No,No,Yes,No,No,No,No,No,Yes,No,No,No,No,No,No,Yes,Yes,No,No,No,No,No,No,No,No,No,No,No,No
-80.20466268,25.74842468,Wainwright Park,2845 BRICKELL AVE,Miami,33129,18,MiamiPark,Municipal,No,No,No,No,No,No,No,No,No,No,No,No,No,No,No,No,No,No,No,No,No,No,No,No,No,No,No,No,No,No,No,No,No,No,No,No,No,No,No,No,No,No,No,No
-80.24406269,25.72943467,Kirk Munroe Park,3101 FLORIDA AVE,Miami,33133,2,MiamiPark,Municipal,No,No,No,No,No,No,No,No,No,No,No,No,No,No,No,No,No,No,No,No,No,No,No,No,No,No,No,No,No,No,No,No,No,No,No,No,No,No,No,No,No,No,No,No
-80.2680827,25.87977471,Hialeah Middle School Sports Complex,6027 E 7TH AVE,Hialeah,33013,18,HialeahPark,Municipal,No,No,No,No,No,No,No,No,No,No,No,No,No,No,No,No,No,No,No,No,No,No,No,No,No,No,No,No,No,No,No,No,No,No,No,No,No,No,No,No,No,No,No,No
-80.29404271,25.76787468,West End Park,250 SW 60TH AVE,Miami,33144,6,MiamiPark,Municipal,No,No,No,No,No,No,No,No,No,No,No,No,No,No,No,No,No,No,No,No,No,No,No,No,No,No,No,No,No,No,No,No,No,No,No,No,No,No,No,No,No,No,No,No
-80.2675427,25.8539247,James H. Bright Park,750 E 35TH ST,Hialeah,33013,4,HialeahPark,Municipal,No,No,No,Yes,Yes,No,No,No,No,No,No,No,Yes,No,No,No,No,No,No,No,No,No,No,Yes,No,No,No,Yes,No,Yes,Yes,Yes,No,No,No,No,No,No,No,No,No,No,No,No
-80.2601527,25.79031469,Melreese Golf Course,1802 NW 37TH AVE,Miami,33125,133,MiamiPark,Municipal,No,No,No,No,No,No,No,No,No,No,No,No,No,No,No,No,No,No,No,No,No,No,No,No,No,No,No,No,No,No,No,No,No,No,No,No,No,No,No,No,No,No,No,No
-80.13333266,25.76587468,South Pointe Park,1 WASHINGTON AVE,Miami Beach,33139,16,MiamiBeachPark,Municipal,No,No,No,No,No,Yes,No,No,No,No,Yes,No,No,No,No,No,No,No,No,No,No,Yes,No,Yes,No,Yes,No,No,No,Yes,No,Yes,No,Yes,No,Yes,No,No,No,No,No,No,No,No
-80.15727267,25.90109472,Highland Village Community Center,13621 NE 21ST AVE,North Miami Beach,33181,1,NorthMiamiBeachPark,Municipal,No,No,No,No,Yes,No,No,No,No,No,No,No,Yes,No,No,No,No,No,No,No,No,No,No,Yes,No,Yes,No,No,No,No,No,Yes,No,No,Yes,No,No,No,No,No,No,No,No,No
-80.16041267,25.89681472,Keystone Park,13050  IXORA CT,North Miami,33181,1,NorthMiamiPark,Municipal,No,No,No,No,No,No,No,No,No,No,No,No,No,No,No,No,No,No,No,No,No,No,No,No,No,No,No,No,No,No,No,No,No,No,No,No,No,No,No,No,No,No,No,No
-80.32739272,25.65428465,Evelyn Greer Park (Pinecrest Park),8200 SW 124TH ST,Pinecrest,33156,10,PinecrestPark,Municipal,No,No,No,No,No,No,No,No,No,No,No,No,No,No,No,No,No,No,No,No,No,No,No,No,No,No,No,No,No,No,No,No,No,No,No,No,No,No,No,No,No,No,No,No
-80.33335273,25.91101472,ML Tax Dist.- (p-69),8210 DUNDEE TER,Miami Lakes,33016,0,MiamiLakesPark,Municipal,No,No,No,No,No,No,No,No,No,No,No,No,No,No,No,No,No,No,No,No,No,No,No,No,No,No,No,No,No,No,No,No,No,No,No,No,No,No,No,No,No,No,No,No
-80.33974273,25.90921472,ML Tax Dist.- (p-75),14961 DUNBARTON PL,Miami Lakes,33016,0,MiamiLakesPark,Municipal,No,No,No,No,No,No,No,No,No,No,No,No,No,No,No,No,No,No,No,No,No,No,No,No,No,No,No,No,No,No,No,No,No,No,No,No,No,No,No,No,No,No,No,No
-80.33715273,25.90876472,ML Tax Dist..- (p-80),14962 REDNOCK LN,Miami Lakes,33016,1,MiamiLakesPark,Municipal,No,No,No,No,No,No,No,No,No,No,No,No,No,No,No,No,No,No,No,No,No,No,No,No,No,No,No,No,No,No,No,No,No,No,No,No,No,No,No,No,No,No,No,No
-80.33932273,25.90677472,ML Tax Dist.- (p-82),14708 BRECKNESS PL,Miami Lakes,33016,1,MiamiLakesPark,Municipal,No,No,No,No,No,No,No,No,No,No,No,No,No,No,No,No,No,No,No,No,No,No,No,No,No,No,No,No,No,No,No,No,No,No,No,No,No,No,No,No,No,No,No,No
-80.19015268,25.88771472,Griffing Park / Senior Citizen Center,12220 GRIFFING BLVD,North Miami,33161,2,NorthMiamiPark,Municipal,No,No,No,No,No,No,No,No,No,No,No,No,No,No,No,No,No,No,No,No,No,No,No,No,No,No,No,No,No,No,No,No,No,No,No,No,No,No,No,No,No,No,No,No
-80.18169268,25.8364747,Legion Memorial Park,6447 NE 7TH AVE,Miami,33138,13,MiamiPark,Municipal,No,No,No,No,Yes,No,No,No,No,No,No,No,No,No,No,No,No,No,No,No,No,No,No,No,No,Yes,No,No,No,No,Yes,No,No,No,No,No,No,No,No,No,No,No,No,No
-80.30865272,25.90071472,ML Tax Dist..- (p-26),13948 NW 67TH AVE,Miami Lakes,33014,1,MiamiLakesPark,Municipal,No,No,No,No,No,No,No,No,No,No,No,No,No,No,No,No,No,No,No,No,No,No,No,No,No,No,No,No,No,No,No,No,No,No,No,No,No,No,No,No,No,No,No,No
-80.33356273,25.90913472,ML Tax Dist.- (p-70),BALGOWAN RD /  MONTROSE RD,Miami Lakes,33016,0,MiamiLakesPark,Municipal,No,No,No,No,No,No,No,No,No,No,No,No,No,No,No,No,No,No,No,No,No,No,No,No,No,No,No,No,No,No,No,No,No,No,No,No,No,No,No,No,No,No,No,No
-80.22926269,25.75545468,Shenandoah Park,1800 SW 21ST AVE,Miami,33145,9,MiamiPark,Municipal,No,No,No,No,No,No,No,No,No,No,No,No,No,No,No,No,No,No,No,No,No,No,No,No,No,No,No,No,No,No,No,No,No,No,No,No,No,No,No,No,No,No,No,No
-80.28198271,25.8269247,Villa Aida Adult Community Center,20 W 6TH ST,Hialeah,33010,1,HialeahPark,Municipal,No,No,No,No,No,No,No,No,No,No,No,No,No,No,No,No,No,No,No,No,No,No,No,Yes,No,No,No,No,No,No,No,No,No,No,No,No,No,No,No,No,No,No,No,No
-80.2650127,25.74122468,Coral Gables Youth Center (War Memorial),405 UNIVERSITY DR,Coral Gables,33134,9,CoralGablesPark,Municipal,No,No,No,No,No,No,No,No,No,No,No,No,No,No,No,No,No,No,No,No,No,No,No,No,No,No,No,No,No,No,No,No,No,No,No,No,No,No,No,No,No,No,No,No
-80.22480269,25.88499471,Kiwanis Park,12100 NW 16TH AVE,North Miami,33167,2,NorthMiamiPark,Municipal,No,No,No,No,No,No,No,No,No,No,No,No,No,No,No,No,No,No,No,No,No,No,No,No,No,No,No,No,No,No,No,No,No,No,No,No,No,No,No,No,No,No,No,No
-80.29636271,25.8417447,Rudolph Reid Park,2245 W 7TH CT,Hialeah,33010,1,HialeahPark,Municipal,No,No,No,No,No,No,No,No,No,No,No,No,No,No,No,No,No,No,No,No,No,No,No,No,No,No,No,No,No,Yes,No,Yes,No,No,No,No,No,No,No,No,No,No,No,No
-80.48377276,25.4593846,Washington Park,NW 12TH ST /  NW 5TH AVE,Florida City,33034,1,FloridaCityPark,Municipal,No,No,No,No,No,No,No,No,No,No,No,No,No,No,No,No,No,No,No,No,No,No,No,No,No,No,No,No,No,No,No,No,No,No,No,No,No,No,No,No,No,No,No,No
-80.12196266,25.87285471,Veterans Park / Tennis Center,8750 COLLINS AVE,Surfside,33154,1,SurfsidePark,Municipal,No,No,No,No,No,No,No,No,No,No,No,No,No,No,No,No,No,No,No,No,No,No,No,No,No,No,No,No,No,No,No,No,No,No,No,No,No,No,No,No,No,No,No,No
-80.19581268,25.75886468,Simpson Park,55 SW 17TH RD,Miami,33129,8,MiamiPark,Municipal,No,No,No,No,No,No,No,No,No,No,No,No,No,No,No,No,No,No,No,No,No,No,No,No,No,No,No,No,No,No,No,No,No,No,No,No,No,No,No,No,No,No,No,No
-80.18046268,25.8461547,Belle Meade Mini Park,NE 8TH AVE / NE 77TH ST,Miami,33138,0,MiamiPark,Municipal,No,No,No,No,No,No,No,No,No,No,No,No,No,No,No,No,No,No,No,No,No,No,No,No,No,Yes,No,No,No,No,No,Yes,No,No,No,No,No,No,No,No,No,No,No,No
-80.18700268,25.78475469,Bicentennial Park,1075 BISCAYNE BLVD,Miami,33132,34,MiamiPark,Municipal,No,No,No,No,No,No,No,No,No,No,No,No,No,No,No,No,No,No,No,No,No,No,No,No,No,No,No,No,No,No,No,No,No,No,No,No,No,No,No,No,No,No,No,No
-80.31707272,25.89134471,Palm Lakes Park,7460 W 16TH AVE,Hialeah,33014,2,HialeahPark,Municipal,No,No,No,No,Yes,No,No,No,No,No,No,No,Yes,No,No,No,No,No,No,No,No,No,No,Yes,No,No,No,Yes,No,No,No,No,No,No,No,No,No,No,No,No,No,No,No,No
-80.47765276,25.4706446,Losner Park,KROME AVE / NW 1ST ST,Homestead,33030,1,HomesteadPark,Municipal,No,No,No,No,No,No,No,No,No,No,No,No,No,No,No,No,No,Yes,Yes,No,No,No,No,No,No,No,No,No,No,No,No,No,No,No,No,No,No,No,No,No,No,No,No,No
-80.44978275,25.4744846,Dunwoodie Park,NE  4TH CT / NE 20TH AVE,Homestead,33033,0,HomesteadPark,Municipal,No,No,No,No,No,No,No,No,No,No,No,No,No,No,No,No,No,No,No,No,No,No,No,No,No,No,No,No,No,No,No,No,No,No,No,No,No,No,No,No,No,No,No,No
-80.16995268,25.93149473,Snake Creek Linear Park,S GLADES DR / NE 15TH AVE,North Miami  Beach,33162,6,NorthMiamiBeachPark,Municipal,No,No,No,No,No,No,No,No,No,No,No,No,No,No,No,No,No,No,No,No,No,No,No,No,No,No,No,No,No,No,No,No,No,No,No,No,No,No,No,No,No,No,No,No
-80.19654268,25.8206447,Pullman Mini Park,30 NW 49TH ST,Miami,33127,0,MiamiPark,Municipal,No,No,No,No,No,No,No,No,No,No,No,No,No,No,No,No,No,No,No,No,No,No,No,No,No,No,No,No,No,No,No,No,No,No,No,No,No,No,No,No,No,No,No,No
-80.20991269,25.77207469,Ernesto Lecuona Park,900 SW 1ST ST,Miami,33130,2,MiamiPark,Municipal,No,No,No,No,No,No,No,No,No,No,No,No,No,No,No,No,No,No,No,No,No,No,No,No,No,No,No,No,No,No,No,No,No,No,No,No,No,No,No,No,No,No,No,No
-80.47435275,25.47940461,Angelo Mistretta Park,155 NE 9TH CT,Homestead,33030,1,HomesteadPark,Municipal,No,No,No,No,No,No,No,No,No,No,No,No,No,No,No,No,No,No,No,No,No,No,No,No,No,No,No,No,No,No,No,No,No,No,No,No,No,No,No,No,No,No,No,No
-80.48994276,25.4675246,Robey George Park,201 SW 11TH AVE,Homestead,33030,7,HomesteadPark,Municipal,No,No,No,No,No,No,No,No,No,No,No,No,No,No,No,No,No,No,No,No,No,No,No,No,No,No,No,No,No,No,No,No,No,No,No,No,No,No,No,No,No,No,No,No
-80.48462276,25.4785246,Wittkop Park,505 NW 9TH ST,Homestead,33030,4,HomesteadPark,Municipal,No,No,No,No,No,No,No,No,No,No,No,No,No,No,No,No,No,No,No,No,No,No,No,No,No,No,No,No,No,No,No,No,No,No,No,No,No,No,No,No,No,No,No,No
-80.30689272,25.90875472,ML Tax Dist.- (p-45),15096 SW 154TH ST,Miami Lakes,33014,0,MiamiLakesPark,Municipal,No,No,No,No,No,No,No,No,No,No,No,No,No,No,No,No,No,No,No,No,No,No,No,No,No,No,No,No,No,No,No,No,No,No,No,No,No,No,No,No,No,No,No,No
-80.22172269,25.78931469,Allapattah Mini Residential,1500 NW 16TH AVE,Miami,33125,0,MiamiPark,Municipal,No,No,No,No,No,No,No,No,No,No,No,No,No,No,No,No,No,No,No,No,No,No,No,No,No,No,No,No,No,No,No,No,No,No,No,No,No,No,No,No,No,No,No,No
-80.12004266,25.85787471,North Shore Beach Community Center,7251 COLLINS AVE,Miami Beach,33141,4,MiamiBeachPark,Municipal,No,No,No,No,No,No,No,No,No,No,No,No,No,No,No,No,No,No,No,No,No,No,No,No,No,No,No,No,No,No,No,No,No,No,No,No,No,No,No,No,No,No,No,No
-80.11961266,25.84754471,Allison Park,6475 COLLINS AVE,Miami Beach,33141,0,MiamiBeachPark,Municipal,No,No,No,No,No,Yes,No,No,No,No,No,No,No,No,No,No,No,No,No,No,No,No,No,No,No,No,No,No,No,No,No,No,No,Yes,No,No,No,No,No,No,No,No,No,No
-80.19106268,25.8344447,Little Haiti Park,6301 NE 2 AVE,Miami,33138,7,MiamiPark,Municipal,No,No,No,No,No,No,No,No,No,No,No,No,No,No,No,No,No,No,No,No,Yes,No,No,No,No,Yes,No,Yes,No,No,No,Yes,No,No,No,Yes,No,No,No,No,No,No,No,No
-80.28617271,25.74888468,Ferdinand Park,SW 24TH ST / SW 57TH AVE,Coral Gables,33134,1,CoralGablesPark,Municipal,No,No,No,No,No,No,No,No,No,No,No,No,No,No,No,No,No,No,No,No,No,No,No,No,No,No,No,No,No,No,No,No,No,No,No,No,No,No,No,No,No,No,No,No
-80.2603427,25.70560467,Cartagena Park,SW 42ND AVE / COCOPLUM PLZ,Coral Gables,33143,0,CoralGablesPark,Municipal,No,No,No,No,No,No,No,No,No,No,No,No,No,No,No,No,No,No,No,No,No,No,No,No,No,No,No,No,No,No,No,No,No,No,No,No,No,No,No,No,No,No,No,No
-80.20391268,25.78305469,Henry Reeves Park,600 NW 10TH ST,Miami,33136,2,MiamiPark,Municipal,No,No,No,No,No,No,No,No,No,No,No,No,No,No,No,No,No,No,No,No,No,No,No,No,No,No,No,No,No,No,No,No,No,No,No,No,No,No,No,No,No,No,No,No
-80.20666268,25.77035469,Riverside Park,342 SW 7TH AVE,Miami,33130,3,MiamiPark,Municipal,No,No,No,No,No,No,No,No,No,No,No,No,No,No,No,No,No,No,No,No,No,No,No,No,No,No,No,No,No,No,No,No,No,No,No,No,No,No,No,No,No,No,No,No
-80.12067266,25.93756473,Gilbert Samson Oceanfront Park,17425 COLLINS AVE,Sunny Isles Beach,33160,2.1,SunnyIslesBeachPark,Municipal,No,No,No,No,No,Yes,No,No,No,No,No,No,No,No,No,No,No,No,No,No,No,No,No,No,No,Yes,No,No,No,No,No,Yes,No,No,Yes,No,Yes,No,No,No,No,No,No,No
-80.2728327,25.72273467,Unnamed Park (Granada Blvd),GRANADA BLVD / CERILLO ST,Coral Gables,33146,0,CoralGablesPark,Municipal,No,No,No,No,No,No,No,No,No,No,No,No,No,No,No,No,No,No,No,No,No,No,No,No,No,No,No,No,No,No,No,No,No,No,No,No,No,No,No,No,No,No,No,No
-80.2597927,25.68608466,Unnamed Park (Solano Prado),SOLANO PRADO / SOLANO PRADO,Coral Gables,33156,1,CoralGablesPark,Municipal,No,No,No,No,No,No,No,No,No,No,No,No,No,No,No,No,No,No,No,No,No,No,No,No,No,No,No,No,No,No,No,No,No,No,No,No,No,No,No,No,No,No,No,No
-80.2596327,25.72601467,Nellie B Moore Park,202 JEFFERSON DR,Coral Gables,33133,0,CoralGablesPark,Municipal,No,No,No,No,No,No,No,No,No,No,No,No,No,No,No,No,No,No,No,No,No,No,No,No,No,No,No,No,No,No,No,No,No,No,No,No,No,No,No,No,No,No,No,No
-80.2531927,25.70809467,Sunrise Park,25 W SUNRISE AVE,Coral Gables,33133,1,CoralGablesPark,Municipal,No,No,No,No,No,No,No,No,No,No,No,No,No,No,No,No,No,No,No,No,No,No,No,No,No,No,No,No,No,No,No,No,No,No,No,No,No,No,No,No,No,No,No,No
-80.2746727,25.75005468,Young Park,CASTILE AVE / GRANADA BLVD,Coral Gables,33134,0,CoralGablesPark,Municipal,No,No,No,No,No,No,No,No,No,No,No,No,No,No,No,No,No,No,No,No,No,No,No,No,No,No,No,No,No,No,No,No,No,No,No,No,No,No,No,No,No,No,No,No
-80.27201271,25.81246469,Charles B Stafford Park,501 EAST DR,Miami Springs,33166,12,MiamiSpringsPark,Municipal,No,No,No,Yes,No,No,No,No,No,No,No,No,No,No,No,No,No,No,No,No,No,No,No,No,No,Yes,No,Yes,No,No,No,Yes,No,No,No,No,No,No,No,No,No,Yes,No,No
-80.27793271,25.8174847,Deleon Park,DE LEON DR / MORNINGSIDE DR,Miami Springs,33166,0,MiamiSpringsPark,Municipal,No,No,No,No,No,No,No,No,No,No,No,No,No,No,No,No,No,No,No,No,No,No,No,No,No,No,No,No,No,No,No,No,No,No,No,No,No,No,No,No,No,No,No,No
-80.29211271,25.8293847,Dove Avenue Park,DOVE AVE / SHADOW WAY,Miami Springs,33166,6,MiamiSpringsPark,Municipal,No,No,No,Yes,No,No,No,No,No,No,Yes,No,No,No,No,No,No,No,No,No,No,No,No,No,No,No,No,No,No,No,No,Yes,No,No,No,No,No,No,No,No,No,No,No,No
-80.13930267,25.96011473,Don Soffer Exercise Trail,19999 W COUNTRY CLUB DR,Aventura,33180,0,AventuraPark,Municipal,No,No,No,No,No,No,No,No,No,No,No,No,No,No,No,No,No,No,No,No,No,No,No,No,No,No,No,No,No,No,No,No,No,Yes,No,No,No,No,No,No,No,No,No,No
-80.13800267,25.95220473,Founders Park SplashPad,3105 NE 190TH ST,Aventura,33180,1.6,AventuraPark,Municipal,No,No,No,No,No,No,No,No,No,No,No,No,No,No,No,No,No,No,No,No,No,No,No,No,No,No,No,No,No,Yes,No,No,No,No,No,Yes,No,No,No,No,No,No,No,No
-80.13339267,25.97389474,Waterways Dog Park,3401 NE 213TH ST,Aventura,33180,1.4,AventuraPark,Municipal,No,No,No,No,No,No,No,No,No,No,No,No,No,No,No,No,No,No,No,No,No,No,No,No,No,No,No,No,No,No,No,No,No,No,No,No,No,No,No,No,No,No,No,No
-80.16652267,25.68983466,Key Biscayne K-8 Center Field,150 W MCINTYRE ST,Key Biscayne,33149,1.78,KeyBiscaynePark,Municipal,No,No,No,Yes,Yes,No,No,No,No,No,No,No,No,No,No,No,No,No,No,No,No,No,No,No,No,No,No,No,No,No,No,No,No,No,No,No,No,No,No,No,No,No,No,No
-80.2599827,25.71143467,Merrie Christmas Park,SW 42ND AVE / BARBAROSSA AVE,Miami,33133,5,MiamiPark,Municipal,No,No,No,No,No,No,No,No,No,No,No,No,No,No,No,No,No,No,No,No,No,No,No,No,No,No,No,No,No,No,No,No,No,No,No,No,No,No,No,No,No,No,No,No
-80.23595269,25.72805467,Dinner Key Auditorium & Marina,3400 PAN AMERICAN DR,Miami,33133,22,MiamiPark,Municipal,No,No,No,No,No,No,No,No,No,No,No,No,No,No,No,No,No,No,No,No,No,No,No,No,No,No,No,No,No,No,No,No,No,No,No,No,No,No,No,No,No,No,No,No
-80.21945269,25.74071468,Elizabeth Steele Park,S BAYSHORE DR / HIAWATHA AVE,Miami,33133,0,MiamiPark,Municipal,No,No,No,No,No,No,No,No,No,No,No,No,No,No,No,No,No,No,No,No,No,No,No,No,No,No,No,No,No,No,No,No,No,No,No,No,No,No,No,No,No,No,No,No
-80.18566268,25.8110547,Martell Park,NE 36TH ST / NE 7TH AVE,Miami,33137,1,MiamiPark,Municipal,No,No,No,No,No,No,No,No,No,No,No,No,No,No,No,No,No,No,No,No,No,No,No,No,No,No,No,No,No,No,No,No,No,No,No,No,No,No,No,No,No,No,No,No
-80.18584268,25.79398469,Margaret Pace Park,1745 N BAYSHORE DR,Miami,33132,11,MiamiPark,Municipal,No,No,No,No,No,No,No,No,No,No,No,No,No,No,No,No,No,No,No,No,No,No,No,No,No,No,No,No,No,No,No,No,No,No,No,No,No,No,No,No,No,No,No,No
-80.21965269,25.77803469,Formerly Orange Bowl Stadium,NW 4TH ST / NW 16TH AVE,Miami,33125,31,MiamiPark,Municipal,No,No,No,No,No,No,No,No,No,No,No,No,No,No,No,No,No,No,No,No,No,No,No,No,No,No,No,No,No,No,No,No,No,No,No,No,No,No,No,No,No,No,No,No
-80.15089267,25.74217468,Virginia Key Park,3701 RICKENBACKER CSWY,Miami,33149,644,MiamiPark,Municipal,No,No,No,No,No,No,No,No,No,No,No,No,No,No,No,No,No,No,No,No,No,No,No,No,No,No,No,No,No,No,No,No,No,No,No,No,No,No,No,No,No,No,No,No
-80.38178273,25.76598468,Ronselli Park,250 SW 114TH AVE,Sweetwater,33174,4,SweetwaterPark,Municipal,No,No,No,No,No,No,No,No,No,No,No,No,No,No,No,No,No,No,No,No,No,No,No,No,No,No,No,No,No,No,No,No,No,No,No,No,No,No,No,No,No,No,No,No
-80.16034267,25.91874472,Aqua Bowl Park,15450 W DIXIE HWY,North Miami  Beach,33162,6,NorthMiamiBeachPark,Municipal,No,No,No,No,No,No,No,No,No,No,No,No,No,No,No,No,No,No,No,No,No,No,No,No,No,No,No,No,No,No,No,No,No,No,No,No,No,No,No,No,No,No,No,No
-80.15964267,25.92451473,Barry Silverman Park,2017 NE 161ST ST,North Miami Beach,33162,2.3,NorthMiamiBeachPark,Municipal,No,No,No,No,No,No,No,No,No,No,No,No,No,No,No,No,No,No,No,No,No,No,No,No,No,Yes,No,No,No,No,No,Yes,No,Yes,Yes,No,No,No,No,No,No,No,No,No
-80.28495271,25.75269468,Alhambra Park,ALHAMBRA CIR / GREENWAY CT,Coral Gables,33134,0,CoralGablesPark,Municipal,No,No,No,No,No,No,No,No,No,No,No,No,No,No,No,No,No,No,No,No,No,No,No,No,No,No,No,No,No,No,No,No,No,No,No,No,No,No,No,No,No,No,No,No
-80.2693127,25.75212468,Alcazar plaza,CASILLA ST / ALCAZAR AVE,Coral Gables,33134,0,CoralGablesPark,Municipal,No,No,No,No,No,No,No,No,No,No,No,No,No,No,No,No,No,No,No,No,No,No,No,No,No,No,No,No,No,No,No,No,No,No,No,No,No,No,No,No,No,No,No,No
-80.19126268,25.85412471,Sherwood Forest Indian Mound,NE 86TH ST / NE 3RD AVE,El Portal,33138,0,ElPortalPark,Municipal,No,No,No,No,No,No,No,No,No,No,No,No,No,No,No,No,No,No,No,No,No,No,No,No,No,No,No,No,No,No,No,No,No,No,No,No,No,No,No,No,No,No,No,No
-80.2638927,25.81162469,Three Friends Park,SE PARK DR / SE 8TH CT,Hialeah,33010,0,HialeahPark,Municipal,No,No,No,No,No,No,No,No,No,No,No,No,No,No,No,No,No,No,No,No,No,No,No,No,No,No,No,No,No,No,No,No,No,No,No,No,No,No,No,No,No,No,No,No
-80.28085271,25.72830467,Unnamed Park (Mendavia Ave),MENDAVIA AVE / SAN AMARO DR,Coral Gables,33146,1,CoralGablesPark,Municipal,No,No,No,No,No,No,No,No,No,No,No,No,No,No,No,No,No,No,No,No,No,No,No,No,No,No,No,No,No,No,No,No,No,No,No,No,No,No,No,No,No,No,No,No
-80.27964271,25.72495467,Carlos Kakouris Park,CAMPO SANO AVE / CAMPO SANO CT,Coral Gables,33146,0,CoralGablesPark,Municipal,No,No,No,No,No,No,No,No,No,No,No,No,No,No,No,No,No,No,No,No,No,No,No,No,No,No,No,No,No,No,No,No,No,No,No,No,No,No,No,No,No,No,No,No
-80.49230276,25.4419046,Fasulo Park,525 SW 10TH AVE,Florida City,33034,13,FloridaCityPark,Municipal,No,No,No,No,No,No,No,No,No,No,No,No,No,No,No,No,No,No,No,No,No,No,No,No,No,No,No,No,No,No,No,No,No,No,No,No,No,No,No,No,No,No,No,No
-80.16764268,25.92840473,Senator Gwen Margolis Amphiteatre,16501 NE 16TH AVE,North Miami  Beach,33162,3,NorthMiamiBeachPark,Municipal,Yes,No,No,No,No,No,No,No,No,No,No,No,No,No,No,No,No,No,No,No,No,No,No,No,No,No,No,No,No,No,No,No,No,No,No,No,No,No,No,No,No,No,No,No
-80.23284269,25.77349469,Glen Royal Park,NW 23RD AVE / NW FLAGLER TER,Miami,33125,0,MiamiPark,Municipal,No,No,No,No,No,No,No,No,No,No,No,No,No,No,No,No,No,No,No,No,No,No,No,No,No,No,No,No,No,No,No,No,No,No,No,No,No,No,No,No,No,No,No,No
-80.19269268,25.76471468,Brickell Plaza Mini Park,SE 1ST AVE / SE 10TH ST,Miami,33131,0,MiamiPark,Municipal,No,No,No,No,No,No,No,No,No,No,No,No,No,No,No,No,No,No,No,No,No,No,No,No,No,No,No,No,No,No,No,No,No,No,No,No,No,No,No,No,No,No,No,No
-80.34523272,25.61845464,Perrine Wayside Dog Park,16425 S DIXIE HWY,Palmetto Bay,33157,3,PalmettoBayPark,Municipal,No,No,No,No,No,No,No,No,No,No,Yes,No,No,No,No,No,No,No,No,No,No,Yes,No,No,No,Yes,No,No,No,No,No,No,No,Yes,No,No,Yes,No,No,No,No,No,No,No
-80.30451272,25.92195472,ML Tax Dist.- (p-58),6349 JACK RABBIT LN,Miami Lakes,33014,0,MiamiLakesPark,Municipal,No,No,No,No,No,No,No,No,No,No,No,No,No,No,No,No,No,No,No,No,No,No,No,No,No,No,No,No,No,No,No,No,No,No,No,No,No,No,No,No,No,No,No,No
-80.30302272,25.91419472,ML Tax Dist..- (p-61),15430 DURNFORD DR,Miami Lakes,33014,1,MiamiLakesPark,Municipal,No,No,No,No,No,No,No,No,No,No,No,No,No,No,No,No,No,No,No,No,No,No,No,No,No,No,No,No,No,No,No,No,No,No,No,No,No,No,No,No,No,No,No,No
-80.31848272,25.91927472,ML Tax Dist.- (p-01),16110 W TROON CIR,Miami Lakes,33014,0,MiamiLakesPark,Municipal,No,No,No,No,No,No,No,No,No,No,No,No,No,No,No,No,No,No,No,No,No,No,No,No,No,No,No,No,No,No,No,No,No,No,No,No,No,No,No,No,No,No,No,No
-80.31335272,25.92078472,ML Tax Dist..- (p-03) loch lomond,6900 GLENEAGLE DR,Miami Lakes,33014,0,MiamiLakesPark,Municipal,No,No,No,No,No,No,No,No,No,No,No,No,No,No,No,No,No,No,No,No,No,No,No,No,No,No,No,No,No,No,No,No,No,No,No,No,No,No,No,No,No,No,No,No
-80.31503272,25.91326472,ML Tax Dist.- (p-40),7014 CROWN GATE PL,Miami Lakes,33014,0,MiamiLakesPark,Municipal,No,No,No,No,No,No,No,No,No,No,No,No,No,No,No,No,No,No,No,No,No,No,No,No,No,No,No,No,No,No,No,No,No,No,No,No,No,No,No,No,No,No,No,No
-80.31308272,25.91555472,ML Tax Dist.- (p-41),15520 TURNBERRY DR,Miami Lakes,33014,0,MiamiLakesPark,Municipal,No,No,No,No,No,No,No,No,No,No,No,No,No,No,No,No,No,No,No,No,No,No,No,No,No,No,No,No,No,No,No,No,No,No,No,No,No,No,No,No,No,No,No,No
-80.31266272,25.91582472,ML Tax Dist.- (p-48),6850 FERN DR,Miami Lakes,33014,0,MiamiLakesPark,Municipal,No,No,No,No,No,No,No,No,No,No,No,No,No,No,No,No,No,No,No,No,No,No,No,No,No,No,No,No,No,No,No,No,No,No,No,No,No,No,No,No,No,No,No,No
-80.31534272,25.92334472,ML Tax Dist.- (p-51),6970 LOCH NESS DR,Miami Lakes,33014,1,MiamiLakesPark,Municipal,No,No,No,No,No,No,No,No,No,No,No,No,No,No,No,No,No,No,No,No,No,No,No,No,No,No,No,No,No,No,No,No,No,No,No,No,No,No,No,No,No,No,No,No
-80.14890267,25.90480472,North Maimi Interama Property,BISC BLVD (DEFUNCT MUNICIPORT SITE),North Miami,33181,101,NorthMiamiPark,Municipal,No,No,No,No,No,No,No,No,No,No,No,No,No,No,No,No,No,No,No,No,No,No,No,No,No,No,No,No,No,No,No,No,No,No,No,No,No,No,No,No,No,No,No,No
-80.29627271,25.71775467,Brewer Park,SW 56TH ST / SW 63RD AVE,South Miami,33143,1,SouthMiamiPark,Municipal,No,No,No,No,No,No,No,No,No,No,No,No,No,No,No,No,No,No,No,No,No,No,No,No,No,No,No,No,No,No,No,No,No,No,No,No,No,No,No,No,No,No,No,No
-80.12733266,25.88647472,Surfside Park,96TH ST / BAY DR,Surfside,33154,1,SurfsidePark,Municipal,No,No,No,No,No,No,No,No,No,No,No,No,No,No,No,No,No,No,No,No,No,No,No,No,No,No,No,No,No,No,No,No,No,No,No,No,No,No,No,No,No,No,No,No
-80.12951267,25.87612471,Hawthorne Tot Lot,90TH ST / HAWTHORNE AVE,Surfside,33154,0,SurfsidePark,Municipal,No,No,No,No,No,No,No,No,No,No,No,No,No,No,No,No,No,No,No,No,No,No,No,No,No,No,No,No,No,No,No,No,No,No,No,No,No,No,No,No,No,No,No,No
-80.13725266,25.78394469,Flamingo Park & Pool,1245 MICHIGAN AVE,Miami Beach,33139,33,MiamiBeachPark,Municipal,No,No,No,Yes,Yes,No,No,No,No,No,Yes,No,Yes,No,No,No,No,No,No,No,No,No,Yes,Yes,No,No,No,Yes,Yes,Yes,Yes,Yes,Yes,No,No,No,No,No,No,No,No,No,No,No
-80.12190266,25.88174472,Surfside Community Center,9301 COLLINS AVE,Surfside,33154,1,SurfsidePark,Municipal,No,No,No,No,No,No,No,No,No,No,No,No,No,No,No,No,No,No,No,No,No,No,No,No,No,No,No,No,No,No,No,No,No,No,No,No,No,No,No,No,No,No,No,No
-80.20131268,25.77631469,Lummus Park,404 NW 3RD ST,Miami,33128,5,MiamiPark,Municipal,No,No,No,No,No,No,No,No,No,No,No,No,No,No,No,No,No,No,No,No,No,No,No,No,No,No,No,No,No,No,No,No,No,No,No,No,No,No,No,No,No,No,No,No
-80.12906266,25.86945471,Stillwater Park,8440 HAWTHORNE AVE,Miami Beach,33141,1,MiamiBeachPark,Municipal,No,No,No,No,Yes,No,No,No,No,No,No,No,No,No,No,No,No,No,No,No,No,No,No,No,No,Yes,No,No,No,No,No,Yes,No,No,No,No,No,No,No,No,No,Yes,No,No
-80.19607268,25.79226469,Dorsey Park,1701 NW 1ST AVE,Miami,33136,3,MiamiPark,Municipal,No,No,No,No,No,No,No,No,No,No,No,No,No,No,No,No,No,No,No,No,No,No,No,No,No,No,No,No,No,No,No,No,No,No,No,No,No,No,No,No,No,No,No,No
-80.16661267,25.88907472,Senator Gwen Margolis Community Center,1590 NE 123RD ST,North Miami,33161,1,NorthMiamiPark,Municipal,No,No,No,No,No,No,No,No,No,No,No,No,No,No,No,No,No,No,No,No,No,No,No,No,No,No,No,No,No,No,No,No,No,No,No,No,No,No,No,No,No,No,No,No
-80.30580272,25.89077471,McDonald Park,7505 W 12TH AVE,Hialeah,33014,19,HialeahPark,Municipal,No,No,No,No,Yes,No,No,No,No,No,No,No,No,No,No,No,No,No,No,No,No,No,Yes,No,No,No,No,No,No,Yes,Yes,No,No,Yes,Yes,Yes,No,No,No,No,No,Yes,No,No
-80.20461269,25.96711473,Andover Park,100 NW 209TH ST,Miami Gardens,33169,3,MiamiGardensPark,Municipal,No,No,No,No,No,No,No,No,No,No,No,No,No,No,No,No,No,No,No,No,No,No,No,No,No,No,No,No,No,No,No,No,No,No,No,No,No,No,No,No,No,No,No,No
-80.22492269,25.95190473,Norwood Park,19401 NW 14TH AVE,Miami Gardens,33169,5,MiamiGardensPark,Municipal,No,No,No,No,No,No,No,No,No,No,No,No,No,No,No,No,No,No,No,No,No,No,No,No,No,No,No,No,No,No,No,No,No,No,No,No,No,No,No,No,No,No,No,No
-80.2778227,25.71155467,Jaycee Park Coral Gables,1230 HARDEE RD,Coral Gables,33146,2,CoralGablesPark,Municipal,No,No,No,No,No,No,No,No,No,No,No,No,No,No,No,No,No,No,No,No,No,No,No,No,No,No,No,No,No,No,No,No,No,No,No,No,No,No,No,No,No,No,No,No
-80.30354271,25.71326467,Palmer Park,6100 SW 67TH AVE,South Miami,33143,8,SouthMiamiPark,Municipal,No,No,No,No,No,No,No,No,No,No,No,No,No,No,No,No,No,No,No,No,No,No,No,No,No,No,No,No,No,No,No,No,No,No,No,No,No,No,No,No,No,No,No,No
-80.20950269,25.81117469,Moore Park,765 NW 36TH ST,Miami,33127,17,MiamiPark,Municipal,No,No,No,No,No,No,No,No,No,No,No,No,No,No,No,No,No,No,No,No,No,No,No,No,No,No,No,No,No,No,No,No,No,No,No,No,No,No,No,No,No,No,No,No
-80.13608267,25.93189473,Eastern Shore Tot Lot,16501 NE 35TH AVE,North Miami  Beach,33160,0,NorthMiamiBeachPark,Municipal,No,No,No,No,No,No,No,No,No,No,No,No,No,No,No,No,No,No,No,No,No,No,No,No,No,Yes,No,No,No,No,No,Yes,No,No,No,No,No,No,No,No,No,No,No,No
-80.2331327,25.90554472,Ingram Park,2100 BURLINGTON ST,Opa Locka,33054,8,OpaLockaiPark,Municipal,No,No,No,No,No,No,No,No,No,No,No,No,No,No,No,No,No,No,No,No,No,No,No,No,No,No,No,No,No,No,No,No,No,No,No,No,No,No,No,No,No,No,No,No
-80.24203269,25.79323469,Miami River Rapids,2900 NW SOUTH RIVER DR,Miami,33125,1,MiamiPark,Municipal,No,No,No,No,No,No,No,No,No,No,No,No,No,No,No,No,No,No,No,No,No,No,No,No,No,No,No,No,No,No,No,No,No,No,No,No,No,No,No,No,No,No,No,No
-80.20996269,25.8193347,Miller Dawkins Mini Park,NW 47TH TER / NW 8TH AVE,Miami,33127,1,MiamiPark,Municipal,No,No,No,No,No,No,No,No,No,No,No,No,No,No,No,No,No,No,No,No,No,No,No,No,No,No,No,No,No,No,No,No,No,No,No,No,No,No,No,No,No,No,No,No
-80.21627269,25.75862468,Cuban Memorial Blvd,SW 13TH AVE / SW 8TH ST,Miami,33135,0,MiamiPark,Municipal,No,No,No,No,No,No,No,No,No,No,No,No,No,No,No,No,No,No,No,No,No,No,No,No,No,No,No,No,No,No,No,No,No,No,No,No,No,No,No,No,No,No,No,No
-80.23597269,25.72398467,Dinner Key Picnic Islands,BISCAYNE BAY AT PAN AMERICAN DRIVE,Miami,33133,10,MiamiPark,Municipal,No,No,No,No,No,No,No,No,No,No,No,No,No,No,No,No,No,No,No,No,No,No,No,No,No,No,No,No,No,No,No,No,No,No,No,No,No,No,No,No,No,No,No,No
-80.16941268,25.8243547,Morningside Picnic Islands,3 SPOIL ISLAND BANKS OFF MORNINGSID,Miami,33140,4,MiamiPark,Municipal,No,No,No,No,No,No,No,No,No,No,No,No,No,No,No,No,No,No,No,No,No,No,No,No,No,No,No,No,No,No,No,No,No,No,No,No,No,No,No,No,No,No,No,No
-80.23083269,25.72647467,West Islands,WESTERNMOST OFF DINNER KEY,Miami,33133,3,MiamiPark,Municipal,No,No,No,No,No,No,No,No,No,No,No,No,No,No,No,No,No,No,No,No,No,No,No,No,No,No,No,No,No,No,No,No,No,No,No,No,No,No,No,No,No,No,No,No
-80.12693266,25.84408471,La Gorce Tot Lot,LA GORCE DR / ALTON RD,Miami Beach,33141,1,MiamiBeachPark,Municipal,No,No,No,No,No,No,No,No,No,No,No,No,No,No,No,No,No,No,No,No,No,No,No,No,No,No,No,No,No,No,No,Yes,No,No,No,No,No,No,No,No,No,No,No,No
-80.28158271,25.8212747,Circle Park,CURTISS PKWY / S  ROYAL POINCIANA BLVD,Miami Springs,33166,1,MiamiSpringsPark,Municipal,No,No,No,No,No,No,No,No,No,No,No,No,No,No,No,No,No,No,No,No,No,No,No,No,No,No,No,No,No,No,No,No,No,No,No,No,No,No,No,No,No,No,No,No
-80.12911266,25.79714469,Collins Park,2111 MIAMI BEACH DR,Miami Beach,33139,3,MiamiBeachPark,Municipal,No,No,No,No,No,No,No,No,No,No,No,No,No,No,No,No,No,No,No,No,No,No,No,No,No,No,No,No,No,No,No,No,No,Yes,No,No,No,No,No,No,No,No,No,No
-80.29925271,25.8471747,Walker Park / Pool,880 W 29TH ST,Hialeah,33010,9,HialeahPark,Municipal,No,No,No,Yes,Yes,No,No,No,No,No,No,No,Yes,No,No,No,No,No,No,No,No,No,No,Yes,No,No,No,Yes,No,Yes,No,Yes,No,No,No,Yes,No,No,No,No,No,No,No,No
-80.2520427,25.93624473,Myrtle Grove Park,3030 NW 179TH ST,Miami Gardens,33056,5,MiamiGardensPark,Municipal,No,No,No,No,No,No,No,No,No,No,No,No,No,No,No,No,No,No,No,No,No,No,No,No,No,No,No,No,No,No,No,No,No,No,No,No,No,No,No,No,No,No,No,No
-80.12566266,25.85878471,Parkview Island Park,7398 DICKENS AVE,Miami Beach,33141,0.78,MiamiBeachPark,Municipal,No,No,No,No,No,No,No,No,No,No,No,No,No,No,No,No,No,No,No,No,No,No,No,No,No,No,No,No,No,No,No,No,No,No,No,No,No,No,No,No,No,No,No,No
-80.14351267,25.90206472,Biscayne Bay Park,2601 NE 135TH ST,North Miami,33181,14,NorthMiamiPark,Municipal,No,No,No,No,No,No,No,No,No,No,No,No,No,No,No,No,No,No,No,No,No,No,No,No,No,No,No,No,No,No,No,No,No,No,No,No,No,No,No,No,No,No,No,No
-80.29670271,25.75461468,West Miami Recreation Center,1700 SW 62ND AVE,West Miami,33155,4,WestMiamiPark,Municipal,No,No,No,No,No,No,No,No,No,No,No,No,No,No,No,No,No,No,No,No,No,No,No,No,No,No,No,No,No,No,No,No,No,No,No,No,No,No,No,No,No,No,No,No
-80.24101269,25.73024467,Coconut Grove Tennis Courts,2975 OAK AVE,Miami,33133,1,MiamiPark,Municipal,No,No,No,No,No,No,No,No,No,No,No,No,No,No,No,No,No,No,No,No,No,No,No,No,No,No,No,No,No,No,No,No,No,No,No,No,No,No,No,No,No,No,No,No
-80.19454268,25.77388469,Paul S Walker Park,46 W FLAGLER ST,Miami,33128,0,MiamiPark,Municipal,No,No,No,No,No,No,No,No,No,No,No,No,No,No,No,No,No,No,No,No,No,No,No,No,No,No,No,No,No,No,No,No,No,No,No,No,No,No,No,No,No,No,No,No
-80.16121267,25.93221473,Government Center Victory Park,17051 NE 19TH AVE,North Miami  Beach,33162,7,NorthMiamiBeachPark,Municipal,No,No,No,No,Yes,No,No,No,No,No,No,No,Yes,No,No,No,No,No,No,No,No,No,No,No,No,Yes,No,No,No,No,No,No,No,No,No,No,No,No,No,No,No,No,No,No
-80.29274271,25.8430447,Cotson Park,574 W 23RD ST,Hialeah,33010,3,HialeahPark,Municipal,No,No,No,Yes,Yes,No,No,No,No,No,No,No,Yes,No,No,No,No,No,No,No,No,No,No,Yes,No,Yes,No,Yes,No,No,No,Yes,No,No,No,No,No,No,No,No,No,No,No,No
-80.15365267,25.93072473,Arthur I. Snyder Tennis Complex,16851 W DIXIE HWY,North Miami  Beach,33160,17,NorthMiamiBeachPark,Municipal,No,No,No,No,No,No,No,No,No,No,No,No,No,No,No,No,No,No,No,No,No,No,No,No,No,No,No,No,No,No,Yes,No,No,No,No,No,No,No,No,No,No,No,No,No
-80.12185267,25.95348473,Golden Shores Community Park,201 191st Terrace,Sunny Isles Beach,33160,0,SunnyIslesBeachPark,Municipal,No,No,No,No,No,No,No,No,No,No,No,No,No,No,No,No,No,No,No,No,No,No,No,No,No,No,No,No,No,No,No,Yes,No,No,No,No,Yes,No,No,No,No,No,No,No
-80.19410268,25.89022472,Breezeswept Tot Lot,12501 NE 2ND AVE,North Miami,33161,1,NorthMiamiPark,Municipal,No,No,No,No,No,No,No,No,No,No,No,No,No,No,No,No,No,No,No,No,No,No,No,No,No,No,No,No,No,No,No,No,No,No,No,No,No,No,No,No,No,No,No,No
-80.18249268,25.87116471,Miami Shores Country Club,10000 BISCAYNE BLVD,Miami Shores,33138,120,MiamiShoresPark,Municipal,No,No,No,No,No,No,No,No,No,No,No,No,No,No,No,No,No,No,No,No,No,No,No,No,No,No,No,No,No,No,No,No,No,No,No,No,No,No,No,No,No,No,No,No
-80.45513275,25.4563446,Audubon Park,1441 S AUDUBON DR,Homestead,33035,0,HomesteadPark,Municipal,No,No,No,No,No,No,No,No,No,No,No,No,No,No,No,No,No,No,No,No,No,No,No,No,No,No,No,No,No,No,No,No,No,No,No,No,No,No,No,No,No,No,No,No
-80.49401276,25.4637446,Blakey Park,REDLAND RD / LUCY ST,Homestead,33030,8.63,HomesteadPark,Municipal,Yes,No,No,No,No,No,No,No,No,No,No,No,No,No,No,No,No,No,No,No,No,No,No,No,No,No,No,No,No,No,No,No,No,No,No,No,No,No,No,No,No,No,No,No
-80.17019268,25.92486473,Carter Tyree,16501 NE 15TH AVE,North Miami Beach,33162,0.1,NorthMiamiBeachPark,Municipal,No,No,No,No,No,No,No,No,No,No,No,No,No,No,No,No,No,No,No,No,No,No,No,No,No,No,No,No,No,No,No,No,No,No,No,No,No,No,No,No,No,No,No,No
-80.12097266,25.95500473,Heritage Park,19200 COLLINS AVE,Sunny Isles Beach,33160,4,SunnyIslesBeachPark,Municipal,Yes,No,No,No,No,No,No,No,No,No,Yes,No,No,No,No,No,No,No,No,No,No,No,No,No,No,Yes,No,No,No,No,No,Yes,No,No,No,Yes,Yes,No,No,No,No,No,No,No
-80.12942267,25.92945473,Bella Vista Bay Park,500 SUNNY ISLES BLVD,Sunny Isles Beach,33160,0,SunnyIslesBeachPark,Municipal,No,No,No,No,No,No,No,No,No,No,No,No,No,No,No,No,No,No,Yes,No,No,No,No,No,No,No,No,No,No,No,No,No,No,No,No,No,No,No,No,No,No,No,No,No
-80.2585927,25.74606468,Fred B. Hartnett Ponce Circle Park,2810 PONCE DE LEON BLVD,Coral Gables,33134,1.36,CoralGablesPark,Municipal,No,No,No,No,No,No,No,No,No,No,No,No,No,No,No,No,No,No,No,No,No,No,No,No,No,No,No,No,No,No,No,No,No,No,No,No,No,No,No,No,No,No,No,No
-80.16319267,25.68886467,Lake Park,E ENID DR/ CRANDON BLVD,Key Biscayne,33149,0.9,KeyBiscaynePark,Municipal,No,No,No,No,No,No,No,No,No,No,No,No,No,No,No,No,No,No,No,No,No,Yes,No,No,No,No,No,No,No,No,No,No,No,Yes,No,No,No,No,No,No,No,No,No,No
-80.12246266,25.92762473,Oceania Park,16320 COLLINS AVE,Sunny Isles Beach,33160,0,SunnyIslesBeachPark,Municipal,No,No,No,No,No,No,No,No,No,No,No,No,No,No,No,No,No,No,No,No,No,No,No,No,No,No,No,No,No,No,No,No,No,No,No,No,No,No,No,No,No,No,No,No
-80.16204267,25.68911467,East Enid Linear Park,E ENID DR,Key Biscayne,33149,0,KeyBiscaynePark,Municipal,No,No,No,No,No,No,No,No,No,No,No,No,No,No,No,No,No,No,No,No,No,Yes,No,No,No,No,No,No,No,No,No,No,No,Yes,No,No,No,No,No,No,No,No,No,No
-80.45604275,25.4491946,Mayor Roscoe Warren Park,1400 E PALM DR,Homestead,33035,37,HomesteadPark,Municipal,No,No,No,No,No,No,No,No,No,No,No,No,No,No,No,No,No,No,No,No,No,No,No,No,No,No,No,No,No,No,No,No,No,No,No,No,No,No,No,No,No,No,No,No
-80.17324268,25.87162471,Miami Shores Aquatic Center,10500 BISCAYNE BLVD,Miami Shores,33138,0,MiamiShoresPark,Municipal,No,No,No,No,No,No,No,No,No,No,No,No,No,No,No,No,No,No,No,No,No,No,No,No,No,No,No,No,No,No,No,No,No,No,No,No,No,No,No,No,No,No,No,No
-80.31132271,25.60692464,Ludovici Park,17641 OLD CUTLER RD,Palmetto Bay,33157,2.88,PalmettoBayPark,Municipal,Yes,No,No,No,No,No,No,No,No,No,No,No,No,No,No,No,No,No,No,No,No,Yes,No,Yes,No,Yes,No,No,No,No,No,No,No,Yes,No,No,Yes,No,No,No,No,No,No,No
-80.32835272,25.56572463,Lakes By the Bay Park,8551 SW 216TH ST,Cutler Bay,33189,29.26,CutlerBayPark,Municipal,No,No,No,No,No,No,No,No,No,No,No,No,No,No,No,No,No,No,No,No,No,No,No,No,No,No,No,No,No,No,No,No,No,No,No,No,No,No,No,No,No,No,No,No
-80.35164272,25.56813463,Lincoln City Park#2,SW 214TH ST and 99TH AVE,Cutler Bay,33189,0.69,CutlerBayPark,Municipal,No,No,No,No,No,No,No,No,No,No,No,No,No,No,No,No,No,No,No,No,No,No,No,No,No,No,No,No,No,No,No,No,No,No,No,No,No,No,No,No,No,No,No,No
-80.38381274,25.81832469,Trails & Tails Park,11645 NW 50TH ST,Doral,33178,8.56,DoralPark,Municipal,No,No,No,No,No,No,No,No,No,No,Yes,No,No,No,No,No,No,No,No,No,No,No,No,No,No,No,No,No,No,No,No,Yes,No,Yes,No,No,Yes,No,No,No,No,Yes,No,No
-80.36157273,25.80388469,Veterans Park,10190 NW 33RD ST,Doral,33172,1.35,DoralPark,Municipal,No,No,No,No,No,No,No,No,No,No,No,No,No,No,No,No,No,No,No,No,No,No,No,No,No,Yes,No,No,No,No,No,Yes,No,No,No,No,No,No,No,No,No,No,No,No
-80.36716273,25.76449468,Carlow Park,10601 SW 5TH ST,Sweetwater,33174,2,SweetwaterPark,Municipal,No,No,No,No,No,No,No,No,No,No,No,No,No,No,No,No,No,No,No,No,No,No,No,No,No,No,No,No,No,No,No,No,No,No,No,No,No,No,No,No,No,No,No,No
-80.48575276,25.4483646,Community Center,616 W PALM DR,Florida City,33034,2,FloridaCityPark,Municipal,No,No,No,No,No,No,No,No,No,No,No,No,No,No,No,No,No,No,No,No,No,No,No,No,No,No,No,No,No,No,No,No,No,No,No,No,No,No,No,No,No,No,No,No
-80.17472268,25.93837473,Columbia Tot Lot,NE 177TH ST / NE 13TH AVE,North Miami  Beach,33162,0,NorthMiamiBeachPark,Municipal,No,No,No,No,No,No,No,No,No,No,Yes,No,No,No,No,No,No,No,No,No,No,No,No,No,No,No,No,No,No,No,No,Yes,No,No,No,No,No,No,No,No,No,No,No,No
-80.17216268,25.93414473,Schreiber Tot Lot,NE 172ND ST / S GLADES DR,North Miami Beach,33162,0,NorthMiamiBeachPark,Municipal,No,No,No,No,No,No,No,No,No,No,No,No,No,No,No,No,No,No,No,No,No,No,No,No,No,No,No,No,No,No,No,No,No,No,No,No,No,No,No,No,No,No,No,No
-80.20558269,25.8180247,South Bay Vista Park,NW 6TH CT / NW 46TH ST,Miami,33127,0,MiamiPark,Municipal,No,No,No,No,No,No,No,No,No,No,No,No,No,No,No,No,No,No,No,No,No,No,No,No,No,No,No,No,No,No,No,No,No,No,No,No,No,No,No,No,No,No,No,No
-80.28669271,25.76324468,Country Club Prado,COUNTRY CLUB PRADO /  SW 8TH  ST,Coral Gables,33133,2,CoralGablesPark,Municipal,No,No,No,No,No,No,No,No,No,No,No,No,No,No,No,No,No,No,No,No,No,No,No,No,No,No,No,No,No,No,No,No,No,No,No,No,No,No,No,No,No,No,No,No
-80.12129266,25.96319474,South Park,S PARKWAY / GOLDEN BEACH DR,Golden Beach,33160,1,GoldenBeachPark,Municipal,No,No,No,No,No,No,No,No,No,No,No,No,No,No,No,No,No,No,No,No,No,No,No,No,No,No,No,No,No,No,No,No,No,No,No,No,No,No,No,No,No,No,No,No
-80.29937272,25.91083472,Picnic Park East,6075 MIAMI LAKES DR,Miami Lakes,33014,2,MiamiLakesPark,Municipal,No,No,No,No,Yes,No,No,No,No,No,No,No,No,No,No,No,No,No,No,No,No,No,No,Yes,No,Yes,No,No,No,No,No,Yes,No,Yes,No,No,No,No,No,No,No,No,No,No
-80.12154266,25.84598471,Brittany Bay Park,63RD ST / INDIAN CREEK DR,Miami Beach,33141,3,MiamiBeachPark,Municipal,No,No,No,No,No,No,No,No,No,No,No,No,No,No,No,No,No,No,No,No,No,No,No,No,No,No,No,No,No,No,No,No,No,Yes,No,No,No,No,No,No,No,Yes,No,No
-80.31196272,25.90649472,ML Tax Dist.- (p-16),14620 PALMETTO PALM AVE,Miami Lakes,33014,0,MiamiLakesPark,Municipal,No,No,No,No,No,No,No,No,No,No,No,No,No,No,No,No,No,No,No,No,No,No,No,No,No,No,No,No,No,No,No,No,No,No,No,No,No,No,No,No,No,No,No,No
-80.31405272,25.90639472,ML Tax Dist.- (p-17),6976 MAPLE TER,Miami Lakes,33014,0,MiamiLakesPark,Municipal,No,No,No,No,No,No,No,No,No,No,No,No,No,No,No,No,No,No,No,No,No,No,No,No,No,No,No,No,No,No,No,No,No,No,No,No,No,No,No,No,No,No,No,No
-80.40909274,25.4519646,Homestead Motor Sports,1 SPEEDWAY BLVD,Homestead,33035,203,HomesteadPark,Municipal,No,No,No,No,No,No,No,No,No,No,No,No,No,No,No,No,No,No,No,No,No,No,No,No,No,No,No,No,No,No,No,No,No,No,No,No,No,No,No,No,No,No,No,No
-80.2773327,25.74061468,Tennis Courts at Biltmore,1200 ANASTASIA AVE,Coral Gables,33134,5,CoralGablesPark,Municipal,No,No,No,No,No,No,No,No,No,No,No,No,No,No,No,No,No,No,No,No,No,No,No,No,No,No,No,No,No,No,No,No,No,No,No,No,No,No,No,No,No,No,No,No
-80.31389272,25.89976472,ML Tax Dist.- (p-23),6961 BAMBOO ST,Miami Lakes,33014,0,MiamiLakesPark,Municipal,No,No,No,No,No,No,No,No,No,No,No,No,No,No,No,No,No,No,No,No,No,No,No,No,No,No,No,No,No,No,No,No,No,No,No,No,No,No,No,No,No,No,No,No
-80.28947271,25.75673468,Cooper Park,SW 58TH AVE / SW 15TH ST,West Miami,33144,3,WestMiamiPark,Municipal,No,No,No,No,No,No,No,No,No,No,No,No,No,No,No,No,No,No,No,No,No,No,No,No,No,No,No,No,No,No,No,No,No,No,No,No,No,No,No,No,No,No,No,No
-80.23452269,25.79266469,Curtis Park Sport Complex,1901 NW 24TH AVE,Miami,33125,21,MiamiPark,Municipal,No,No,No,No,No,No,No,No,No,No,No,No,No,No,No,No,No,No,No,No,No,No,No,No,No,No,No,No,No,No,No,No,No,No,No,No,No,No,No,No,No,No,No,No
-80.19111268,25.85290471,Oakland Grove Mini Park,NE 3RD AVE / NE 84TH ST,Miami,33138,0,MiamiPark,Municipal,No,No,No,No,No,No,No,No,No,No,No,No,No,No,No,No,No,No,No,No,No,No,No,No,No,No,No,No,No,No,No,No,No,No,No,No,No,No,No,No,No,No,No,No
-80.33229272,25.91033472,Miami Lakes Park West (p-74),15151 MONTROSE RD,Miami Lakes,33016,10,MiamiSpringsPark,Municipal,No,No,No,No,No,No,No,No,No,No,No,No,No,No,No,No,No,No,No,No,No,No,No,No,No,No,No,No,No,No,No,No,No,No,No,No,No,No,No,No,No,No,No,No
-80.2545727,25.94284473,Miami Carol City Park / Lake Lucerne,3201 NW 185TH ST,Miami Gardens,33056,16,MiamiGardensPark,Municipal,No,No,No,No,No,No,No,No,No,No,No,No,No,No,No,No,No,No,No,No,No,No,No,No,No,No,No,No,No,No,No,No,No,No,No,No,No,No,No,No,No,No,No,No
-80.24078269,25.73428468,Lincoln Park,2950 JACKSON AVE,Miami,33133,0,MiamiPark,Municipal,No,No,No,No,No,No,No,No,No,No,No,No,No,No,No,No,No,No,No,No,No,No,No,No,No,No,No,No,No,No,No,No,No,No,No,No,No,No,No,No,No,No,No,No
-80.29050271,25.8428147,Ethel Primus Park,RED RD / W 23RD ST,Hialeah,33010,0,HialeahPark,Municipal,No,No,No,No,No,No,No,No,No,No,No,No,No,No,No,No,No,No,No,No,No,No,No,No,No,No,No,No,No,No,No,No,No,No,No,No,No,No,No,No,No,No,No,No
-80.21132269,25.8317247,Belafonte-Tacolcy Park,6161 NW 9TH AVE,Miami,33150,3,MiamiPark,Municipal,No,No,No,No,No,No,No,No,No,No,No,No,No,No,No,No,No,No,No,No,No,No,No,No,No,No,No,No,No,No,No,No,No,No,No,No,No,No,No,No,No,No,No,No
-80.13779267,25.85210471,Normandy Isle Park & Pool,7030 TROUVILLE ESPLANADE,Miami Beach,33141,3,MiamiBeachPark,Municipal,No,No,No,No,Yes,No,No,No,No,No,No,No,No,No,No,No,No,No,No,No,No,No,No,No,No,Yes,No,No,No,Yes,No,Yes,No,No,No,Yes,No,No,No,No,No,No,No,No
-80.37688273,25.76154468,James M. Beasley Linear Park,10999  SW 7TH TER,Sweetwater,33174,2,SweetwaterPark,Municipal,No,No,No,No,No,No,No,No,No,No,No,No,No,No,No,No,No,No,No,No,No,No,No,No,No,No,No,No,No,No,No,No,No,No,No,No,No,No,No,No,No,No,No,No
-80.12803266,25.85950471,Unnamed Park Miami Beach,WAYNE AVE / BRUCE ST,Miami Beach,33141,0,MiamiBeachPark,Municipal,No,No,No,No,No,No,No,No,No,No,No,No,No,No,No,No,No,No,No,No,No,No,No,No,No,No,No,No,No,No,No,No,No,No,No,No,No,No,No,No,No,No,No,No
-80.22199269,25.77950469,Unnamed Park (NW 16th Ave),NW 16TH AVE / NW 7TH ST,Miami,33125,1.5,MiamiPark,Municipal,No,No,No,No,No,No,No,No,No,No,No,No,No,No,No,No,No,No,No,No,No,No,No,No,No,No,No,No,No,No,No,No,No,No,No,No,No,No,No,No,No,No,No,No
-80.31248272,25.90905472,ML Tax Dist.- (p-38),14844 DADE PINE AVE,Miami Lakes,33014,0,MiamiLakesPark,Municipal,No,No,No,No,No,No,No,No,No,No,No,No,No,No,No,No,No,No,No,No,No,No,No,No,No,No,No,No,No,No,No,No,No,No,No,No,No,No,No,No,No,No,No,No
-80.31216272,25.90971472,ML Tax Dist.- (p-39),6880 MIAMI LAKES DR,Miami Lakes,33014,0,MiamiLakesPark,Municipal,No,No,No,No,No,No,No,No,No,No,No,No,No,No,No,No,No,No,No,No,No,No,No,No,No,No,No,No,No,No,No,No,No,No,No,No,No,No,No,No,No,No,No,No
-80.30516272,25.90198472,ML Tax Dist.- (p-08),14105 LAKE CHILDS CT,Miami Lakes,33014,1,MiamiLakesPark,Municipal,No,No,No,No,No,No,No,No,No,No,No,No,No,No,No,No,No,No,No,No,No,No,No,No,No,No,No,No,No,No,No,No,No,No,No,No,No,No,No,No,No,No,No,No
-80.13076266,25.85902471,Fairway Park,200 FAIRWAY DR,Miami Beach,33141,4,MiamiBeachPark,Municipal,No,No,No,No,Yes,No,No,No,No,No,No,No,No,No,No,No,No,No,No,No,No,No,No,No,No,Yes,No,Yes,No,No,Yes,Yes,No,No,No,No,No,No,No,No,No,No,No,No
-80.15276267,25.78537469,Flagler Memorial Monument,1 FLAGLER MEMORIAL IS,Miami Beach,33139,4,MiamiBeachPark,Municipal,No,No,No,No,No,No,No,No,No,No,No,No,No,No,No,No,No,No,No,No,No,No,No,No,No,No,No,No,No,No,No,No,No,No,No,No,No,No,No,No,No,No,No,No
-80.35851273,25.89110471,Golden Eagle Park,9784 NW 130TH ST,Hialeah Gardens,33018,2,HialeahGardensPark,Municipal,No,No,No,No,No,No,No,No,No,No,No,No,No,No,No,No,No,No,No,No,No,No,No,No,No,No,No,No,No,No,No,No,No,No,No,No,No,No,No,No,No,No,No,No
-80.13593267,25.97359474,Waterway Park,3301 NE 213TH ST,Aventura,33180,1,AventuraPark,Municipal,No,No,No,Yes,No,No,No,No,No,No,No,No,No,No,No,No,No,No,No,No,No,No,No,No,No,No,No,No,No,No,No,No,No,No,No,No,No,No,No,No,No,No,No,No
-80.31997272,25.90989472,ML Tax Dist.- (p-42),15017 COCONUT CT,Miami Lakes,33014,0,MiamiLakesPark,Municipal,No,No,No,No,No,No,No,No,No,No,No,No,No,No,No,No,No,No,No,No,No,No,No,No,No,No,No,No,No,No,No,No,No,No,No,No,No,No,No,No,No,No,No,No
-80.36807274,25.89038471,Vietnam Veteran Memorial Park,NW 104TH AVE / NW 129TH ST,Hialeah Gardens,33018,0,HialeahGardensPark,Municipal,No,No,No,No,No,No,No,No,No,No,No,No,No,No,No,No,No,No,No,No,No,No,No,No,No,No,No,No,No,No,No,No,No,No,No,No,No,No,No,No,No,No,No,No
-80.34296273,25.87928471,Joe Sherron Park,8889 NW 116TH ST,Hialeah Gardens,33018,2,HialeahGardensPark,Municipal,No,No,No,No,No,No,No,No,No,No,No,No,No,No,No,No,No,No,No,No,No,No,No,No,No,No,No,No,No,No,No,No,No,No,No,No,No,No,No,No,No,No,No,No
-80.33954273,25.87478471,Linear Park Hialeah Gardens,NW 108TH LN / NW 87TH CT,Hialeah Gardens,33018,0,HialeahGardensPark,Municipal,No,No,No,No,No,No,No,No,No,No,No,No,No,No,No,No,No,No,No,No,No,No,No,No,No,No,No,No,No,No,No,No,No,No,No,No,No,No,No,No,No,No,No,No
-80.16857268,25.92871473,Patricia A. Mishcon Athletic Field,16601 NE 15TH AVE,North Miami  Beach,33162,3,NorthMiamiBeachPark,Municipal,No,No,No,Yes,No,No,No,No,No,No,No,No,Yes,No,No,No,No,No,No,No,No,No,No,No,No,No,No,Yes,No,No,No,No,No,No,No,No,No,No,No,No,No,No,No,No
-80.2782027,25.67055466,Unnamed Park (Conde Ave),CONDE AVE / OLD CUTLER RD,Coral Gables,33156,0,CoralGablesPark,Municipal,No,No,No,No,No,No,No,No,No,No,No,No,No,No,No,No,No,No,No,No,No,No,No,No,No,No,No,No,No,No,No,No,No,No,No,No,No,No,No,No,No,No,No,No
-80.19364268,25.86106471,Memorial Park,NE 94TH ST / NE 2ND AVE,Miami Shores,33138,1,MiamiShoresPark,Municipal,No,No,No,No,No,No,No,No,No,No,No,No,No,No,No,No,No,No,No,No,No,No,No,No,No,No,No,No,No,No,No,No,No,No,No,No,No,No,No,No,No,No,No,No
-80.17101268,25.86360471,North Bayshore Park,N BAYSHORE DR / NE 95TH ST,Miami Shores,33138,0,MiamiShoresPark,Municipal,No,No,No,No,No,No,No,No,No,No,No,No,No,No,No,No,No,No,No,No,No,No,No,No,No,No,No,No,No,No,No,No,No,No,No,No,No,No,No,No,No,No,No,No
-80.14472267,25.79271469,Maurice Gibbs Memorial Park,18TH ST / PURDY AVE,Miami Beach,33139,3,MiamiBeachPark,Municipal,No,No,No,No,No,No,No,Yes,No,No,No,No,No,No,No,No,No,No,No,No,No,No,No,No,No,No,No,No,No,No,No,Yes,No,Yes,No,No,No,No,No,No,No,No,No,No
-80.13432266,25.8159347,Polo Park,805 W 42ND ST,Miami Beach,33140,7,MiamiBeachPark,Municipal,No,No,No,Yes,Yes,No,No,No,No,No,No,No,Yes,No,No,No,No,No,No,No,No,No,No,No,No,No,No,No,No,No,Yes,Yes,No,No,No,No,No,No,No,No,No,No,No,No
-80.12991266,25.78052469,Lummus Park / Oceanfront Auditorium,10TH ST / OCEAN DR,Miami Beach,33139,20,MiamiBeachPark,Municipal,No,No,No,No,No,Yes,No,No,No,No,No,No,No,No,No,No,No,No,No,No,No,No,No,No,No,No,No,No,No,Yes,No,Yes,No,Yes,Yes,No,No,No,No,No,No,Yes,No,No
-80.13166266,25.8258947,Fisher Park,51ST ST / ALTON RD,Miami Beach,33140,2,MiamiBeachPark,Municipal,No,No,No,No,No,No,No,No,No,No,No,No,No,No,No,No,No,No,No,No,No,No,No,No,No,No,No,No,No,No,No,Yes,No,No,No,No,No,No,No,No,No,No,No,No
-80.14809267,25.79105469,Belle Isle Park,VENETIAN CSWY / ISLAND AVE,Miami Beach,33139,3,MiamiBeachPark,Municipal,No,No,No,No,No,No,No,No,No,No,Yes,No,No,No,No,No,No,No,No,No,No,No,No,No,No,No,No,No,No,No,No,No,No,Yes,No,No,No,No,No,No,No,No,No,No
-80.13445266,25.77153469,Washington Ave. Dog Park,2ND ST / WASHINGTON AVE,Miami Beach,33139,1,MiamiBeachPark,Municipal,No,No,No,No,No,No,No,No,No,No,Yes,No,No,No,No,No,No,No,No,No,No,No,No,No,No,No,No,No,No,No,No,No,No,No,No,No,No,No,No,No,No,No,No,No
-80.18586268,25.8120547,Stearns Park,NE 7TH AVE / NE 38TH ST,Miami,33137,2,MiamiPark,Municipal,No,No,No,No,No,No,No,No,No,No,No,No,No,No,No,No,No,No,No,No,No,No,No,No,No,No,No,No,No,No,No,No,No,No,No,No,No,No,No,No,No,No,No,No
-80.20096268,25.76306468,Triangle Park Miami,SW 11TH ST / SW 15TH RD,Miami,33130,1,MiamiPark,Municipal,No,No,No,No,No,No,No,No,No,No,No,No,No,No,No,No,No,No,No,No,No,No,No,No,No,No,No,No,No,No,No,No,No,No,No,No,No,No,No,No,No,No,No,No
-80.21400269,25.8192047,Crestwood Park,NW 48TH ST / NW 11TH AVE,Miami,33127,1,MiamiPark,Municipal,No,No,No,No,No,No,No,No,No,No,No,No,No,No,No,No,No,No,No,No,No,No,No,No,No,No,No,No,No,No,No,No,No,No,No,No,No,No,No,No,No,No,No,No
-80.30473272,25.89697472,Hialeah - Miami Lakes,7977 W 12TH AVE,Hialeah,33014,23,HialeahPark,Municipal,No,No,No,No,Yes,No,No,No,No,No,No,No,No,No,No,No,No,No,No,No,No,No,No,No,No,No,No,No,No,No,No,No,Yes,No,No,No,No,No,No,No,No,No,No,No
-80.2780527,25.74730468,Salvadore Park,1120 ANDALUSIA AVE,Coral Gables,33134,4,CoralGablesPark,Municipal,No,No,No,No,No,No,No,No,No,No,No,No,No,No,No,No,No,No,No,No,No,No,No,No,No,No,No,No,No,No,No,No,No,No,No,No,No,No,No,No,No,No,No,No
-80.13680266,25.77603469,South Shore Community Center,833 6TH ST,Miami Beach,33139,0,MiamiBeachPark,Municipal,No,No,No,No,No,No,No,No,No,No,No,No,No,No,No,No,No,No,No,No,No,No,No,No,No,No,No,No,No,No,No,No,No,No,No,No,No,No,No,No,No,No,No,No
-80.16168267,25.88715472,Alfred S. Besade Family Park,11825 NE 19TH DR,North Miami,33181,1,NorthMiamiPark,Municipal,No,No,No,No,No,No,No,No,No,No,No,No,No,No,No,No,No,No,No,No,No,No,No,No,No,No,No,No,No,No,No,No,No,No,No,No,No,No,No,No,No,No,No,No
-80.24065269,25.72591467,Peacock / K. Myers Park,2820 MCFARLAND RD,Miami,33133,9,MiamiPark,Municipal,No,No,No,No,No,No,No,No,No,No,No,No,No,No,No,No,No,No,No,No,No,No,No,No,No,No,No,No,No,No,No,No,No,No,No,No,No,No,No,No,No,No,No,No
-80.20469269,25.8341547,Athalie Range Park,525 NW 62ND ST,Miami,33150,12,MiamiPark,Municipal,No,No,No,Yes,No,No,No,No,No,No,No,No,Yes,No,No,No,No,No,No,No,Yes,No,No,No,No,Yes,No,No,No,Yes,Yes,No,No,No,No,Yes,No,No,No,No,No,No,No,No
-80.29269271,25.70341467,Jean Willis Park,7220 SW 61ST CT,Miami Lakes,33143,1,SouthMiamiPark,Municipal,No,No,No,No,No,No,No,No,No,No,No,No,No,No,No,No,No,No,No,No,No,No,No,No,No,No,No,No,No,No,No,No,No,No,No,No,No,No,No,No,No,No,No,No
-80.21027269,25.77609469,Henderson Park,971 NW 2ND ST,Miami,33128,3,MiamiPark,Municipal,No,No,No,No,No,No,No,No,No,No,No,No,No,No,No,No,No,No,No,No,No,No,No,No,No,No,No,No,No,No,No,No,No,No,No,No,No,No,No,No,No,No,No,No
-80.17728268,25.78360469,Watson Island Park,1050 MACARTHUR CSWY,Miami,33132,16,MiamiPark,Municipal,No,No,No,No,No,No,No,No,No,No,No,No,No,No,No,No,No,No,No,No,No,No,No,No,No,No,No,No,No,No,No,No,No,No,No,No,No,No,No,No,No,No,No,No
-80.12174266,25.8209347,Indian Beach Park,4621 COLLINS AVE,Miami Beach,33140,6,MiamiBeachPark,Municipal,No,No,No,No,No,Yes,No,No,No,No,No,No,No,No,No,No,No,No,No,No,No,No,No,No,No,No,No,No,No,No,No,Yes,No,No,No,No,No,No,No,No,No,No,No,No
-80.21939269,25.76550468,Maximo Gomez Park,801 SW 15TH AVE,Miami,33135,0,MiamiPark,Municipal,No,No,No,No,No,No,No,No,No,No,No,No,No,No,No,No,No,No,No,No,No,No,No,No,No,No,No,No,No,No,No,No,No,No,No,No,No,No,No,No,No,No,No,No
-80.20229268,25.79232469,Williams Park,1717 NW 5TH AVE,Miami,33136,5,MiamiPark,Municipal,No,No,No,No,No,No,No,No,No,No,No,No,No,No,No,No,No,No,No,No,No,No,No,No,No,No,No,No,No,No,No,No,No,No,No,No,No,No,No,No,No,No,No,No
-80.31216272,25.8453747,Tobie Wilson Park,7901 NW SOUTH RIVER DR,Medley,33166,3,MedleyPark,Municipal,No,No,No,No,No,No,No,No,No,No,No,No,No,No,No,No,No,No,No,No,No,No,No,No,No,No,No,No,No,No,No,No,No,No,No,No,No,No,No,No,No,No,No,No
-80.33668273,25.90898472,ML Tax Dist..- (p-72),REDNOCK LN / BRECKNESS PL,Miami Lakes,33016,0,MiamiLakesPark,Municipal,No,No,No,No,No,No,No,No,No,No,No,No,No,No,No,No,No,No,No,No,No,No,No,No,No,No,No,No,No,No,No,No,No,No,No,No,No,No,No,No,No,No,No,No
-80.38477274,25.8275647,Doral Meadow Park,11555 NW 58TH ST,Doral,33178,14,DoralPark,Municipal,No,No,No,Yes,No,No,No,No,No,No,No,No,Yes,No,No,No,No,No,No,No,No,No,No,No,No,Yes,No,Yes,No,No,No,Yes,No,Yes,No,No,Yes,No,No,No,No,Yes,No,No
-80.2685227,25.71992467,Unnamed Park (Orduna Dr),ORDUNA DR /  MILLER RD,Coral Gables,33146,0,CoralGablesPark,Municipal,No,No,No,No,No,No,No,No,No,No,No,No,No,No,No,No,No,No,No,No,No,No,No,No,No,No,No,No,No,No,No,No,No,No,No,No,No,No,No,No,No,No,No,No
-80.20087268,25.79071469,Town Park,NW 4TH AVE / 17TH ST,Miami,33136,8,MiamiPark,Municipal,No,No,No,No,No,No,No,No,No,No,No,No,No,No,No,No,No,No,No,No,No,No,No,No,No,No,No,No,No,No,No,No,No,No,No,No,No,No,No,No,No,No,No,No
-80.2604327,25.70666467,Ingraham Terrace Park,SW 42ND AVE /  W INGRAHAM TER,Coral Gables,33133,2,CoralGablesPark,Municipal,No,No,No,No,No,No,No,No,No,No,No,No,No,No,No,No,No,No,No,No,No,No,No,No,No,No,No,No,No,No,No,No,No,No,No,No,No,No,No,No,No,No,No,No
-80.2630227,25.74876468,Merrick Park,ANDALUSIA AVE / SW 42ND AVE,Coral Gables,33134,1,CoralGablesPark,Municipal,No,No,No,No,No,No,No,No,No,No,No,No,No,No,No,No,No,No,No,No,No,No,No,No,No,No,No,No,No,No,No,No,No,No,No,No,No,No,No,No,No,No,No,No
-80.15908998,25.67607871,Bill Baggs Cape SP, , ,0,0,FloridaPark,State,No,No,No,No,No,No,No,No,No,No,No,No,No,No,No,No,No,No,No,No,No,No,No,No,No,No,No,No,No,No,No,No,No,No,No,No,No,No,No,No,No,No,No,No
-80.13871328,25.91651454,Oleta River State Park,3400 NE 163rd St,North Miami Beach,33160,0,FloridaPark,State,No,No,No,No,No,Yes,No,No,No,No,No,No,No,No,No,No,No,No,No,Yes,Yes,Yes,No,No,No,Yes,No,No,No,No,No,Yes,No,Yes,No,No,No,No,No,No,No,No,No,No
-80.24144072,25.72432278,The Barnacle Historic SP, , ,0,0,FloridaPark,State,No,No,No,No,No,No,No,No,No,No,No,No,No,No,No,No,No,No,No,No,No,No,No,No,No,No,No,No,No,No,No,No,No,No,No,No,No,No,No,No,No,No,No,No
-80.18403268,25.89064472,Liberty Gardens Park,715 NE 125TH ST,North Miami,33161,0,NorthMiamiPark,Municipal,No,No,No,No,No,No,No,No,No,No,No,No,No,No,No,No,No,No,No,No,No,No,No,No,No,No,No,No,No,No,No,No,No,No,No,No,No,No,No,No,No,No,No,No
-80.30845272,25.92353472,ML Tax Dist.- (p-55 library site),16695 NW 67TH AVE,Miami Lakes,33014,1,MiamiLakesPark,Municipal,No,No,No,No,No,No,No,No,No,No,No,No,No,No,No,No,No,No,No,No,No,No,No,No,No,No,No,No,No,No,No,No,No,No,No,No,No,No,No,No,No,No,No,No
-80.30724272,25.92230472,ML Tax Dist.- (p-56),16331 RAVENWOOD PL,Miami Lakes,33014,0,MiamiLakesPark,Municipal,No,No,No,No,No,No,No,No,No,No,No,No,No,No,No,No,No,No,No,No,No,No,No,No,No,No,No,No,No,No,No,No,No,No,No,No,No,No,No,No,No,No,No,No
-80.30608272,25.92230472,ML Tax Dist.- (p-57),6402 TURKEY RUN TER,Miami Lakes,33014,0,MiamiLakesPark,Municipal,No,No,No,No,No,No,No,No,No,No,No,No,No,No,No,No,No,No,No,No,No,No,No,No,No,No,No,No,No,No,No,No,No,No,No,No,No,No,No,No,No,No,No,No
-80.2708827,25.77650468,Kinloch Park,455 NW 47TH AVE,Miami,33126,4,MiamiPark,Municipal,No,No,No,No,No,No,No,No,No,No,No,No,No,No,No,No,No,No,No,No,No,No,No,No,No,No,No,No,No,No,No,No,No,No,No,No,No,No,No,No,No,No,No,No
-80.2830827,25.65417465,Coral Bay Park,1590 CAMPAMENTO AVE,Coral Gables,33156,2,CoralGablesPark,Municipal,No,No,No,No,No,No,No,No,No,No,No,No,No,No,No,No,No,No,No,No,No,No,No,No,No,No,No,No,No,No,No,No,No,No,No,No,No,No,No,No,No,No,No,No
-80.14802267,25.84564471,Galleon Street Tot Lot,1841 GALLEON ST,North Bay Village,33141,0,NorthBayVillagePark,Municipal,No,No,No,No,No,No,No,No,No,No,No,No,No,No,No,No,No,No,No,No,No,No,No,No,No,No,No,No,No,No,No,No,No,No,No,No,No,No,No,No,No,No,No,No
-80.16026267,25.85117471,Paul Vogel Park,7920 WEST DR,North Bay Village,33141,0,NorthBayVillagePark,Municipal,No,No,No,No,No,No,No,No,No,No,No,No,No,No,No,No,No,No,No,No,No,No,No,No,No,No,No,No,No,No,No,No,No,No,No,No,No,No,No,No,No,No,No,No
-80.28679271,25.66893466,Pinecrest Community Center,5855 SW 111ST ST,Pinecrest,33156,0.34,PinecrestPark,Municipal,No,No,No,No,No,No,No,No,No,No,No,No,No,No,No,No,No,No,No,No,No,No,No,No,No,No,No,No,No,No,No,No,No,No,No,No,No,No,No,No,No,No,No,No
-80.12050266,25.86762471,North Shore Open Space Park,79TH ST / COLLINS AVE,Miami Beach,33141,26,MiamiBeachPark,Municipal,No,No,No,No,No,Yes,No,No,No,No,No,No,No,No,No,No,No,No,No,No,No,No,No,No,No,No,No,No,No,No,No,No,No,Yes,No,No,No,No,No,No,No,Yes,No,No
-80.19599268,25.76299468,South Side Park,100 SW 11TH ST,Miami,33130,2,MiamiPark,Municipal,No,No,No,No,No,No,No,No,No,No,No,No,No,No,No,No,No,No,No,No,No,No,No,No,No,No,No,No,No,No,No,No,No,No,No,No,No,No,No,No,No,No,No,No
-80.19301268,25.86123471,Miami Shores Optimist Park,NE 94TH ST / NE 2ND AVE,Miami Shores,33138,1,MiamiShoresPark,Municipal,No,No,No,No,No,No,No,No,No,No,No,No,No,No,No,No,No,No,No,No,No,No,No,No,No,No,No,No,No,No,No,No,No,No,No,No,No,No,No,No,No,No,No,No
-80.18931268,25.94099473,Milton Littman Park,NE MIAMI GARDENS DR / NE 6TH AVE,North Miami  Beach,33162,0,NorthMiamiBeachPark,Municipal,No,No,No,No,No,No,No,No,No,No,No,No,No,No,No,No,No,No,No,No,No,No,No,No,No,Yes,No,No,No,No,No,Yes,No,No,No,No,No,No,No,No,No,No,No,No
-80.27892271,25.77902469,Antonio Maceo Park,5135 NW 7TH ST,Miami,33126,4,MiamiPark,Municipal,No,No,No,No,No,No,No,No,No,No,No,No,No,No,No,No,No,No,No,No,No,No,No,No,No,No,No,No,No,No,No,No,No,No,No,No,No,No,No,No,No,No,No,No
-80.31365272,25.90480472,ML Tax Dist.- (p-18),6943 WILLOW LN,Miami Lakes,33014,0,MiamiLakesPark,Municipal,No,No,No,No,No,No,No,No,No,No,No,No,No,No,No,No,No,No,No,No,No,No,No,No,No,No,No,No,No,No,No,No,No,No,No,No,No,No,No,No,No,No,No,No
-80.31205272,25.90486472,ML Tax Dist..- (p-19),14416 MAHOGANY CT,Miami Lakes,33014,0,MiamiLakesPark,Municipal,No,No,No,No,No,No,No,No,No,No,No,No,No,No,No,No,No,No,No,No,No,No,No,No,No,No,No,No,No,No,No,No,No,No,No,No,No,No,No,No,No,No,No,No
-80.31085272,25.90610472,ML Tax Dist.- (p-20),14611 MAHOGANY CT,Miami Lakes,33014,0,MiamiLakesPark,Municipal,No,No,No,No,No,No,No,No,No,No,No,No,No,No,No,No,No,No,No,No,No,No,No,No,No,No,No,No,No,No,No,No,No,No,No,No,No,No,No,No,No,No,No,No
-80.31181272,25.90360472,ML Tax Dist.- (p-21),6890 WHITE OAK DR,Miami Lakes,33014,2,MiamiLakesPark,Municipal,No,No,No,No,No,No,No,No,No,No,No,No,No,No,No,No,No,No,No,No,No,No,No,No,No,No,No,No,No,No,No,No,No,No,No,No,No,No,No,No,No,No,No,No
-80.31395272,25.90227472,ML Tax Dist..- (p-22),14125 ALAMANDA AVE,Miami Lakes,33014,0,MiamiLakesPark,Municipal,No,No,No,No,No,No,No,No,No,No,No,No,No,No,No,No,No,No,No,No,No,No,No,No,No,No,No,No,No,No,No,No,No,No,No,No,No,No,No,No,No,No,No,No
-80.33920273,25.86766471,Bernie Wilson Park/ Brothers to the Rescue,10300 NW 87TH AVE,Hialeah Gardens,33016,0,HialeahGardensPark,Municipal,No,No,No,No,No,No,No,No,No,No,No,No,No,No,No,No,No,No,No,No,No,No,No,No,No,No,No,No,No,No,No,No,No,No,No,No,No,No,No,No,No,No,No,No
-80.18618268,25.77565469,Bayfront Park,301 BISCAYNE BLVD,Miami,33132,29,MiamiPark,Municipal,No,No,No,No,No,No,No,No,No,No,No,No,No,No,No,No,No,No,No,No,No,No,No,No,No,No,No,No,No,No,No,No,No,No,No,No,No,No,No,No,No,No,No,No
-80.48251276,25.48128461,James Archer Smith Vita Park,300 NW 12TH ST,Homestead,33030,5,HomesteadPark,Municipal,No,No,No,No,No,No,No,No,No,No,No,No,No,No,No,No,No,No,No,No,No,No,No,No,No,No,No,No,No,No,No,No,No,No,No,No,No,No,No,No,No,No,No,No
-80.13573266,25.79553469,Miami Beach Center / Holocaust Memorial,2000 CONVENTION CENTER DR,Miami Beach,33139,5,MiamiBeachPark,Municipal,No,No,No,No,No,No,No,No,No,No,No,No,No,No,No,No,No,No,No,No,No,No,No,No,No,No,No,No,No,No,No,No,No,No,No,No,No,No,No,No,No,No,No,No
-80.48310276,25.4648046,SW Mini Park,522 SW 3RD TER,Homestead,33030,0,HomesteadPark,Municipal,No,No,No,No,No,No,No,No,No,No,No,No,No,No,No,No,No,No,No,No,No,No,No,No,No,No,No,No,No,No,No,No,No,No,No,No,No,No,No,No,No,No,No,No
-80.12072266,25.95767473,Jown Tweedle Park,GOLDEN BEACH DR / TERRACINI AVE,Golden Beach,33160,2,GoldenBeachPark,Municipal,No,No,No,No,No,No,No,No,No,No,No,No,No,No,No,No,No,No,No,No,No,No,No,No,No,No,No,No,No,No,No,No,No,No,No,No,No,No,No,No,No,No,No,No
-80.2484627,25.72763467,Coconut Grove Mini Park,GRAND AVE / ELIZABETH ST,Miami,33133,0,MiamiPark,Municipal,No,No,No,No,No,No,No,No,No,No,No,No,No,No,No,No,No,No,No,No,No,No,No,No,No,No,No,No,No,No,No,No,No,No,No,No,No,No,No,No,No,No,No,No
-80.18912268,25.76798468,Brickell Park,501 BRICKELL AVE,Miami,33131,2,MiamiPark,Municipal,No,No,No,No,No,No,No,No,No,No,No,No,No,No,No,No,No,No,No,No,No,No,No,No,No,No,No,No,No,No,No,No,No,No,No,No,No,No,No,No,No,No,No,No
-80.20059268,25.77037469,Jose Marti Park,362 SW 4TH ST,Miami,33130,6,MiamiPark,Municipal,No,No,No,No,No,No,No,No,No,No,No,No,No,No,No,No,No,No,No,No,No,No,No,No,No,No,No,No,No,No,No,No,No,No,No,No,No,No,No,No,No,No,No,No
-80.18778268,25.85462471,El Portal Tot Lot,500 NE 87TH ST,El Portal,33138,0,ElPortalPark,Municipal,No,No,No,No,No,No,No,No,No,No,No,No,No,No,No,No,No,No,No,No,No,No,No,No,No,No,No,No,No,No,No,No,No,No,No,No,No,No,No,No,No,No,No,No
-80.28496271,25.86518471,Milander Park,4800 PALM AVE,Hialeah,33012,24,HialeahPark,Municipal,Yes,Yes,No,No,Yes,No,No,No,No,No,No,No,Yes,No,No,No,No,No,No,No,No,No,No,Yes,No,Yes,No,Yes,Yes,Yes,Yes,Yes,No,Yes,No,No,No,No,No,No,No,No,No,No
-80.2461927,25.75836468,Coral Gate Park,1415 SW 32ND AVE,Miami,33145,3,MiamiPark,Municipal,No,No,No,No,No,No,No,No,No,No,No,No,No,No,No,No,No,No,No,No,No,No,No,No,No,No,No,No,No,No,No,No,No,No,No,No,No,No,No,No,No,No,No,No
-80.2753927,25.75215468,Granada Golf Course,2001 GRANADA BLVD,Coral Gables,33134,59,CoralGablesPark,Municipal,No,No,No,No,No,No,No,No,No,No,No,No,No,No,No,No,No,No,No,No,No,No,No,No,No,No,No,No,No,No,No,No,No,No,No,No,No,No,No,No,No,No,No,No
-80.16002267,25.92874473,NMB Passive Park on Canal,NE 20TH AVE / N GLADES DR,North Miami  Beach,33162,0,NorthMiamiBeachPark,Municipal,No,No,No,No,No,No,No,No,No,No,No,No,No,No,No,No,No,No,No,No,No,No,No,No,No,No,No,No,No,No,No,No,No,No,No,No,No,No,No,No,No,No,No,No
-80.28640271,25.75565468,Parkway (Country Club Prado),FROM SW 8TH ST TO SEVILLA AVE,Coral Gables,33134,1,CoralGablesPark,Municipal,No,No,No,No,No,No,No,No,No,No,No,No,No,No,No,No,No,No,No,No,No,No,No,No,No,No,No,No,No,No,No,No,No,No,No,No,No,No,No,No,No,No,No,No
-80.19441268,25.78872469,Central Miami Mini Park,1417 N MIAMI AVE,Miami,33132,0,MiamiPark,Municipal,No,No,No,No,No,No,No,No,No,No,No,No,No,No,No,No,No,No,No,No,No,No,No,No,No,No,No,No,No,No,No,No,No,No,No,No,No,No,No,No,No,No,No,No
-80.2531227,25.73985468,Douglas Park,2755 SW 37TH AVE,Miami,33133,9,MiamiPark,Municipal,No,No,No,No,No,No,No,No,No,No,No,No,No,No,No,No,No,No,No,No,No,No,No,No,No,No,No,No,No,No,No,No,No,No,No,No,No,No,No,No,No,No,No,No
-80.21871269,25.8199347,Charles Hadley (Manor) Park,1300 NW 50TH ST,Miami,33142,28,MiamiPark,Municipal,No,No,No,No,No,No,No,No,No,No,No,No,No,No,No,No,No,No,No,No,No,No,No,No,No,No,No,No,No,No,No,No,No,No,No,No,No,No,No,No,No,No,No,No
-80.31401272,25.88927471,Timothy H. Artman Park,1550 W 76TH ST,Hialeah,33014,7,HialeahPark,Municipal,No,No,No,No,No,No,No,No,No,No,No,No,No,No,No,No,No,No,No,No,No,Yes,No,No,No,No,No,No,No,No,No,No,No,Yes,No,No,No,No,No,No,No,No,No,No
-80.29232271,25.70829467,Marshall Williamson Park,6125 SW 68TH ST,South Miami,33143,3,SouthMiamiPark,Municipal,No,No,No,No,No,No,No,No,No,No,No,No,No,No,No,No,No,No,No,No,No,No,No,No,No,No,No,No,No,No,No,No,No,No,No,No,No,No,No,No,No,No,No,No
-80.23257269,25.76080468,Bryan Park,2301 SW 13TH ST,Miami,33135,2,MiamiPark,Municipal,No,No,No,No,No,No,No,No,No,No,No,No,No,No,No,No,No,No,No,No,No,No,No,No,No,No,No,No,No,No,No,No,No,No,No,No,No,No,No,No,No,No,No,No
-80.2532827,25.90596472,Sherbondy Park,777 SHARAZAD BLVD,Opa Locka,33054,4,OpaLockaiPark,Municipal,No,No,No,No,No,No,No,No,No,No,No,No,No,No,No,No,No,No,No,No,No,No,No,No,No,No,No,No,No,No,No,No,No,No,No,No,No,No,No,No,No,No,No,No
-80.2731727,25.74571468,Venetian Pool,2701 DE SOTO BLVD,Coral Gables,33134,2,CoralGablesPark,Municipal,No,No,No,No,No,No,No,No,No,No,No,No,No,No,No,No,No,No,No,No,No,No,No,No,No,No,No,No,No,No,No,No,No,No,No,No,No,No,No,No,No,No,No,No
-80.13083266,25.8174147,Muss Park,4400 CHASE AVE,Miami Beach,33140,1,MiamiBeachPark,Municipal,No,No,No,No,No,No,No,No,No,No,No,No,Yes,No,No,No,No,No,No,No,No,No,No,No,No,Yes,No,No,No,No,No,Yes,No,No,No,No,No,No,No,No,No,No,No,No
-80.20205268,25.79692469,Rainbow Village Mini Park,2001 NW 4TH CT,Miami,33127,2,MiamiPark,Municipal,No,No,No,No,No,No,No,No,No,No,No,No,No,No,No,No,No,No,No,No,No,No,No,No,No,No,No,No,No,No,No,No,No,No,No,No,No,No,No,No,No,No,No,No
-80.22077269,25.95244473,North Dade Optimists Club,19455 NW 12TH AVE,Miami Gardens,33169,4,MiamiGardensPark,Municipal,No,No,No,No,No,No,No,No,No,No,No,No,No,No,No,No,No,No,No,No,No,No,No,No,No,No,No,No,No,No,No,No,No,No,No,No,No,No,No,No,No,No,No,No
-80.2490427,25.94545473,Brentwood Pool,18800 NW 28TH PL,Miami Gardens,33056,4,MiamiGardensPark,Municipal,No,No,No,No,No,No,No,No,No,No,No,No,No,No,No,No,No,No,No,No,No,No,No,No,No,No,No,No,No,No,No,No,No,No,No,No,No,No,No,No,No,No,No,No
-80.22808269,25.93677473,Scott Park,17710 NW 15TH CT,Miami Gardens,33169,9,MiamiGardensPark,Municipal,No,No,No,No,No,No,No,No,No,No,No,No,No,No,No,No,No,No,No,No,No,No,No,No,No,No,No,No,No,No,No,No,No,No,No,No,No,No,No,No,No,No,No,No
-80.2373627,25.91651472,Bunche Park and Pool,15727 NW 22ND AVE,Miami Gardens,33054,9,MiamiGardensPark,Municipal,No,No,No,No,No,No,No,No,No,No,No,No,No,No,No,No,No,No,No,No,No,No,No,No,No,No,No,No,No,No,No,No,No,No,No,No,No,No,No,No,No,No,No,No
-80.36316273,25.82293469,Morgan Levy Park,5300 NW 102ND AVE,Doral,33178,14,DoralPark,Municipal,No,No,No,No,Yes,No,No,No,No,No,No,No,No,No,No,No,No,No,No,No,No,No,No,Yes,No,Yes,No,Yes,No,No,Yes,Yes,No,Yes,Yes,No,Yes,No,No,No,No,Yes,No,No
-80.12776266,25.86137471,Biscayne Elementary Park,800 77TH ST,Miami Beach,33141,2,MiamiBeachPark,Municipal,No,No,No,No,No,No,No,No,No,No,No,No,No,No,No,No,No,No,No,No,No,No,No,No,No,No,No,No,No,No,No,No,No,No,No,No,No,No,No,No,No,No,No,No
-80.27137271,25.8276147,Benny Babcock Park & Pool,651 E 4TH AVE,Hialeah,33010,18,HialeahPark,Municipal,No,No,No,Yes,Yes,No,No,No,No,No,No,No,Yes,No,No,No,No,No,No,No,No,No,Yes,Yes,No,Yes,No,Yes,No,Yes,Yes,Yes,No,No,No,No,No,No,No,No,No,No,No,No
-80.22093269,25.88882472,Sunkist Grove Center,12500 NW 13TH AVE,North Miami,33167,1,NorthMiamiPark,Municipal,No,No,No,No,No,No,No,No,No,No,No,No,No,No,No,No,No,No,No,No,No,No,No,No,No,No,No,No,No,No,No,No,No,No,No,No,No,No,No,No,No,No,No,No
-80.30721272,25.91981472,Miami Lakes Optimist Park,6411 NW 162ND ST,Miami Lakes,33014,29,MiamiLakesPark,Municipal,No,No,No,Yes,Yes,No,No,No,No,No,No,No,No,No,No,No,No,No,Yes,No,No,No,No,No,No,Yes,No,No,No,No,Yes,Yes,No,No,No,No,Yes,No,No,No,No,No,No,No
-80.33329273,25.90876472,ML Tax Dist.-lake sandra area,OAK LN / MONTROSE ST,Miami Lakes,33016,0,MiamiLakesPark,Municipal,No,No,No,No,No,No,No,No,No,No,No,No,No,No,No,No,No,No,No,No,No,No,No,No,No,No,No,No,No,No,No,No,No,No,No,No,No,No,No,No,No,No,No,No
-80.19840268,25.8087247,Roberto Clemente Park,101 NW 34TH ST,Miami,33127,5,MiamiPark,Municipal,No,No,No,No,No,No,No,No,No,No,No,No,No,No,No,No,No,No,No,No,No,No,No,No,No,No,No,No,No,No,No,No,No,No,No,No,No,No,No,No,No,No,No,No
-80.28653271,25.87800471,Leon H. O'Quinn Park,6051 W 2ND AVE,Hialeah,33012,5,HialeahPark,Municipal,No,No,No,Yes,Yes,No,No,No,No,No,No,No,Yes,No,No,No,No,No,No,No,No,No,Yes,Yes,No,No,No,Yes,No,No,Yes,Yes,No,Yes,No,No,No,No,No,No,No,No,No,No
-80.13271266,25.79733469,21 Street Recreation Center,2100 WASHINGTON AVE,Miami Beach,33139,0,MiamiBeachPark,Municipal,No,No,No,No,No,No,No,No,No,No,No,No,No,No,No,No,No,No,No,No,No,No,No,No,No,No,No,No,No,No,No,No,No,No,No,No,No,No,No,No,No,No,No,No
-80.31843272,25.91279472,ML Tax Dist.- (p-53),7281 FAIRWAY DR,Miami Lakes,33014,0,MiamiLakesPark,Municipal,No,No,No,No,No,No,No,No,No,No,No,No,No,No,No,No,No,No,No,No,No,No,No,No,No,No,No,No,No,No,No,No,No,No,No,No,No,No,No,No,No,No,No,No
-80.31944272,25.91010472,ML Tax Dist.- (p-43),NW 154TH ST / S MIAMI LAKEWAY,Miami Lakes,33014,0,MiamiLakesPark,Municipal,No,No,No,No,No,No,No,No,No,No,No,No,No,No,No,No,No,No,No,No,No,No,No,No,No,No,No,No,No,No,No,No,No,No,No,No,No,No,No,No,No,No,No,No
-80.31918272,25.90682472,ML Tax Dist.- (p-32),BIG CYPRESS CT / TWIN SABAL DR,Miami Lakes,33014,1,MiamiLakesPark,Municipal,No,No,No,No,No,No,No,No,No,No,No,No,No,No,No,No,No,No,No,No,No,No,No,No,No,No,No,No,No,No,No,No,No,No,No,No,No,No,No,No,No,No,No,No
-80.30180272,25.90874472,ML Tax Dist..- (p-33),S MIAMI LAKEWAY /  EGAN LN,Miami Lakes,33014,1,MiamiLakesPark,Municipal,No,No,No,No,No,No,No,No,No,No,No,No,No,No,No,No,No,No,No,No,No,No,No,No,No,No,No,No,No,No,No,No,No,No,No,No,No,No,No,No,No,No,No,No
-80.30128272,25.91193472,ML Tax Dist.- (p-34a & b),N MIAMI LAKEWAY /  NW 153RD ST,Miami Lakes,33014,1,MiamiLakesPark,Municipal,No,No,No,No,No,No,No,No,No,No,No,No,No,No,No,No,No,No,No,No,No,No,No,No,No,No,No,No,No,No,No,No,No,No,No,No,No,No,No,No,No,No,No,No
-80.30748272,25.89926471,"ML Tax Dist.- tract ""a"" (park site)",13849 NW 67TH AVE,Miami Lakes,33014,1,MiamiLakesPark,Municipal,No,No,No,No,No,No,No,No,No,No,No,No,No,No,No,No,No,No,No,No,No,No,No,No,No,No,No,No,No,No,No,No,No,No,No,No,No,No,No,No,No,No,No,No
-80.16734268,25.93315473,Edna Moffat Blvd,NE 16TH AVE / NE 171ST ST,North Miami  Beach,33162,0,NorthMiamiBeachPark,Municipal,No,No,No,No,No,No,No,No,No,No,No,No,No,No,No,No,No,No,No,No,No,No,No,No,No,No,No,No,No,No,No,No,No,No,No,No,No,No,No,No,No,No,No,No
-80.34740273,25.90265472,Unnamed Park Miami Lakes,14100 NW 89TH AVE,Miami Lakes,33018,0,MiamiLakesPark,Municipal,No,No,No,No,No,No,No,No,No,No,No,No,No,No,No,No,No,No,No,No,No,No,No,No,No,No,No,No,No,No,No,No,No,No,No,No,No,No,No,No,No,No,No,No
-80.31762272,25.89939472,"ML Tax Dist.- lot ""d""",LEANING PINE DR / BAMBOO ST,Miami Lakes,33014,1,MiamiLakesPark,Municipal,No,No,No,No,No,No,No,No,No,No,No,No,No,No,No,No,No,No,No,No,No,No,No,No,No,No,No,No,No,No,No,No,No,No,No,No,No,No,No,No,No,No,No,No
-80.12505267,25.94055473,Senator Gwen Margolis Park,17815 NORTH BAY RD,Sunny Isles Beach,33160,3,SunnyIslesBeachPark,Municipal,No,No,No,No,No,No,No,No,No,No,Yes,No,No,No,No,No,No,No,No,No,No,No,No,No,No,No,No,Yes,No,No,No,Yes,No,No,No,No,Yes,No,No,No,No,No,No,No
-80.12243266,25.93592473,Town Center Park,17200 COLLINS AVE,Sunny Isles Beach,33160,3,SunnyIslesBeachPark,Municipal,No,No,No,No,No,No,No,No,No,No,No,No,No,No,No,No,No,No,No,No,No,No,No,No,No,No,No,No,No,No,No,Yes,No,Yes,No,No,Yes,No,No,No,No,No,No,No
-80.29076271,25.73067467,South Miami Park,4300 SW 58TH AVE,South Miami,33155,10.3,SouthMiamiPark,Municipal,No,No,No,No,No,No,No,No,No,No,No,No,No,No,No,No,No,No,No,No,No,No,No,No,No,No,No,No,No,No,No,No,No,No,No,No,No,No,No,No,No,No,No,No
-80.28662271,25.69643466,Dison Park,8021 SW 58TH AVE,South Miami,33143,0.6,SouthMiamiPark,Municipal,No,No,No,No,No,No,No,No,No,No,No,No,No,No,No,No,No,No,No,No,No,No,No,No,No,No,No,No,No,No,No,No,No,No,No,No,No,No,No,No,No,No,No,No
-80.28969271,25.69851467,Van Smith Park,7800 SW 59TH AVE,South Miami,33143,1.1,SouthMiamiPark,Municipal,No,No,No,No,No,No,No,No,No,No,No,No,No,No,No,No,No,No,No,No,No,No,No,No,No,No,No,No,No,No,No,No,No,No,No,No,No,No,No,No,No,No,No,No
-80.29813271,25.70701467,All-America Park,6820 SW 64TH AVE,South Miami,33143,1.3,SouthMiamiPark,Municipal,No,No,No,No,No,No,No,No,No,No,No,No,No,No,No,No,No,No,No,No,No,No,No,No,No,No,No,No,No,No,No,No,No,No,No,No,No,No,No,No,No,No,No,No
-80.30917271,25.61029464,Thalatta Estate Park,17301 OLD CUTLER RD,Palmetto Bay,33157,4,PalmettoBayPark,Municipal,No,No,No,No,No,No,No,No,No,No,No,No,No,No,No,No,No,No,No,No,No,Yes,No,No,No,No,No,No,No,No,No,No,No,Yes,No,No,Yes,No,No,No,No,No,No,No
-80.12723266,25.8358147,La Gorce Golf Course,5685 ALTON RD,Miami Beach,33140,136.8,MiamiBeachPark,Municipal,No,No,No,No,No,No,No,No,No,No,No,No,No,No,No,No,No,No,No,No,No,No,No,No,No,No,No,No,No,No,No,No,No,No,No,No,No,No,No,No,No,No,No,No
-80.19207268,25.77091469,Fort Dallas Mini Park,64 SE 4TH ST,Miami,33131,0,MiamiPark,Municipal,No,No,No,No,No,No,No,No,No,No,No,No,No,No,No,No,No,No,No,No,No,No,No,No,No,No,No,No,No,No,No,No,No,No,No,No,No,No,No,No,No,No,No,No
-80.18992268,25.76967469,Miami River Walk,MIAMI RIVER-BRICKELL TO 2 AVE,Miami,33131,0,MiamiPark,Municipal,No,No,No,No,No,No,No,No,No,No,No,No,No,No,No,No,No,No,No,No,No,No,No,No,No,No,No,No,No,No,No,No,No,No,No,No,No,No,No,No,No,No,No,No
-80.16985268,25.91837472,Martin Luther King Park,NE 15TH CT / NE 155TH ST,North Miami  Beach,33162,0,NorthMiamiBeachPark,Municipal,No,No,No,No,No,No,No,No,No,No,No,No,No,No,No,No,No,No,No,No,No,No,No,No,No,No,No,No,No,No,No,No,No,No,No,No,No,No,No,No,No,No,No,No
-80.17631827,25.8462563,Little River Pocket Park,994 NE 78TH ST,Miami,33138,,MiamiPark,Municipal,No,No,No,No,No,No,No,No,No,No,No,No,No,No,No,No,No,No,No,No,No,No,No,No,No,No,No,No,No,No,No,No,No,No,No,No,No,No,No,No,No,No,No,No
-80.44968704,25.66051574,West End District Park,11255 SW 157 Avenue,Miami,33196,164,MiamiDadePark,County,No,No,No,No,No,No,No,No,No,No,Yes,No,No,No,No,No,No,No,No,No,No,No,No,No,No,No,No,No,No,No,No,No,No,No,No,No,No,No,No,No,No,No,No,No
-80.32008758,25.89129504,Gardens Of the Arts,West 17 Ave and 76 Street,Hialeah,33014,,HialeahPark,Municipal,Yes,No,No,No,No,No,No,No,No,No,No,No,No,No,No,No,No,No,No,No,No,No,No,No,No,No,No,No,No,No,No,No,No,Yes,No,No,No,No,No,No,No,No,No,No
-80.76585584,25.75704486,Everglades NP - Shark Valley,36000 SW 8th Street,Miami,33194,,UnitedStatesPark,Federal,No,No,No,No,No,No,No,No,No,No,No,No,No,No,No,No,No,No,No,Yes,Yes,Yes,No,No,No,Yes,No,No,No,No,No,No,No,Yes,No,No,Yes,No,No,No,No,No,No,No
-80.57430789,25.39915656,Everglades National Park,40001 State Road 9336,Homestead,33034,,UnitedStatesPark,Federal,Yes,Yes,No,No,No,No,No,Yes,Yes,Yes,No,No,No,No,No,No,No,No,Yes,Yes,Yes,Yes,No,No,No,Yes,No,No,No,No,No,No,No,Yes,No,No,Yes,No,No,No,No,No,No,No
-80.27345015,25.81793772,Entry Plaza Park,Se 4th Ave and Okeechobee Road,Hialeah,33010,,HialeahPark,Municipal,No,No,No,No,No,No,No,No,No,No,No,No,No,No,No,No,No,No,No,No,No,No,No,No,No,No,No,No,No,No,No,No,No,No,No,No,No,No,No,No,No,No,No,No
-80.3352265,25.46384168,Biscayne National Park,9700 SW 328th St.,Homestead,33033,,UnitedStatesPark,Federal,No,Yes,No,No,No,Yes,No,Yes,Yes,No,No,No,No,No,No,No,No,No,Yes,No,Yes,Yes,No,No,No,Yes,No,No,No,Yes,No,No,No,Yes,No,No,Yes,No,No,No,No,No,No,No
-80.33228509,25.91033989,Picnic Park West,15151 NW 82 AVE,"Miami Lakes, FL",33016,,MiamiLakesPark,Municipal,No,No,No,No,Yes,No,No,No,No,No,No,No,No,No,No,No,No,No,No,No,No,No,No,Yes,No,Yes,No,No,No,No,No,Yes,No,Yes,No,No,Yes,No,No,No,No,Yes,No,No
-80.32616517,25.9277665,NW 170 ST GreenWay Trail,NW 77 AVE TO NW 89 AVE,Miami Lakes,33018,,MiamiLakesPark,Municipal,No,No,No,No,No,No,No,No,No,No,No,No,No,No,No,No,No,No,No,Yes,No,No,No,No,No,No,No,No,No,No,No,No,No,Yes,No,No,No,No,No,No,No,No,No,No
-80.33403253,25.82083958,Downtown Doral Park,8395 NW 53rd St.,Doral,33166,,DoralPark,Municipal,No,No,No,No,No,No,No,No,No,No,No,No,No,No,No,No,No,No,No,No,No,No,No,No,No,Yes,No,No,No,No,No,Yes,No,No,No,No,No,No,No,No,No,No,No,No
-80.27666583,25.82124189,KW,Eucalyptus Dr and Olive Dr,Hialeah,33010,,,Municipal,No,No,No,No,No,No,No,No,No,No,No,No,No,No,No,No,No,No,No,No,No,No,No,No,No,No,No,No,No,No,No,No,No,No,No,No,No,No,No,No,No,No,No,No